{"type":"FeatureCollection","metadata":{"routeId":"18","sourceDate":"20260130","source":"https://bus.data.tfl.gov.uk/bus-geometry/"},"features":[{"type":"Feature","properties":{"routeId":"18","direction":"1","sourceDate":"20260130"},"geometry":{"type":"LineString","coordinates":[[-0.314823,51.554114],[-0.314558,51.553619],[-0.314085,51.553181],[-0.313357,51.552973],[-0.312941,51.552526],[-0.311444,51.552046],[-0.308549,51.551554],[-0.307088,51.551668],[-0.305953,51.551913],[-0.304177,51.551977],[-0.301973,51.552287],[-0.299473,51.552017],[-0.298346,51.552063],[-0.297649,51.552188],[-0.293512,51.553676],[-0.293063,51.553704],[-0.291453,51.553573],[-0.289587,51.553708],[-0.286214,51.553254],[-0.285418,51.552936],[-0.283531,51.551344],[-0.279773,51.54887],[-0.275342,51.547205],[-0.273784,51.5463],[-0.273421,51.54598],[-0.27251,51.544897],[-0.2703,51.543153],[-0.268392,51.54284],[-0.262528,51.54117],[-0.261521,51.541111],[-0.258479,51.54147],[-0.257806,51.541378],[-0.255303,51.540679],[-0.254468,51.540385],[-0.253123,51.539745],[-0.250402,51.538868],[-0.24912,51.53884],[-0.247978,51.537798],[-0.246983,51.537405],[-0.246313,51.537022],[-0.245415,51.536195],[-0.244957,51.536098],[-0.244534,51.535858],[-0.242325,51.534342],[-0.239865,51.532784],[-0.239085,51.532458],[-0.23735,51.532207],[-0.234333,51.532665],[-0.231362,51.531338],[-0.23049,51.531016],[-0.228994,51.530607],[-0.22837,51.530282],[-0.228013,51.530196],[-0.225492,51.530158],[-0.223527,51.529894],[-0.221661,51.529309],[-0.21821,51.528699],[-0.21474,51.527486],[-0.212914,51.527111],[-0.20902,51.526712],[-0.20562,51.526232],[-0.205207,51.526108],[-0.202552,51.524664],[-0.201293,51.524097],[-0.200652,51.523898],[-0.194892,51.523028],[-0.194186,51.52272],[-0.193393,51.521916],[-0.19119,51.520417],[-0.18943,51.519858],[-0.184443,51.519728],[-0.183211,51.519889],[-0.182248,51.520179],[-0.180808,51.520868],[-0.180546,51.520926],[-0.180317,51.520887],[-0.179352,51.520341],[-0.178787,51.520225],[-0.16987,51.520086],[-0.165009,51.520873],[-0.152538,51.523097],[-0.149531,51.52332],[-0.144843,51.52409],[-0.142549,51.52403],[-0.14085,51.524432],[-0.140425,51.524605],[-0.136834,51.525566],[-0.135563,51.525769],[-0.132677,51.52672]]}},{"type":"Feature","properties":{"routeId":"18","direction":"2","sourceDate":"20260130"},"geometry":{"type":"LineString","coordinates":[[-0.131801,51.527751],[-0.130226,51.528291],[-0.129687,51.527734],[-0.132075,51.52681],[-0.135334,51.525729],[-0.135864,51.525459],[-0.136283,51.525429],[-0.137453,51.525025],[-0.140131,51.524402],[-0.142456,51.523936],[-0.142904,51.523898],[-0.144659,51.524006],[-0.148912,51.523273],[-0.152484,51.522988],[-0.165087,51.520749],[-0.166537,51.520572],[-0.168969,51.519951],[-0.170054,51.519819],[-0.176811,51.519897],[-0.17766,51.519569],[-0.177933,51.5196],[-0.178981,51.520048],[-0.180204,51.520094],[-0.184883,51.519528],[-0.189357,51.519628],[-0.189947,51.519768],[-0.190528,51.520011],[-0.193393,51.521916],[-0.194015,51.522609],[-0.19451,51.522894],[-0.195249,51.523096],[-0.200278,51.523829],[-0.201293,51.524097],[-0.203255,51.525019],[-0.205378,51.526174],[-0.209362,51.526774],[-0.213296,51.527167],[-0.214898,51.527539],[-0.217411,51.528474],[-0.21821,51.528699],[-0.221661,51.529309],[-0.223497,51.529886],[-0.225492,51.530158],[-0.228013,51.530196],[-0.22837,51.530282],[-0.229233,51.530709],[-0.23049,51.531016],[-0.231428,51.531363],[-0.234034,51.53258],[-0.234419,51.532676],[-0.23735,51.532207],[-0.238284,51.532293],[-0.239199,51.532496],[-0.240117,51.532936],[-0.242652,51.534553],[-0.244398,51.535773],[-0.244957,51.536098],[-0.245415,51.536195],[-0.245858,51.53666],[-0.246686,51.537257],[-0.247111,51.537461],[-0.248561,51.536947],[-0.250079,51.538647],[-0.250402,51.538868],[-0.253123,51.539745],[-0.254328,51.540324],[-0.255664,51.54079],[-0.258019,51.541436],[-0.258898,51.541449],[-0.260566,51.541186],[-0.261821,51.54112],[-0.262828,51.541238],[-0.268392,51.54284],[-0.270128,51.543097],[-0.270484,51.543246],[-0.272882,51.544992],[-0.273413,51.545969],[-0.273784,51.5463],[-0.27528,51.547176],[-0.280413,51.549104],[-0.281287,51.549648],[-0.281989,51.550285],[-0.283531,51.551344],[-0.285073,51.552718],[-0.285418,51.552936],[-0.286257,51.553263],[-0.289055,51.553664],[-0.289979,51.553705],[-0.291783,51.55358],[-0.293035,51.553704],[-0.293512,51.553676],[-0.297955,51.552121],[-0.299473,51.552017],[-0.301499,51.552266],[-0.302349,51.552256],[-0.304583,51.551929],[-0.305953,51.551913],[-0.307533,51.55162],[-0.308865,51.551577],[-0.311444,51.552046],[-0.313228,51.552566],[-0.313707,51.552483],[-0.314036,51.552569],[-0.31416,51.552705],[-0.314174,51.55311],[-0.314522,51.553448],[-0.314629,51.553753]]}}]}