{"type":"FeatureCollection","metadata":{"routeId":"236","sourceDate":"20260905","source":"https://bus.data.tfl.gov.uk/bus-geometry/"},"features":[{"type":"Feature","properties":{"routeId":"236","direction":"1","sourceDate":"20260905"},"geometry":{"type":"LineString","coordinates":[[-0.105528,51.564818],[-0.105334,51.564959],[-0.104773,51.564581],[-0.104508,51.564712],[-0.103732,51.564286],[-0.099491,51.561483],[-0.098753,51.561876],[-0.098612,51.561811],[-0.097932,51.562196],[-0.097749,51.562076],[-0.097232,51.562382],[-0.092465,51.563905],[-0.092014,51.562963],[-0.091736,51.562014],[-0.09176,51.560396],[-0.091605,51.559962],[-0.091984,51.559869],[-0.092123,51.559304],[-0.092513,51.555165],[-0.092366,51.553841],[-0.091704,51.551456],[-0.091823,51.551035],[-0.092297,51.550508],[-0.09119,51.550243],[-0.090971,51.550302],[-0.09086,51.550193],[-0.090545,51.550143],[-0.086937,51.54985],[-0.085868,51.551262],[-0.085505,51.552012],[-0.083609,51.552152],[-0.080115,51.551888],[-0.079544,51.551743],[-0.078711,51.550983],[-0.077734,51.54952],[-0.077135,51.549699],[-0.076145,51.550267],[-0.075178,51.55062],[-0.073306,51.550895],[-0.072396,51.551249],[-0.072225,51.55121],[-0.071922,51.550863],[-0.071399,51.550612],[-0.071096,51.550274],[-0.070888,51.548049],[-0.068649,51.548111],[-0.069168,51.547454],[-0.069789,51.54576],[-0.070345,51.53769],[-0.07027,51.536394],[-0.063482,51.53666],[-0.063375,51.536784],[-0.063423,51.537224],[-0.063776,51.537546],[-0.06196,51.538444],[-0.061508,51.538318],[-0.060962,51.537922],[-0.060799,51.537694],[-0.060401,51.537553],[-0.059348,51.537554],[-0.057179,51.53803],[-0.057136,51.538474],[-0.055245,51.540795],[-0.055388,51.543873],[-0.055271,51.545891],[-0.054767,51.545938],[-0.054001,51.546293],[-0.050662,51.547131],[-0.04997,51.547128],[-0.04785,51.546787],[-0.04786,51.547219],[-0.047724,51.548053],[-0.046989,51.548032],[-0.047531,51.549192],[-0.045291,51.549613],[-0.044328,51.549876],[-0.043498,51.548387],[-0.041913,51.548684],[-0.039988,51.548821],[-0.036249,51.54957],[-0.032942,51.550351],[-0.031061,51.551138],[-0.027295,51.547846],[-0.028756,51.547403],[-0.029588,51.546807]]}},{"type":"Feature","properties":{"routeId":"236","direction":"2","sourceDate":"20260905"},"geometry":{"type":"LineString","coordinates":[[-0.028845,51.547351],[-0.027295,51.547846],[-0.031061,51.551138],[-0.033053,51.550319],[-0.038273,51.549127],[-0.040583,51.548752],[-0.042102,51.548652],[-0.043044,51.550214],[-0.044078,51.549944],[-0.044328,51.549876],[-0.043498,51.548387],[-0.045347,51.548038],[-0.047609,51.548042],[-0.047749,51.546785],[-0.048368,51.546823],[-0.04997,51.547128],[-0.050662,51.547131],[-0.05391,51.546287],[-0.054726,51.545858],[-0.054779,51.545789],[-0.054611,51.544579],[-0.055378,51.54443],[-0.055285,51.541884],[-0.055221,51.541694],[-0.055261,51.540741],[-0.055725,51.540021],[-0.056069,51.539721],[-0.056996,51.538621],[-0.057042,51.538208],[-0.056981,51.537964],[-0.057471,51.537945],[-0.059537,51.53753],[-0.060401,51.537553],[-0.060743,51.537658],[-0.060962,51.537922],[-0.061508,51.538318],[-0.062001,51.538406],[-0.063776,51.537546],[-0.063423,51.537224],[-0.063375,51.536784],[-0.063482,51.53666],[-0.07027,51.536394],[-0.070341,51.537789],[-0.069789,51.54576],[-0.069618,51.546356],[-0.069206,51.547213],[-0.069185,51.547374],[-0.069259,51.547425],[-0.069077,51.547543],[-0.068649,51.548111],[-0.070888,51.548049],[-0.071096,51.550274],[-0.071469,51.550667],[-0.072348,51.551023],[-0.075178,51.55062],[-0.076145,51.550267],[-0.077179,51.549664],[-0.077693,51.549465],[-0.078711,51.550983],[-0.079544,51.551743],[-0.080115,51.551888],[-0.083609,51.552152],[-0.084449,51.552075],[-0.084825,51.551029],[-0.08519,51.550928],[-0.086129,51.55088],[-0.086937,51.54985],[-0.09086,51.550193],[-0.090978,51.550149],[-0.091089,51.550232],[-0.092297,51.550508],[-0.091823,51.551035],[-0.091704,51.551456],[-0.092366,51.553841],[-0.092513,51.555165],[-0.092123,51.559304],[-0.091984,51.559869],[-0.091605,51.559962],[-0.09176,51.560396],[-0.091736,51.562014],[-0.092014,51.562963],[-0.092465,51.563905],[-0.097232,51.562382],[-0.097749,51.562076],[-0.097932,51.562196],[-0.098612,51.561811],[-0.098753,51.561876],[-0.099491,51.561483],[-0.103732,51.564286],[-0.103949,51.564253],[-0.105097,51.563714],[-0.105715,51.564129],[-0.105668,51.564218],[-0.105741,51.564337]]}}]}