{"type":"FeatureCollection","metadata":{"routeId":"242","sourceDate":"20251223","source":"https://bus.data.tfl.gov.uk/bus-geometry/"},"features":[{"type":"Feature","properties":{"routeId":"242","direction":"1","sourceDate":"20251223"},"geometry":{"type":"LineString","coordinates":[[-0.043864,51.549037],[-0.043498,51.548387],[-0.042102,51.548652],[-0.043876,51.551667],[-0.044382,51.552664],[-0.0414,51.553244],[-0.041548,51.553498],[-0.037732,51.554236],[-0.036928,51.554914],[-0.038574,51.555886],[-0.039612,51.557917],[-0.039928,51.558086],[-0.04157,51.55768],[-0.043765,51.557285],[-0.046504,51.556989],[-0.046441,51.556781],[-0.046631,51.556713],[-0.049578,51.553596],[-0.04925,51.552161],[-0.049433,51.551921],[-0.051679,51.551347],[-0.051512,51.550974],[-0.051626,51.550906],[-0.053327,51.550592],[-0.054549,51.549668],[-0.05519,51.549526],[-0.059249,51.549544],[-0.060106,51.549451],[-0.06089,51.549061],[-0.063275,51.54832],[-0.064268,51.548372],[-0.066842,51.548322],[-0.068429,51.548189],[-0.068649,51.548111],[-0.069168,51.547454],[-0.069126,51.547409],[-0.069634,51.546311],[-0.069957,51.546173],[-0.071799,51.546266],[-0.075691,51.546202],[-0.075983,51.544878],[-0.076708,51.539647],[-0.07694,51.535523],[-0.077178,51.532937],[-0.077046,51.531973],[-0.077063,51.531569],[-0.077339,51.530143],[-0.077583,51.529332],[-0.077772,51.529116],[-0.077986,51.528481],[-0.078088,51.527422],[-0.078055,51.526162],[-0.077471,51.525316],[-0.077365,51.524986],[-0.07726,51.52382],[-0.077548,51.52315],[-0.077479,51.523059],[-0.077516,51.522871],[-0.077431,51.522725],[-0.075312,51.521118],[-0.074523,51.52034],[-0.074526,51.519261],[-0.074432,51.518414],[-0.071756,51.515223],[-0.074951,51.514111]]}},{"type":"Feature","properties":{"routeId":"242","direction":"2","sourceDate":"20251223"},"geometry":{"type":"LineString","coordinates":[[-0.07527,51.513864],[-0.075249,51.514066],[-0.072059,51.51521],[-0.071996,51.515344],[-0.072101,51.515588],[-0.074449,51.518351],[-0.074526,51.519261],[-0.074483,51.520286],[-0.075312,51.521118],[-0.077431,51.522725],[-0.077516,51.522871],[-0.077479,51.523059],[-0.077548,51.52315],[-0.07726,51.52382],[-0.077283,51.524392],[-0.077471,51.525316],[-0.078067,51.526225],[-0.078088,51.527422],[-0.077986,51.528481],[-0.077339,51.530143],[-0.077063,51.531569],[-0.077046,51.531973],[-0.077176,51.532869],[-0.07701,51.534535],[-0.076708,51.539647],[-0.075983,51.544878],[-0.075691,51.546202],[-0.070445,51.546226],[-0.070082,51.546283],[-0.069476,51.546632],[-0.069126,51.547409],[-0.069168,51.547454],[-0.068649,51.548111],[-0.068429,51.548189],[-0.066541,51.548325],[-0.064268,51.548372],[-0.063391,51.548304],[-0.062736,51.548446],[-0.06089,51.549061],[-0.059946,51.549476],[-0.059249,51.549544],[-0.05519,51.549526],[-0.054549,51.549668],[-0.053415,51.550548],[-0.051683,51.551012],[-0.051599,51.551193],[-0.051733,51.551447],[-0.052659,51.552379],[-0.052115,51.552613],[-0.050437,51.553071],[-0.049847,51.553367],[-0.049217,51.553941],[-0.046631,51.556713],[-0.046441,51.556781],[-0.046504,51.556989],[-0.043765,51.557285],[-0.04157,51.55768],[-0.039928,51.558086],[-0.039612,51.557917],[-0.038574,51.555886],[-0.036928,51.554914],[-0.037732,51.554236],[-0.041548,51.553498],[-0.041081,51.552591],[-0.044063,51.552011],[-0.043044,51.550232],[-0.044078,51.549944]]}}]}