{"type":"FeatureCollection","metadata":{"routeId":"276","sourceDate":"20260509","source":"https://bus.data.tfl.gov.uk/bus-geometry/"},"features":[{"type":"Feature","properties":{"routeId":"276","direction":"1","sourceDate":"20260509"},"geometry":{"type":"MultiLineString","coordinates":[[[0.03974,51.520746],[0.039495,51.52067],[0.039271,51.521133],[0.039022,51.521047],[0.039062,51.520974],[0.039001,51.520906],[0.038787,51.520961],[0.038878,51.521063],[0.038824,51.521464],[0.038874,51.521616],[0.039171,51.521914],[0.038949,51.522001],[0.034004,51.522618],[0.033291,51.522551],[0.031228,51.522108],[0.030838,51.522781],[0.030224,51.524246],[0.029307,51.525928],[0.024083,51.522879],[0.022559,51.522392],[0.01845,51.520399],[0.010722,51.516953],[0.010478,51.51966],[0.00983,51.519689],[0.009691,51.519818],[0.009033,51.51991],[0.006702,51.520669],[0.005462,51.520654],[0.004413,51.520735],[0.004335,51.521258],[0.004368,51.521921],[0.004654,51.522943],[0.004664,51.52402],[0.004827,51.525234],[0.00478,51.528436],[0.004873,51.528596],[0.004875,51.52921],[0.004698,51.529858],[0.004776,51.529983],[0.007012,51.53132],[0.007403,51.531691],[0.00864,51.534907],[0.008398,51.535289],[0.007236,51.535759],[0.005465,51.538132],[0.004271,51.539173],[0.002797,51.540079],[0.002618,51.540595],[0.0023,51.540924],[0.001987,51.54101],[0.000614,51.540278],[-0.000222,51.539627],[-0.000709,51.539716],[-0.001286,51.540364],[-0.002022,51.54035],[-0.001988,51.540476],[-0.002214,51.540569],[-0.002528,51.541321],[-0.002194,51.54136],[-0.001894,51.540627],[-0.001988,51.540476],[-0.001327,51.54041],[-0.00064,51.539634],[-0.000543,51.539219],[-0.001133,51.538599],[-0.002664,51.537383],[-0.010997,51.530979],[-0.012116,51.530356],[-0.013427,51.529798],[-0.013605,51.529684],[-0.013579,51.529611],[-0.013685,51.529505],[-0.014335,51.52948],[-0.015947,51.528869],[-0.017815,51.528343],[-0.019077,51.528184],[-0.019233,51.528241],[-0.022549,51.531229],[-0.024061,51.532936],[-0.025005,51.532439],[-0.026363,51.533623],[-0.027342,51.534745],[-0.027796,51.535439],[-0.028104,51.536142],[-0.028864,51.537241],[-0.029182,51.537896],[-0.026783,51.539016],[-0.025614,51.538025],[-0.025381,51.538372],[-0.025265,51.538609],[-0.025536,51.538824],[-0.025793,51.539215],[-0.026216,51.540787],[-0.026847,51.541858],[-0.026795,51.542055],[-0.026006,51.542114],[-0.024852,51.54237],[-0.0254,51.542976],[-0.025477,51.543193],[-0.025632,51.543277],[-0.025581,51.543465],[-0.025089,51.544167],[-0.026338,51.545959],[-0.027214,51.546037],[-0.029172,51.547122],[-0.028845,51.547351],[-0.027295,51.547846],[-0.031061,51.551138],[-0.033053,51.550319],[-0.038273,51.549127],[-0.040583,51.548752],[-0.042102,51.548652],[-0.043044,51.550214],[-0.044078,51.549944],[-0.044328,51.549876],[-0.043498,51.548387],[-0.045347,51.548038],[-0.047609,51.548042],[-0.047749,51.546785],[-0.048368,51.546823],[-0.04997,51.547128],[-0.050662,51.547131],[-0.053913,51.546286],[-0.054779,51.545789],[-0.054611,51.544579],[-0.055189,51.544481],[-0.055374,51.544529],[-0.055238,51.545696],[-0.055292,51.545778],[-0.055062,51.547114],[-0.055187,51.547224],[-0.059754,51.549376],[-0.062501,51.549899],[-0.063142,51.550089],[-0.064726,51.550844],[-0.065801,51.551679],[-0.068359,51.554617],[-0.068152,51.555432],[-0.068214,51.556013],[-0.06837,51.55674],[-0.068731,51.557429],[-0.068829,51.557485],[-0.068804,51.557403],[-0.068894,51.557324],[-0.071525,51.557196],[-0.074478,51.55729],[-0.074544,51.557426],[-0.074482,51.55787],[-0.073983,51.560434],[-0.073589,51.56232],[-0.073271,51.563331],[-0.073053,51.563372],[-0.071689,51.562864],[-0.067801,51.562342],[-0.068575,51.562104]],[[0.03974,51.520746],[0.039495,51.52067],[0.039271,51.521133],[0.039022,51.521047],[0.039062,51.520974],[0.039001,51.520906],[0.038787,51.520961],[0.038878,51.521063],[0.038824,51.521464],[0.038874,51.521616],[0.039171,51.521914],[0.038949,51.522001],[0.034004,51.522618],[0.033291,51.522551],[0.031228,51.522108],[0.030838,51.522781],[0.030224,51.524246],[0.029307,51.525928],[0.024083,51.522879],[0.022559,51.522392],[0.01845,51.520399],[0.010722,51.516953],[0.010478,51.51966],[0.00983,51.519689],[0.009691,51.519818],[0.009033,51.51991],[0.006702,51.520669],[0.005462,51.520654],[0.004413,51.520735],[0.004335,51.521258],[0.004368,51.521921],[0.004654,51.522943],[0.004664,51.52402],[0.004827,51.525234],[0.00478,51.528436],[0.004873,51.528596],[0.004875,51.52921],[0.004698,51.529858],[0.004776,51.529983],[0.007012,51.53132],[0.007403,51.531691],[0.00864,51.534907],[0.008398,51.535289],[0.007236,51.535759],[0.005465,51.538132],[0.004271,51.539173],[0.002797,51.540079],[0.002618,51.540595],[0.0023,51.540924],[0.001987,51.54101],[0.000614,51.540278],[-0.000222,51.539627],[-0.000709,51.539716],[-0.001286,51.540364],[-0.002022,51.54035],[-0.001988,51.540476],[-0.002214,51.540569],[-0.002528,51.541321],[-0.002194,51.54136],[-0.001894,51.540627],[-0.001988,51.540476],[-0.001327,51.54041],[-0.00064,51.539634],[-0.000543,51.539219],[-0.001133,51.538599],[-0.002664,51.537383],[-0.010997,51.530979],[-0.012116,51.530356],[-0.013427,51.529798],[-0.013605,51.529684],[-0.013579,51.529611],[-0.013685,51.529505],[-0.014335,51.52948],[-0.015947,51.528869],[-0.017815,51.528343],[-0.019077,51.528184],[-0.019233,51.528241],[-0.022549,51.531229],[-0.024061,51.532936],[-0.025005,51.532439],[-0.026363,51.533623],[-0.027342,51.534745],[-0.027796,51.535439],[-0.028104,51.536142],[-0.028864,51.537241],[-0.029182,51.537896],[-0.026783,51.539016],[-0.025614,51.538025],[-0.025381,51.538372],[-0.025265,51.538609],[-0.025536,51.538824],[-0.025793,51.539215],[-0.026216,51.540787],[-0.026847,51.541858],[-0.026795,51.542055],[-0.026006,51.542114],[-0.024852,51.54237],[-0.0254,51.542976],[-0.025477,51.543193],[-0.025632,51.543277],[-0.025581,51.543465],[-0.025089,51.544167],[-0.026338,51.545959],[-0.027214,51.546037],[-0.029172,51.547122],[-0.028845,51.547351],[-0.027295,51.547846],[-0.031061,51.551138],[-0.033053,51.550319],[-0.038273,51.549127],[-0.040583,51.548752],[-0.042102,51.548652],[-0.043044,51.550214],[-0.044078,51.549944],[-0.044328,51.549876],[-0.043498,51.548387],[-0.045347,51.548038],[-0.047609,51.548042],[-0.047749,51.546785],[-0.048368,51.546823],[-0.04997,51.547128],[-0.050662,51.547131],[-0.053913,51.546286],[-0.054779,51.545789],[-0.054611,51.544579],[-0.055189,51.544481],[-0.055374,51.544529],[-0.055238,51.545696],[-0.055292,51.545778],[-0.055062,51.547114],[-0.055187,51.547224],[-0.059754,51.549376],[-0.062501,51.549899],[-0.063142,51.550089],[-0.064726,51.550844],[-0.065801,51.551679],[-0.068359,51.554617],[-0.068152,51.555432],[-0.068214,51.556013],[-0.06837,51.55674],[-0.068731,51.557429],[-0.068829,51.557485],[-0.068804,51.557403],[-0.068894,51.557324],[-0.071525,51.557196],[-0.074478,51.55729],[-0.074544,51.557426],[-0.074482,51.55787],[-0.073983,51.560434],[-0.073589,51.56232],[-0.073271,51.563331],[-0.073053,51.563372],[-0.071689,51.562864],[-0.067801,51.562342],[-0.068575,51.562104]],[[0.03974,51.520746],[0.039495,51.52067],[0.039271,51.521133],[0.039022,51.521047],[0.039062,51.520974],[0.039001,51.520906],[0.038787,51.520961],[0.038878,51.521063],[0.038824,51.521464],[0.038874,51.521616],[0.039171,51.521914],[0.038949,51.522001],[0.034004,51.522618],[0.033291,51.522551],[0.031228,51.522108],[0.030838,51.522781],[0.030224,51.524246],[0.029307,51.525928],[0.024083,51.522879],[0.022559,51.522392],[0.01845,51.520399],[0.010722,51.516953],[0.010478,51.51966],[0.00983,51.519689],[0.009691,51.519818],[0.009033,51.51991],[0.006702,51.520669],[0.005462,51.520654],[0.004413,51.520735],[0.004335,51.521258],[0.004368,51.521921],[0.004654,51.522943],[0.004664,51.52402],[0.004827,51.525234],[0.00478,51.528436],[0.004873,51.528596],[0.004875,51.52921],[0.004698,51.529858],[0.004776,51.529983],[0.007012,51.53132],[0.007403,51.531691],[0.00864,51.534907],[0.008398,51.535289],[0.007236,51.535759],[0.005465,51.538132],[0.004271,51.539173],[0.002797,51.540079],[0.002618,51.540595],[0.0023,51.540924],[0.001987,51.54101],[0.000614,51.540278],[-0.000222,51.539627],[-0.000709,51.539716],[-0.001286,51.540364],[-0.002022,51.54035],[-0.001988,51.540476],[-0.002214,51.540569],[-0.002397,51.540952],[-0.002172,51.540541],[-0.001674,51.540398],[-0.001327,51.54041],[-0.00064,51.539634],[-0.000543,51.539219],[-0.001133,51.538599],[-0.002664,51.537383],[-0.010997,51.530979],[-0.012116,51.530356],[-0.013427,51.529798],[-0.013605,51.529684],[-0.013579,51.529611],[-0.013685,51.529505],[-0.014335,51.52948],[-0.015947,51.528869],[-0.017815,51.528343],[-0.019077,51.528184],[-0.019233,51.528241],[-0.022549,51.531229],[-0.024061,51.532936],[-0.025005,51.532439],[-0.026363,51.533623],[-0.027342,51.534745],[-0.027796,51.535439],[-0.028104,51.536142],[-0.028864,51.537241],[-0.029182,51.537896],[-0.026783,51.539016],[-0.025614,51.538025],[-0.025381,51.538372],[-0.025265,51.538609],[-0.025536,51.538824],[-0.025793,51.539215],[-0.026216,51.540787],[-0.026847,51.541858],[-0.026795,51.542055],[-0.026006,51.542114],[-0.024852,51.54237],[-0.0254,51.542976],[-0.025477,51.543193],[-0.025632,51.543277],[-0.025581,51.543465],[-0.025089,51.544167],[-0.026338,51.545959],[-0.027214,51.546037],[-0.029172,51.547122],[-0.028845,51.547351],[-0.027295,51.547846],[-0.031061,51.551138],[-0.033053,51.550319],[-0.038273,51.549127],[-0.040583,51.548752],[-0.042102,51.548652],[-0.043044,51.550214],[-0.044078,51.549944],[-0.044328,51.549876],[-0.043498,51.548387],[-0.045347,51.548038],[-0.047609,51.548042],[-0.047749,51.546785],[-0.048368,51.546823],[-0.04997,51.547128],[-0.050662,51.547131],[-0.053913,51.546286],[-0.054779,51.545789],[-0.054611,51.544579],[-0.055189,51.544481],[-0.055374,51.544529],[-0.055238,51.545696],[-0.055292,51.545778],[-0.055062,51.547114],[-0.055187,51.547224],[-0.059754,51.549376],[-0.062501,51.549899],[-0.063142,51.550089],[-0.064726,51.550844],[-0.065801,51.551679],[-0.068359,51.554617],[-0.068152,51.555432],[-0.068214,51.556013],[-0.06837,51.55674],[-0.068731,51.557429],[-0.068829,51.557485],[-0.068804,51.557403],[-0.068894,51.557324],[-0.071525,51.557196],[-0.074478,51.55729],[-0.074544,51.557426],[-0.074482,51.55787],[-0.073983,51.560434],[-0.073589,51.56232],[-0.073271,51.563331],[-0.073053,51.563372],[-0.071689,51.562864],[-0.067801,51.562342],[-0.068575,51.562104]],[[0.03974,51.520746],[0.039495,51.52067],[0.039271,51.521133],[0.039022,51.521047],[0.039062,51.520974],[0.039001,51.520906],[0.038787,51.520961],[0.038878,51.521063],[0.038824,51.521464],[0.038874,51.521616],[0.039171,51.521914],[0.038949,51.522001],[0.034004,51.522618],[0.033291,51.522551],[0.031228,51.522108],[0.030838,51.522781],[0.030224,51.524246],[0.029307,51.525928],[0.024083,51.522879],[0.022559,51.522392],[0.01845,51.520399],[0.010722,51.516953],[0.010478,51.51966],[0.00983,51.519689],[0.009691,51.519818],[0.009033,51.51991],[0.006702,51.520669],[0.005462,51.520654],[0.004413,51.520735],[0.004335,51.521258],[0.004368,51.521921],[0.004654,51.522943],[0.004664,51.52402],[0.004827,51.525234],[0.00478,51.528436],[0.004873,51.528596],[0.004875,51.52921],[0.004698,51.529858],[0.004776,51.529983],[0.007012,51.53132],[0.007403,51.531691],[0.00864,51.534907],[0.008398,51.535289],[0.007236,51.535759],[0.005465,51.538132],[0.004271,51.539173],[0.002797,51.540079],[0.002618,51.540595],[0.0023,51.540924],[0.001987,51.54101],[0.001618,51.540828],[0.000614,51.540278],[-0.000222,51.539627],[-0.000709,51.539716],[-0.001286,51.540364],[-0.002022,51.54035],[-0.001988,51.540476],[-0.002214,51.540569],[-0.002397,51.540952],[-0.002172,51.540541],[-0.001674,51.540398],[-0.001327,51.54041],[-0.00064,51.539634],[-0.000543,51.539219],[-0.001133,51.538599],[-0.002664,51.537383],[-0.005449,51.535314],[-0.005659,51.53534],[-0.006512,51.535939],[-0.00792,51.536618],[-0.009108,51.53731],[-0.009241,51.537598],[-0.009409,51.537634],[-0.009474,51.537788],[-0.009384,51.537868],[-0.009082,51.537853],[-0.008088,51.538817],[-0.007855,51.539208],[-0.007801,51.539765],[-0.007598,51.540121],[-0.007041,51.540669],[-0.006673,51.540834],[-0.010613,51.543419],[-0.011348,51.543764],[-0.01256,51.5441],[-0.014384,51.544238],[-0.018194,51.544186],[-0.018491,51.544316],[-0.022296,51.54903],[-0.023018,51.548756]]]}},{"type":"Feature","properties":{"routeId":"276","direction":"2","sourceDate":"20260509"},"geometry":{"type":"MultiLineString","coordinates":[[[-0.070403,51.56089],[-0.070508,51.560759],[-0.07039,51.560293],[-0.069835,51.55894],[-0.069172,51.557913],[-0.068676,51.557347],[-0.06837,51.55674],[-0.068147,51.555549],[-0.068359,51.554617],[-0.065801,51.551679],[-0.065021,51.551028],[-0.063682,51.550311],[-0.062501,51.549899],[-0.059754,51.549376],[-0.055187,51.547224],[-0.055062,51.547114],[-0.055163,51.545912],[-0.054767,51.545938],[-0.053913,51.546286],[-0.050662,51.547131],[-0.04997,51.547128],[-0.04785,51.546787],[-0.04786,51.547219],[-0.047724,51.548053],[-0.046989,51.548032],[-0.047531,51.549192],[-0.045291,51.549613],[-0.044328,51.549876],[-0.043498,51.548387],[-0.041913,51.548684],[-0.039988,51.548821],[-0.036249,51.54957],[-0.032942,51.550351],[-0.031061,51.551138],[-0.027295,51.547846],[-0.028756,51.547403],[-0.029172,51.547122],[-0.027214,51.546037],[-0.026338,51.545959],[-0.025101,51.544212],[-0.025632,51.543277],[-0.025477,51.543193],[-0.0254,51.542976],[-0.024852,51.54237],[-0.026261,51.542064],[-0.026795,51.542055],[-0.026847,51.541858],[-0.026177,51.540687],[-0.025714,51.539052],[-0.025536,51.538824],[-0.025191,51.538591],[-0.025614,51.538025],[-0.026783,51.539016],[-0.029182,51.537896],[-0.028811,51.537125],[-0.028104,51.536142],[-0.027869,51.535563],[-0.027447,51.534884],[-0.026547,51.533796],[-0.025005,51.532439],[-0.024061,51.532936],[-0.022549,51.531229],[-0.019233,51.528241],[-0.018231,51.528404],[-0.01757,51.52869],[-0.014661,51.529612],[-0.014498,51.529708],[-0.014506,51.529843],[-0.014372,51.529939],[-0.013561,51.530034],[-0.011691,51.530919],[-0.009913,51.532031],[-0.007932,51.533481],[-0.005464,51.535517],[-0.003613,51.536873],[-0.000928,51.539001],[-0.0007,51.539258],[-0.000709,51.539716],[-0.001286,51.540364],[-0.002022,51.54035],[-0.001988,51.540476],[-0.001327,51.54041],[-0.000709,51.539716],[-0.000222,51.539627],[0.000614,51.540278],[0.001987,51.54101],[0.0023,51.540924],[0.002618,51.540595],[0.002797,51.540079],[0.003978,51.539384],[0.005521,51.538081],[0.006714,51.536361],[0.00721,51.535831],[0.007547,51.535628],[0.008739,51.535175],[0.007403,51.531691],[0.007012,51.53132],[0.004731,51.529938],[0.004696,51.529813],[0.004875,51.52921],[0.004873,51.528596],[0.004778,51.5284],[0.004827,51.525234],[0.004634,51.523789],[0.004654,51.522943],[0.004342,51.521744],[0.004335,51.521258],[0.004657,51.519409],[0.005052,51.518304],[0.005566,51.517793],[0.006978,51.517121],[0.007313,51.516864],[0.007532,51.51659],[0.0077,51.516165],[0.008025,51.516015],[0.008558,51.516064],[0.009133,51.516265],[0.019227,51.520743],[0.022559,51.522392],[0.023774,51.522741],[0.029307,51.525928],[0.029978,51.524748],[0.030655,51.523161],[0.031228,51.522108],[0.033672,51.522615],[0.034004,51.522618],[0.038949,51.522001],[0.039171,51.521914],[0.038874,51.521616],[0.038824,51.521464],[0.038878,51.521063],[0.039588,51.521127],[0.03974,51.520746]],[[-0.022834,51.548839],[-0.022296,51.54903],[-0.018491,51.544316],[-0.018323,51.544215],[-0.014384,51.544238],[-0.011439,51.543972],[-0.006673,51.540834],[-0.007355,51.540081],[-0.007573,51.539716],[-0.007704,51.539035],[-0.007859,51.538768],[-0.009082,51.537853],[-0.009014,51.537753],[-0.009062,51.537655],[-0.009259,51.537565],[-0.009108,51.53731],[-0.008193,51.53675],[-0.006512,51.535939],[-0.005659,51.53534],[-0.002094,51.53804],[-0.0007,51.539258],[-0.000709,51.539716],[-0.001286,51.540364],[-0.002022,51.54035],[-0.001988,51.540476],[-0.001327,51.54041],[-0.000709,51.539716],[-0.000222,51.539627],[0.000614,51.540278],[0.001987,51.54101],[0.0023,51.540924],[0.002618,51.540595],[0.002797,51.540079],[0.003978,51.539384],[0.005521,51.538081],[0.006714,51.536361],[0.00721,51.535831],[0.007547,51.535628],[0.008739,51.535175],[0.007403,51.531691],[0.007012,51.53132],[0.004731,51.529938],[0.004696,51.529813],[0.004875,51.52921],[0.004873,51.528596],[0.004778,51.5284],[0.004827,51.525234],[0.004634,51.523789],[0.004654,51.522943],[0.004342,51.521744],[0.004335,51.521258],[0.004657,51.519409],[0.005052,51.518304],[0.005566,51.517793],[0.006978,51.517121],[0.007313,51.516864],[0.007532,51.51659],[0.0077,51.516165],[0.008025,51.516015],[0.008558,51.516064],[0.009133,51.516265],[0.019227,51.520743],[0.022559,51.522392],[0.023774,51.522741],[0.029307,51.525928],[0.029978,51.524748],[0.030655,51.523161],[0.031228,51.522108],[0.033672,51.522615],[0.034004,51.522618],[0.038949,51.522001],[0.039171,51.521914],[0.038874,51.521616],[0.038824,51.521464],[0.038878,51.521063],[0.039588,51.521127],[0.03974,51.520746]]]}}]}