{"type":"FeatureCollection","metadata":{"routeId":"30","sourceDate":"20251223","source":"https://bus.data.tfl.gov.uk/bus-geometry/"},"features":[{"type":"Feature","properties":{"routeId":"30","direction":"1","sourceDate":"20251223"},"geometry":{"type":"LineString","coordinates":[[-0.132289,51.527687],[-0.131967,51.52769],[-0.130226,51.528291],[-0.129687,51.527734],[-0.122456,51.53073],[-0.121991,51.530831],[-0.118551,51.531038],[-0.109176,51.531812],[-0.109251,51.532793],[-0.106167,51.532761],[-0.106104,51.533219],[-0.105296,51.534182],[-0.104261,51.535239],[-0.103922,51.535765],[-0.10379,51.535834],[-0.103375,51.53679],[-0.102359,51.538347],[-0.102311,51.538796],[-0.103269,51.543506],[-0.103367,51.544604],[-0.103164,51.546031],[-0.102986,51.546154],[-0.102396,51.546117],[-0.102255,51.546034],[-0.101977,51.546129],[-0.100557,51.546294],[-0.099218,51.546588],[-0.096883,51.547251],[-0.096534,51.547299],[-0.094995,51.547211],[-0.09299,51.547215],[-0.085893,51.546542],[-0.083929,51.546608],[-0.076711,51.546077],[-0.075858,51.546126],[-0.075519,51.546242],[-0.070445,51.546226],[-0.069489,51.546336],[-0.067829,51.546097],[-0.06367,51.545799],[-0.059719,51.546471],[-0.055229,51.546671],[-0.055163,51.545912],[-0.054879,51.545917],[-0.054237,51.546174],[-0.054031,51.546184],[-0.05391,51.546287],[-0.051506,51.546947],[-0.050662,51.547131],[-0.04997,51.547128],[-0.048368,51.546823],[-0.047376,51.546752],[-0.047091,51.546649],[-0.046188,51.545518],[-0.046079,51.545031],[-0.045692,51.544971],[-0.043542,51.544998],[-0.041699,51.545255],[-0.035661,51.545154],[-0.035398,51.545221],[-0.032646,51.544833],[-0.030452,51.544869],[-0.02958,51.54447]]}},{"type":"Feature","properties":{"routeId":"30","direction":"2","sourceDate":"20251223"},"geometry":{"type":"LineString","coordinates":[[-0.02989,51.544639],[-0.030426,51.544814],[-0.032175,51.544718],[-0.033038,51.544777],[-0.036091,51.545206],[-0.041858,51.545248],[-0.043542,51.544998],[-0.045692,51.544971],[-0.046079,51.545031],[-0.046188,51.545518],[-0.047091,51.546649],[-0.047376,51.546752],[-0.048368,51.546823],[-0.04997,51.547128],[-0.050662,51.547131],[-0.051506,51.546947],[-0.054135,51.546181],[-0.054779,51.545789],[-0.054611,51.544579],[-0.055189,51.544481],[-0.055374,51.544529],[-0.055238,51.545696],[-0.055292,51.545778],[-0.055174,51.546171],[-0.055229,51.546671],[-0.059719,51.546471],[-0.062539,51.54596],[-0.064002,51.545805],[-0.067208,51.546038],[-0.069489,51.546336],[-0.070445,51.546226],[-0.075519,51.546242],[-0.075858,51.546126],[-0.076711,51.546077],[-0.083061,51.546556],[-0.084131,51.546612],[-0.085374,51.546542],[-0.087087,51.546624],[-0.088032,51.546792],[-0.09299,51.547215],[-0.094995,51.547211],[-0.096534,51.547299],[-0.096883,51.547251],[-0.099378,51.546553],[-0.100557,51.546294],[-0.101977,51.546129],[-0.102255,51.546034],[-0.102228,51.545656],[-0.102348,51.545532],[-0.102952,51.545569],[-0.103247,51.545412],[-0.103361,51.544766],[-0.103269,51.543506],[-0.102311,51.538796],[-0.102361,51.538341],[-0.103375,51.53679],[-0.103997,51.535361],[-0.105232,51.534086],[-0.106167,51.532761],[-0.106274,51.5319],[-0.109638,51.531801],[-0.114213,51.531335],[-0.116192,51.531241],[-0.121011,51.530815],[-0.120965,51.530526],[-0.121143,51.530421],[-0.12165,51.530549],[-0.122404,51.530603],[-0.122739,51.530528],[-0.125034,51.529509],[-0.128063,51.528311],[-0.129687,51.527734],[-0.130226,51.528291],[-0.131927,51.527608]]}}]}