{"type":"FeatureCollection","metadata":{"routeId":"4","sourceDate":"20260731","source":"https://bus.data.tfl.gov.uk/bus-geometry/"},"features":[{"type":"Feature","properties":{"routeId":"4","direction":"1","sourceDate":"20260731"},"geometry":{"type":"MultiLineString","coordinates":[[[-0.135261,51.566154],[-0.135279,51.56587],[-0.135422,51.5659],[-0.137103,51.566718],[-0.137789,51.566179],[-0.138513,51.565832],[-0.141115,51.565351],[-0.140661,51.564463],[-0.1408,51.56353],[-0.140573,51.562708],[-0.1407,51.562072],[-0.140991,51.561527],[-0.141067,51.560522],[-0.140962,51.560259],[-0.140409,51.559666],[-0.138446,51.556865],[-0.120873,51.558321],[-0.12039,51.558484],[-0.119395,51.557838],[-0.113949,51.560847],[-0.112958,51.561323],[-0.107334,51.563336],[-0.105715,51.564129],[-0.10568,51.564272],[-0.105801,51.56449],[-0.105769,51.564912],[-0.10553,51.565097],[-0.104773,51.564581],[-0.104508,51.564712],[-0.103732,51.564286],[-0.101048,51.562561],[-0.098638,51.560849],[-0.098636,51.558799],[-0.09854,51.557997],[-0.098004,51.557026],[-0.098127,51.555787],[-0.098119,51.554267],[-0.098363,51.553606],[-0.09844,51.55313],[-0.098758,51.553109],[-0.098976,51.552734],[-0.099106,51.552728],[-0.099175,51.552809],[-0.098942,51.552851],[-0.098758,51.553109],[-0.09844,51.55313],[-0.098363,51.553606],[-0.098119,51.554267],[-0.098145,51.555356],[-0.098004,51.557026],[-0.098541,51.558006],[-0.098636,51.558799],[-0.098638,51.560849],[-0.101048,51.562561],[-0.103732,51.564286],[-0.103949,51.564253],[-0.105097,51.563714],[-0.105715,51.564129],[-0.107398,51.563318],[-0.107684,51.56309],[-0.107917,51.562177],[-0.108485,51.561692],[-0.109999,51.559963],[-0.111108,51.559333],[-0.111189,51.559101],[-0.111165,51.558651],[-0.111277,51.558382],[-0.111544,51.558198],[-0.115598,51.556806],[-0.116924,51.556135],[-0.113086,51.553376],[-0.112239,51.552571],[-0.108588,51.549814],[-0.106932,51.54844],[-0.105247,51.547269],[-0.103538,51.546388],[-0.102255,51.546034],[-0.102228,51.545656],[-0.102304,51.545558],[-0.102935,51.545567],[-0.103247,51.545412],[-0.103361,51.544766],[-0.103269,51.543506],[-0.102311,51.538796],[-0.102361,51.538341],[-0.103375,51.53679],[-0.103997,51.535361],[-0.105232,51.534086],[-0.106024,51.532991],[-0.106215,51.532636],[-0.106294,51.531964],[-0.106274,51.5319],[-0.106043,51.531929],[-0.105257,51.531749],[-0.101906,51.530858],[-0.101866,51.530776],[-0.102481,51.529851],[-0.102456,51.529752],[-0.10135,51.52897],[-0.10091,51.528251],[-0.100389,51.527112],[-0.09904,51.52386],[-0.098558,51.523322],[-0.098221,51.523101],[-0.097696,51.522562],[-0.097419,51.521928],[-0.097323,51.521476],[-0.097441,51.520714],[-0.097146,51.519144],[-0.096876,51.518007],[-0.096463,51.51756],[-0.096555,51.517418],[-0.096848,51.517314],[-0.097047,51.515987],[-0.097245,51.515387],[-0.097217,51.515018],[-0.096746,51.51457],[-0.096856,51.514347],[-0.096433,51.513791],[-0.096364,51.513368],[-0.09647,51.512893],[-0.095955,51.512804],[-0.095734,51.512557],[-0.0959,51.512038],[-0.096802,51.511846],[-0.101778,51.512106],[-0.10292,51.512063]],[[-0.135261,51.566154],[-0.135279,51.56587],[-0.135422,51.5659],[-0.137103,51.566718],[-0.137789,51.566179],[-0.138513,51.565832],[-0.141115,51.565351],[-0.140661,51.564463],[-0.1408,51.56353],[-0.140573,51.562708],[-0.1407,51.562072],[-0.140991,51.561527],[-0.141067,51.560522],[-0.140962,51.560259],[-0.140409,51.559666],[-0.138446,51.556865],[-0.120873,51.558321],[-0.12039,51.558484],[-0.119395,51.557838],[-0.113949,51.560847],[-0.112958,51.561323],[-0.107334,51.563336],[-0.105715,51.564129],[-0.10568,51.564272],[-0.105801,51.56449],[-0.105769,51.564912],[-0.10553,51.565097],[-0.104773,51.564581],[-0.104508,51.564712],[-0.103732,51.564286],[-0.101048,51.562561],[-0.098638,51.560849],[-0.098636,51.558799],[-0.09854,51.557997],[-0.098004,51.557026],[-0.098127,51.555787],[-0.098119,51.554267],[-0.098363,51.553606],[-0.09844,51.55313],[-0.098758,51.553109],[-0.098976,51.552734],[-0.099106,51.552728],[-0.099175,51.552809],[-0.098942,51.552851],[-0.098758,51.553109],[-0.09844,51.55313],[-0.098363,51.553606],[-0.098119,51.554267],[-0.098145,51.555356],[-0.098004,51.557026],[-0.098541,51.558006],[-0.098636,51.558799],[-0.098638,51.560849],[-0.101048,51.562561],[-0.103732,51.564286],[-0.103949,51.564253],[-0.105097,51.563714],[-0.105715,51.564129],[-0.107398,51.563318],[-0.107684,51.56309],[-0.107917,51.562177],[-0.108485,51.561692],[-0.109999,51.559963],[-0.111108,51.559333],[-0.111189,51.559101],[-0.111165,51.558651],[-0.111277,51.558382],[-0.111544,51.558198],[-0.115598,51.556806],[-0.116924,51.556135],[-0.113086,51.553376],[-0.112239,51.552571],[-0.108588,51.549814],[-0.106932,51.54844],[-0.105247,51.547269],[-0.103538,51.546388],[-0.102255,51.546034],[-0.102228,51.545656],[-0.102304,51.545558],[-0.102935,51.545567],[-0.103247,51.545412],[-0.103361,51.544766],[-0.103269,51.543506],[-0.102311,51.538796],[-0.102361,51.538341],[-0.103375,51.53679],[-0.103997,51.535361],[-0.105232,51.534086],[-0.106024,51.532991],[-0.106215,51.532636],[-0.106294,51.531964],[-0.106274,51.5319],[-0.106043,51.531929],[-0.105257,51.531749],[-0.101906,51.530858],[-0.101866,51.530776],[-0.102481,51.529851],[-0.102456,51.529752],[-0.10135,51.52897],[-0.10091,51.528251],[-0.100389,51.527112],[-0.09904,51.52386],[-0.098558,51.523322],[-0.098221,51.523101],[-0.097696,51.522562],[-0.097419,51.521928],[-0.097323,51.521476],[-0.097441,51.520714],[-0.097146,51.519144],[-0.096876,51.518007],[-0.096463,51.51756],[-0.096555,51.517418],[-0.096848,51.517314],[-0.097047,51.515987],[-0.097231,51.51545],[-0.097217,51.515018],[-0.096746,51.51457],[-0.096856,51.514347],[-0.096433,51.513791],[-0.096364,51.513368],[-0.09647,51.512893],[-0.095955,51.512804],[-0.095734,51.512557],[-0.0959,51.512038],[-0.096802,51.511846],[-0.101778,51.512106],[-0.10292,51.512063]],[[-0.104277,51.546756],[-0.103184,51.546247],[-0.102353,51.546108],[-0.102255,51.546034],[-0.102228,51.545656],[-0.102304,51.545558],[-0.102935,51.545567],[-0.103247,51.545412],[-0.103361,51.544766],[-0.103269,51.543506],[-0.102311,51.538796],[-0.102361,51.538341],[-0.103375,51.53679],[-0.103997,51.535361],[-0.105232,51.534086],[-0.106024,51.532991],[-0.106215,51.532636],[-0.106294,51.531964],[-0.106274,51.5319],[-0.106043,51.531929],[-0.105257,51.531749],[-0.101906,51.530858],[-0.101866,51.530776],[-0.102481,51.529851],[-0.102456,51.529752],[-0.10135,51.52897],[-0.10091,51.528251],[-0.100389,51.527112],[-0.09904,51.52386],[-0.098558,51.523322],[-0.098221,51.523101],[-0.097696,51.522562],[-0.097419,51.521928],[-0.097323,51.521476],[-0.097441,51.520714],[-0.097146,51.519144],[-0.096876,51.518007],[-0.096463,51.51756],[-0.096555,51.517418],[-0.096848,51.517314],[-0.097047,51.515987],[-0.097231,51.51545],[-0.097217,51.515018],[-0.096746,51.51457],[-0.096856,51.514347],[-0.096433,51.513791],[-0.096364,51.513368],[-0.09647,51.512893],[-0.095955,51.512804],[-0.095734,51.512557],[-0.0959,51.512038],[-0.096802,51.511846],[-0.101778,51.512106],[-0.10292,51.512063]]]}},{"type":"Feature","properties":{"routeId":"4","direction":"2","sourceDate":"20260731"},"geometry":{"type":"MultiLineString","coordinates":[[[-0.102596,51.51217],[-0.097995,51.51191],[-0.096294,51.511928],[-0.095855,51.512083],[-0.095734,51.512557],[-0.095955,51.512804],[-0.09647,51.512893],[-0.096364,51.513368],[-0.096394,51.513674],[-0.096625,51.51401],[-0.096919,51.514213],[-0.096959,51.514645],[-0.097704,51.515089],[-0.098617,51.515329],[-0.098837,51.515584],[-0.098575,51.516326],[-0.098643,51.517136],[-0.098578,51.517297],[-0.0979,51.517655],[-0.097322,51.5177],[-0.097129,51.51784],[-0.097019,51.518046],[-0.097535,51.520536],[-0.097515,51.521149],[-0.097377,51.521567],[-0.097382,51.521792],[-0.097696,51.522562],[-0.099027,51.523833],[-0.100813,51.528069],[-0.10135,51.52897],[-0.105025,51.53143],[-0.104973,51.531654],[-0.106274,51.5319],[-0.106341,51.531998],[-0.106104,51.533219],[-0.105296,51.534182],[-0.104261,51.535239],[-0.103922,51.535765],[-0.10379,51.535834],[-0.103375,51.53679],[-0.102359,51.538347],[-0.102311,51.538796],[-0.102988,51.541927],[-0.103269,51.543506],[-0.103367,51.544604],[-0.103247,51.545412],[-0.102935,51.545567],[-0.102406,51.545515],[-0.102259,51.545603],[-0.102255,51.546034],[-0.103538,51.546388],[-0.105528,51.547454],[-0.106887,51.548402],[-0.108588,51.549814],[-0.112441,51.552679],[-0.113648,51.553736],[-0.120396,51.558331],[-0.124186,51.558086],[-0.138446,51.556865],[-0.140423,51.559684],[-0.140908,51.560178],[-0.141067,51.560522],[-0.140991,51.561527],[-0.1407,51.562072],[-0.140573,51.562708],[-0.1408,51.56353],[-0.140661,51.564463],[-0.141115,51.565351],[-0.139019,51.565726],[-0.138147,51.565961],[-0.137504,51.566409],[-0.13721,51.56677],[-0.136405,51.566391]],[[-0.102596,51.51217],[-0.097995,51.51191],[-0.096294,51.511928],[-0.095855,51.512083],[-0.095734,51.512557],[-0.095955,51.512804],[-0.09647,51.512893],[-0.096364,51.513368],[-0.096394,51.513674],[-0.096625,51.51401],[-0.096919,51.514213],[-0.096959,51.514645],[-0.097421,51.514968],[-0.098617,51.515329],[-0.098837,51.515584],[-0.098575,51.516326],[-0.098643,51.517136],[-0.098578,51.517297],[-0.0979,51.517655],[-0.097322,51.5177],[-0.097129,51.51784],[-0.097019,51.518046],[-0.097535,51.520536],[-0.097515,51.521149],[-0.097377,51.521567],[-0.097382,51.521792],[-0.097696,51.522562],[-0.099027,51.523833],[-0.100813,51.528069],[-0.10135,51.52897],[-0.105025,51.53143],[-0.104973,51.531654],[-0.106274,51.5319],[-0.106341,51.531998],[-0.106104,51.533219],[-0.105296,51.534182],[-0.104261,51.535239],[-0.103922,51.535765],[-0.10379,51.535834],[-0.103375,51.53679],[-0.102359,51.538347],[-0.102311,51.538796],[-0.102988,51.541927],[-0.103269,51.543506],[-0.103367,51.544604],[-0.103247,51.545412],[-0.102935,51.545567],[-0.102406,51.545515],[-0.102259,51.545603],[-0.102255,51.546034],[-0.103538,51.546388],[-0.105528,51.547454],[-0.106887,51.548402],[-0.108588,51.549814],[-0.112441,51.552679],[-0.113648,51.553736],[-0.120396,51.558331],[-0.124186,51.558086],[-0.138446,51.556865],[-0.140423,51.559684],[-0.140908,51.560178],[-0.141067,51.560522],[-0.140991,51.561527],[-0.1407,51.562072],[-0.140573,51.562708],[-0.1408,51.56353],[-0.140661,51.564463],[-0.141115,51.565351],[-0.139019,51.565726],[-0.138147,51.565961],[-0.137504,51.566409],[-0.13721,51.56677],[-0.136405,51.566391]]]}}]}