{"type":"FeatureCollection","metadata":{"routeId":"464","sourceDate":"20251223","source":"https://bus.data.tfl.gov.uk/bus-geometry/"},"features":[{"type":"Feature","properties":{"routeId":"464","direction":"1","sourceDate":"20251223"},"geometry":{"type":"MultiLineString","coordinates":[[[0.025349,51.292878],[0.025263,51.292759],[0.025644,51.292303],[0.026329,51.291886],[0.026421,51.291372],[0.026656,51.29117],[0.027096,51.291064],[0.028224,51.290945],[0.0298,51.290927],[0.030956,51.29079],[0.032429,51.291331],[0.032926,51.291232],[0.033534,51.292013],[0.034308,51.292629],[0.035735,51.294421],[0.036001,51.294911],[0.036569,51.296736],[0.037044,51.297735],[0.038176,51.29901],[0.038588,51.299902],[0.038238,51.300727],[0.037821,51.301372],[0.037358,51.301911],[0.036567,51.302527],[0.035935,51.30315],[0.035027,51.303714],[0.034643,51.304099],[0.033845,51.305533],[0.033836,51.305968],[0.033643,51.306472],[0.033079,51.307345],[0.032825,51.307449],[0.032779,51.30771],[0.027708,51.309201],[0.027485,51.30934],[0.027684,51.310031],[0.028885,51.312778],[0.029128,51.31307],[0.029134,51.313232],[0.029367,51.313291],[0.029729,51.313051],[0.032183,51.312073],[0.032995,51.311627],[0.03415,51.310798],[0.034407,51.310775],[0.035141,51.311158],[0.034083,51.312211],[0.033774,51.312594],[0.033509,51.313174],[0.033,51.316156],[0.032757,51.316955],[0.032215,51.317666],[0.0318,51.318024],[0.029013,51.319898],[0.028657,51.3203],[0.0286,51.320624],[0.028224,51.321224],[0.026061,51.3236],[0.024422,51.324825],[0.02311,51.325684],[0.022711,51.325648],[0.021343,51.325935],[0.020544,51.326307],[0.019233,51.327616],[0.017124,51.328297],[0.016189,51.328453],[0.01498,51.328495],[0.013829,51.328434],[0.012039,51.330155],[0.011688,51.330998],[0.011283,51.331256],[0.010817,51.331426],[0.010248,51.331553],[0.008893,51.331423],[0.007232,51.331524],[0.004507,51.331903],[0.002759,51.332319],[0.001973,51.33272],[0.001074,51.333499],[8.9e-05,51.333966],[-0.000426,51.334334],[-0.000889,51.3349],[-0.001669,51.33744],[-0.002008,51.337896],[-0.003054,51.338626],[-0.003634,51.339138],[-0.004784,51.33877],[-0.006281,51.338688],[-0.008489,51.339085],[-0.009999,51.339529],[-0.011301,51.339789],[-0.012839,51.339771],[-0.013018,51.339603],[-0.013292,51.33958],[-0.013502,51.339701],[-0.01351,51.339845],[-0.013435,51.339916],[-0.013565,51.339909],[-0.013932,51.340163],[-0.01454,51.340591],[-0.014564,51.340717],[-0.016097,51.341777],[-0.017089,51.342424],[-0.017378,51.342374],[-0.01759,51.342459],[-0.018094,51.342882]],[[0.025349,51.292878],[0.025263,51.292759],[0.025644,51.292303],[0.026329,51.291886],[0.026421,51.291372],[0.026656,51.29117],[0.027096,51.291064],[0.028224,51.290945],[0.0298,51.290927],[0.030956,51.29079],[0.032429,51.291331],[0.032926,51.291232],[0.033534,51.292013],[0.034308,51.292629],[0.035735,51.294421],[0.036001,51.294911],[0.036569,51.296736],[0.037044,51.297735],[0.038176,51.29901],[0.038588,51.299902],[0.038238,51.300727],[0.037821,51.301372],[0.037358,51.301911],[0.036567,51.302527],[0.035935,51.30315],[0.035027,51.303714],[0.034643,51.304099],[0.033845,51.305533],[0.033836,51.305968],[0.033643,51.306472],[0.033079,51.307345],[0.032825,51.307449],[0.032779,51.30771],[0.027708,51.309201],[0.027485,51.30934],[0.027684,51.310031],[0.028885,51.312778],[0.029128,51.31307],[0.029134,51.313232],[0.029367,51.313291],[0.029729,51.313051],[0.032183,51.312073],[0.032995,51.311627],[0.03415,51.310798],[0.034407,51.310775],[0.035141,51.311158],[0.034083,51.312211],[0.033774,51.312594],[0.033509,51.313174],[0.033,51.316156],[0.032638,51.317173],[0.0318,51.318024],[0.029013,51.319898],[0.028657,51.3203],[0.0286,51.320624],[0.028224,51.321224],[0.026061,51.3236],[0.024422,51.324825],[0.023234,51.325556],[0.022865,51.325976],[0.022701,51.326833],[0.022764,51.327596],[0.023362,51.328644],[0.023918,51.329024],[0.025479,51.329267],[0.026283,51.329595],[0.026584,51.330003],[0.027269,51.331457],[0.027549,51.333242],[0.027823,51.333929],[0.02855,51.334789],[0.029835,51.335603],[0.030237,51.336211],[0.03041,51.336601],[0.030598,51.337596],[0.030666,51.339384],[0.030693,51.340391],[0.030383,51.341502],[0.030424,51.34187],[0.030832,51.342406],[0.033148,51.344296],[0.035222,51.345726],[0.036406,51.347702],[0.03636,51.348071],[0.036145,51.348591],[0.035195,51.350619],[0.034644,51.350835],[0.032407,51.351224],[0.031388,51.351793],[0.031321,51.35199],[0.031372,51.352187],[0.032072,51.353074],[0.032432,51.353733],[0.032688,51.353998],[0.032814,51.354581],[0.031968,51.357527],[0.031614,51.358298],[0.030106,51.359934],[0.029077,51.360698],[0.02728,51.362238],[0.027329,51.362304],[0.027262,51.36246],[0.027038,51.362763],[0.024875,51.363774],[0.023259,51.364926],[0.022291,51.365456],[0.018802,51.366802],[0.017677,51.367361],[0.016011,51.367686],[0.011541,51.368968],[0.009829,51.369564],[0.007234,51.369698],[0.005188,51.370534],[0.004224,51.370514],[0.001649,51.369785],[0.000846,51.369799],[0.000308,51.369979],[-0.0013,51.370995],[-0.001706,51.370921],[-0.005798,51.368338],[-0.005861,51.368195],[-0.006529,51.368054],[-0.016106,51.364511],[-0.019736,51.363629],[-0.021081,51.363085],[-0.024664,51.361257],[-0.026688,51.359627],[-0.027427,51.359136],[-0.030828,51.357556],[-0.031038,51.357344],[-0.031289,51.356494],[-0.031174,51.356168],[-0.030776,51.355748],[-0.030316,51.355417],[-0.026124,51.353027],[-0.025132,51.352389],[-0.024637,51.351886],[-0.024054,51.351084],[-0.021983,51.347472],[-0.021778,51.347233],[-0.021716,51.346998],[-0.021511,51.347094],[-0.021066,51.347104],[-0.020627,51.346944],[-0.018321,51.347804],[-0.017102,51.348107],[-0.015326,51.348373],[-0.014101,51.348434],[-0.012638,51.348382],[-0.010797,51.348126],[-0.00921,51.347632],[-0.008196,51.347174],[-0.00765,51.346841],[-0.00722,51.346501],[-0.006713,51.345944],[-0.006276,51.345082],[-0.005913,51.343679],[-0.005712,51.342536],[-0.00555,51.341967],[-0.005148,51.341073],[-0.004509,51.340141],[-0.003634,51.339138],[-0.004784,51.33877],[-0.006281,51.338688],[-0.008489,51.339085],[-0.009999,51.339529],[-0.011301,51.339789],[-0.012839,51.339771],[-0.013018,51.339603],[-0.013292,51.33958],[-0.013502,51.339701],[-0.01351,51.339845],[-0.013435,51.339916],[-0.013565,51.339909],[-0.013932,51.340163],[-0.01454,51.340591],[-0.014564,51.340717],[-0.016097,51.341777],[-0.017089,51.342424],[-0.017378,51.342374],[-0.01759,51.342459],[-0.018094,51.342882]]]}},{"type":"Feature","properties":{"routeId":"464","direction":"2","sourceDate":"20251223"},"geometry":{"type":"MultiLineString","coordinates":[[[-0.01731,51.342994],[-0.016965,51.342628],[-0.017104,51.342415],[-0.013435,51.339916],[-0.013116,51.339991],[-0.012905,51.339889],[-0.012839,51.339771],[-0.011559,51.339812],[-0.010803,51.339709],[-0.007394,51.338842],[-0.006667,51.33873],[-0.005679,51.338669],[-0.004924,51.338748],[-0.003634,51.339138],[-0.003193,51.338725],[-0.002008,51.337896],[-0.001669,51.33744],[-0.000889,51.3349],[-0.000426,51.334334],[8.9e-05,51.333966],[0.001074,51.333499],[0.001973,51.33272],[0.002759,51.332319],[0.004507,51.331903],[0.007232,51.331524],[0.008893,51.331423],[0.010248,51.331553],[0.010817,51.331426],[0.011283,51.331256],[0.011688,51.330998],[0.012039,51.330155],[0.013829,51.328434],[0.01498,51.328495],[0.016189,51.328453],[0.017124,51.328297],[0.019233,51.327616],[0.020208,51.326576],[0.020954,51.326098],[0.021343,51.325935],[0.022711,51.325648],[0.023198,51.325709],[0.026061,51.3236],[0.028371,51.321294],[0.028963,51.320393],[0.028981,51.32015],[0.029499,51.319539],[0.0318,51.318024],[0.032461,51.317401],[0.032836,51.316792],[0.032965,51.316289],[0.033585,51.312948],[0.033878,51.312439],[0.035141,51.311158],[0.034494,51.310801],[0.034206,51.310779],[0.032995,51.311627],[0.032183,51.312073],[0.029729,51.313051],[0.0294,51.313074],[0.029065,51.312954],[0.028885,51.312778],[0.027707,51.310091],[0.027487,51.309385],[0.027708,51.309201],[0.032779,51.30771],[0.032825,51.307449],[0.033079,51.307345],[0.033643,51.306472],[0.033836,51.305968],[0.033845,51.305533],[0.034643,51.304099],[0.035027,51.303714],[0.035935,51.30315],[0.036567,51.302527],[0.037358,51.301911],[0.037821,51.301372],[0.038238,51.300726],[0.038539,51.300074],[0.038568,51.299759],[0.038176,51.29901],[0.037044,51.297735],[0.036619,51.296849],[0.036001,51.294911],[0.035735,51.294421],[0.034308,51.292629],[0.033534,51.292013],[0.032926,51.291232],[0.032429,51.291331],[0.030956,51.29079],[0.0298,51.290927],[0.028224,51.290945],[0.027096,51.291064],[0.026656,51.29117],[0.026421,51.291372],[0.026329,51.291886],[0.025644,51.292303],[0.025263,51.292759],[0.024943,51.292998],[0.025282,51.293199],[0.025494,51.293133],[0.025349,51.292878]],[[-0.01731,51.342994],[-0.016965,51.342628],[-0.017104,51.342415],[-0.013435,51.339916],[-0.013116,51.339991],[-0.012905,51.339889],[-0.012839,51.339771],[-0.011559,51.339812],[-0.010803,51.339709],[-0.007394,51.338842],[-0.006667,51.33873],[-0.005679,51.338669],[-0.004924,51.338748],[-0.003634,51.339138],[-0.004862,51.340615],[-0.005312,51.341402],[-0.005712,51.342536],[-0.006001,51.344151],[-0.006446,51.34548],[-0.006862,51.346153],[-0.007832,51.346961],[-0.00921,51.347632],[-0.010797,51.348126],[-0.012638,51.348382],[-0.01518,51.348389],[-0.016509,51.348214],[-0.017912,51.347913],[-0.019241,51.347489],[-0.020516,51.346861],[-0.020424,51.346671],[-0.020522,51.346384],[-0.020701,51.346244],[-0.020992,51.34615],[-0.021537,51.346168],[-0.021902,51.346363],[-0.021982,51.346508],[-0.021909,51.346849],[-0.021716,51.346998],[-0.021778,51.347233],[-0.022547,51.348388],[-0.024075,51.351116],[-0.024637,51.351886],[-0.025132,51.352389],[-0.026026,51.35297],[-0.030316,51.355417],[-0.030776,51.355748],[-0.031353,51.356342],[-0.031509,51.356732],[-0.031761,51.356898],[-0.032132,51.356949],[-0.032299,51.357078],[-0.032364,51.357232],[-0.032078,51.357542],[-0.031931,51.35762],[-0.030828,51.357556],[-0.027427,51.359136],[-0.026688,51.359627],[-0.024664,51.361257],[-0.021081,51.363085],[-0.019736,51.363629],[-0.016106,51.364511],[-0.006908,51.367908],[-0.006056,51.368352],[-0.005578,51.368451],[-0.001999,51.370718],[-0.001706,51.370921],[-0.001632,51.371214],[-0.001359,51.371302],[-0.001176,51.371209],[-0.001168,51.371056],[0.000538,51.369993],[0.00115,51.369865],[0.001611,51.369884],[0.003371,51.370385],[0.004513,51.370545],[0.005188,51.370534],[0.007234,51.369698],[0.009829,51.369564],[0.011541,51.368968],[0.016437,51.36758],[0.017677,51.367361],[0.018802,51.366802],[0.022291,51.365456],[0.023259,51.364926],[0.024875,51.363774],[0.027038,51.362763],[0.027262,51.36246],[0.027329,51.362304],[0.02728,51.362238],[0.02941,51.360431],[0.030106,51.359934],[0.031614,51.358298],[0.031968,51.357527],[0.032814,51.354581],[0.032688,51.353998],[0.032432,51.353733],[0.032072,51.353074],[0.031372,51.352187],[0.031357,51.351845],[0.03162,51.351616],[0.032407,51.351224],[0.03473,51.350816],[0.035153,51.350646],[0.035277,51.350536],[0.036467,51.347889],[0.036445,51.347586],[0.035222,51.345726],[0.033148,51.344296],[0.030832,51.342406],[0.030424,51.34187],[0.030383,51.341502],[0.030693,51.340391],[0.030598,51.337596],[0.03041,51.336601],[0.030032,51.335834],[0.029835,51.335603],[0.028625,51.334851],[0.027946,51.334107],[0.027618,51.333519],[0.027269,51.331457],[0.026759,51.330315],[0.026388,51.329701],[0.025828,51.329369],[0.024257,51.329113],[0.023772,51.328963],[0.02328,51.328558],[0.022746,51.327506],[0.022701,51.326833],[0.022781,51.326355],[0.023156,51.325746],[0.026061,51.3236],[0.028371,51.321294],[0.028963,51.320393],[0.028981,51.32015],[0.029499,51.319539],[0.0318,51.318024],[0.032461,51.317401],[0.032836,51.316792],[0.032965,51.316289]],[[-0.01731,51.342994],[-0.016965,51.342628],[-0.017104,51.342415],[-0.013435,51.339916],[-0.013116,51.339991],[-0.012905,51.339889],[-0.012839,51.339771],[-0.011559,51.339812],[-0.010803,51.339709],[-0.007394,51.338842],[-0.006667,51.33873],[-0.005679,51.338669],[-0.004924,51.338748],[-0.003634,51.339138],[-0.004862,51.340615],[-0.005312,51.341402],[-0.005712,51.342536],[-0.006001,51.344151],[-0.006446,51.34548],[-0.006862,51.346153],[-0.007832,51.346961],[-0.00921,51.347632],[-0.010797,51.348126],[-0.012638,51.348382],[-0.01518,51.348389],[-0.016509,51.348214],[-0.017912,51.347913],[-0.019241,51.347489],[-0.020516,51.346861],[-0.020424,51.346671],[-0.020522,51.346384],[-0.020701,51.346244],[-0.020992,51.34615],[-0.021537,51.346168],[-0.021902,51.346363],[-0.021982,51.346508],[-0.021909,51.346849],[-0.021716,51.346998],[-0.021778,51.347233],[-0.022547,51.348388],[-0.024075,51.351116],[-0.024637,51.351886],[-0.025132,51.352389],[-0.026026,51.35297],[-0.030316,51.355417],[-0.030776,51.355748],[-0.031353,51.356342],[-0.031509,51.356732],[-0.031761,51.356898],[-0.032132,51.356949],[-0.032364,51.357232],[-0.031931,51.35762],[-0.030828,51.357556],[-0.027427,51.359136],[-0.026688,51.359627],[-0.024664,51.361257],[-0.021081,51.363085],[-0.019736,51.363629],[-0.016106,51.364511],[-0.006908,51.367908],[-0.006056,51.368352],[-0.005578,51.368451],[-0.001999,51.370718],[-0.001706,51.370921],[-0.001632,51.371214],[-0.001359,51.371302],[-0.001176,51.371209],[-0.001168,51.371056],[0.000538,51.369993],[0.00115,51.369865],[0.001611,51.369884],[0.003371,51.370385],[0.004513,51.370545],[0.005188,51.370534],[0.007234,51.369698],[0.009829,51.369564],[0.011541,51.368968],[0.016437,51.36758],[0.017677,51.367361],[0.018802,51.366802],[0.022291,51.365456],[0.023259,51.364926],[0.024875,51.363774],[0.027038,51.362763],[0.027262,51.36246],[0.027329,51.362304],[0.02728,51.362238],[0.02941,51.360431],[0.030106,51.359934],[0.031614,51.358298],[0.031968,51.357527],[0.032814,51.354581],[0.032688,51.353998],[0.032432,51.353733],[0.032072,51.353074],[0.031372,51.352187],[0.031357,51.351845],[0.03162,51.351616],[0.032407,51.351224],[0.03473,51.350816],[0.035153,51.350646],[0.035277,51.350536],[0.036467,51.347889],[0.036445,51.347586],[0.035222,51.345726],[0.033148,51.344296],[0.030832,51.342406],[0.030424,51.34187],[0.030383,51.341502],[0.030693,51.340391],[0.030598,51.337596],[0.03041,51.336601],[0.030267,51.336265],[0.029835,51.335603],[0.028625,51.334851],[0.027946,51.334107],[0.027618,51.333519],[0.027269,51.331457],[0.026759,51.330315],[0.026388,51.329701],[0.025828,51.329369],[0.024257,51.329113],[0.023772,51.328963],[0.02328,51.328558],[0.022972,51.328021],[0.022746,51.327506],[0.022701,51.326833],[0.022781,51.326355],[0.023156,51.325746],[0.026061,51.3236],[0.028371,51.321294],[0.028963,51.320393],[0.028981,51.32015],[0.029499,51.319539],[0.0318,51.318024],[0.032461,51.317401],[0.032836,51.316792],[0.032965,51.316289],[0.033585,51.312948],[0.033878,51.312439],[0.035141,51.311158],[0.034494,51.310801],[0.034206,51.310779],[0.032995,51.311627],[0.032183,51.312073],[0.029729,51.313051],[0.0294,51.313074],[0.029065,51.312954],[0.028885,51.312778],[0.027707,51.310091],[0.027513,51.309312],[0.032779,51.30771],[0.032825,51.307449],[0.033079,51.307345],[0.033643,51.306472],[0.033836,51.305968],[0.033845,51.305533],[0.034643,51.304099],[0.035027,51.303714],[0.035935,51.30315],[0.036567,51.302527],[0.037358,51.301911],[0.037821,51.301372],[0.038238,51.300726],[0.038539,51.300074],[0.038568,51.299759],[0.038176,51.29901],[0.037044,51.297735],[0.036619,51.296849],[0.036001,51.294911],[0.035735,51.294421],[0.034308,51.292629],[0.033534,51.292013],[0.032926,51.291232],[0.032429,51.291331],[0.030956,51.29079],[0.0298,51.290927],[0.028224,51.290945],[0.027096,51.291064],[0.026656,51.29117],[0.026421,51.291372],[0.026329,51.291886],[0.025644,51.292303],[0.025263,51.292759],[0.024943,51.292998],[0.025282,51.293199],[0.025494,51.293133],[0.025349,51.292878]]]}}]}