{"type":"FeatureCollection","metadata":{"routeId":"766","sourceDate":"20260117","source":"https://bus.data.tfl.gov.uk/bus-geometry/"},"features":[{"type":"Feature","properties":{"routeId":"766","direction":"1","sourceDate":"20260117"},"geometry":{"type":"LineString","coordinates":[[-0.075126,51.514856],[-0.074666,51.514911],[-0.074301,51.51468],[-0.074255,51.514409],[-0.076084,51.513738],[-0.075736,51.513112],[-0.075275,51.511396],[-0.074937,51.511211],[-0.073306,51.511211],[-0.072808,51.511121],[-0.072753,51.510383],[-0.073481,51.509532],[-0.07351,51.509182],[-0.073361,51.508945],[-0.071853,51.508413],[-0.071097,51.508297],[-0.06969,51.508525],[-0.066528,51.509346],[-0.061209,51.509375],[-0.059548,51.509535]]}},{"type":"Feature","properties":{"routeId":"766","direction":"2","sourceDate":"20260117"},"geometry":{"type":"LineString","coordinates":[[-0.059548,51.509535],[-0.058894,51.509597],[-0.058674,51.508554],[-0.058607,51.505843],[-0.05827,51.505621],[-0.057874,51.505102],[-0.057596,51.504881],[-0.057076,51.505242],[-0.056958,51.505635],[-0.05676,51.505884],[-0.055024,51.506736],[-0.054731,51.506839],[-0.054447,51.50609],[-0.053545,51.506262],[-0.052088,51.506993],[-0.051184,51.50723],[-0.050858,51.507782],[-0.050641,51.508471],[-0.050629,51.509766],[-0.054973,51.509613],[-0.057649,51.50972],[-0.061209,51.509375],[-0.064656,51.509306],[-0.066528,51.509346],[-0.067415,51.509162],[-0.069167,51.508625],[-0.070921,51.508321],[-0.071557,51.508322],[-0.07356,51.509003],[-0.074881,51.510157],[-0.075736,51.513112],[-0.075388,51.513178],[-0.075291,51.513419],[-0.075294,51.514031],[-0.074255,51.514409],[-0.074301,51.51468],[-0.074666,51.514911],[-0.074954,51.514916],[-0.077395,51.514101],[-0.077751,51.514197],[-0.078583,51.514604]]}}]}