{"type":"FeatureCollection","metadata":{"routeId":"N19","sourceDate":"20260822","source":"https://bus.data.tfl.gov.uk/bus-geometry/"},"features":[{"type":"Feature","properties":{"routeId":"N19","direction":"1","sourceDate":"20260822"},"geometry":{"type":"LineString","coordinates":[[-0.105729,51.564971],[-0.105524,51.565093],[-0.104773,51.564581],[-0.104508,51.564712],[-0.103943,51.564406],[-0.103918,51.564325],[-0.104245,51.564087],[-0.105097,51.563714],[-0.105715,51.564129],[-0.107398,51.563318],[-0.107684,51.56309],[-0.107917,51.562177],[-0.108485,51.561692],[-0.109999,51.559963],[-0.111108,51.559333],[-0.111189,51.559101],[-0.111165,51.558651],[-0.111277,51.558382],[-0.111544,51.558198],[-0.115598,51.556806],[-0.116924,51.556135],[-0.113086,51.553376],[-0.112239,51.552571],[-0.108588,51.549814],[-0.106932,51.54844],[-0.105247,51.547269],[-0.103538,51.546388],[-0.103184,51.546247],[-0.102396,51.546117],[-0.10223,51.545953],[-0.102228,51.545656],[-0.102348,51.545532],[-0.102952,51.545569],[-0.103247,51.545412],[-0.103361,51.544766],[-0.103269,51.543506],[-0.102311,51.538796],[-0.102361,51.538341],[-0.103375,51.53679],[-0.103997,51.535361],[-0.105566,51.533678],[-0.106215,51.532636],[-0.106297,51.531966],[-0.106194,51.531404],[-0.105809,51.530606],[-0.105273,51.529968],[-0.10652,51.528765],[-0.107714,51.527427],[-0.109036,51.526486],[-0.110322,51.525733],[-0.111886,51.522422],[-0.112551,51.521687],[-0.116452,51.520751],[-0.11947,51.519918],[-0.120951,51.51898],[-0.125395,51.517099],[-0.128787,51.516632],[-0.129341,51.516488],[-0.130367,51.516406],[-0.13035,51.516126],[-0.130105,51.515373],[-0.129505,51.513883],[-0.129181,51.513347],[-0.12925,51.513149],[-0.133097,51.511472],[-0.13391,51.510833],[-0.134294,51.510254],[-0.134745,51.509794],[-0.139195,51.508316],[-0.141367,51.507498],[-0.144101,51.506156],[-0.145593,51.505272],[-0.146974,51.504601],[-0.148306,51.503759],[-0.149787,51.503108],[-0.149914,51.502471],[-0.151376,51.501955],[-0.151783,51.502002],[-0.151959,51.502144],[-0.152349,51.502824],[-0.152793,51.502903],[-0.153799,51.502685],[-0.156447,51.502313],[-0.158714,51.502187],[-0.160417,51.501764],[-0.160139,51.501166],[-0.159908,51.500382],[-0.157758,51.492685],[-0.156977,51.492763],[-0.156793,51.492661],[-0.156801,51.492472],[-0.158424,51.492228],[-0.160566,51.491197],[-0.163368,51.489662],[-0.168728,51.487461],[-0.173043,51.485802],[-0.175775,51.484478],[-0.173531,51.482249],[-0.17105,51.479467],[-0.16674,51.474895],[-0.163503,51.474835],[-0.162619,51.472798],[-0.165656,51.472135],[-0.169106,51.471182],[-0.171059,51.470232],[-0.171641,51.470088],[-0.17166,51.470002],[-0.170721,51.468239],[-0.170448,51.467165],[-0.169884,51.466851],[-0.169558,51.466378],[-0.168974,51.46579],[-0.16832,51.46492],[-0.167828,51.463914],[-0.167853,51.463654],[-0.16983,51.463137]]}},{"type":"Feature","properties":{"routeId":"N19","direction":"2","sourceDate":"20260822"},"geometry":{"type":"LineString","coordinates":[[-0.169994,51.463093],[-0.167833,51.463788],[-0.168456,51.46512],[-0.169884,51.466851],[-0.170406,51.467129],[-0.170721,51.468239],[-0.17166,51.470002],[-0.171641,51.470088],[-0.171059,51.470232],[-0.170249,51.470678],[-0.168653,51.471346],[-0.165671,51.472117],[-0.165531,51.472367],[-0.165834,51.473064],[-0.165929,51.473938],[-0.173531,51.482249],[-0.175775,51.484478],[-0.173768,51.48548],[-0.164058,51.48934],[-0.161248,51.49084],[-0.158174,51.49235],[-0.158166,51.492548],[-0.158077,51.492627],[-0.157758,51.492685],[-0.160057,51.50089],[-0.160361,51.501728],[-0.160529,51.501856],[-0.158467,51.502255],[-0.157096,51.502297],[-0.153498,51.502968],[-0.152225,51.503047],[-0.151019,51.503298],[-0.149994,51.503327],[-0.147962,51.504228],[-0.141204,51.507589],[-0.139177,51.508367],[-0.134804,51.509759],[-0.13484,51.50993],[-0.134426,51.510193],[-0.133984,51.51078],[-0.133137,51.511474],[-0.132536,51.511789],[-0.129733,51.512897],[-0.129169,51.513275],[-0.129554,51.513891],[-0.1303,51.515937],[-0.130367,51.516406],[-0.125627,51.517076],[-0.121066,51.518982],[-0.119601,51.519893],[-0.112986,51.521604],[-0.112412,51.5219],[-0.111886,51.522422],[-0.110633,51.525196],[-0.110322,51.525733],[-0.108933,51.526556],[-0.107714,51.527427],[-0.10652,51.528765],[-0.105273,51.529968],[-0.106013,51.530916],[-0.106301,51.531739],[-0.106335,51.532078],[-0.106167,51.532761],[-0.106186,51.532986],[-0.106151,51.533139],[-0.105296,51.534182],[-0.104261,51.535239],[-0.103922,51.535765],[-0.10379,51.535834],[-0.103375,51.53679],[-0.102359,51.538347],[-0.102311,51.538796],[-0.102988,51.541927],[-0.103269,51.543506],[-0.103367,51.544604],[-0.103247,51.545412],[-0.102952,51.545569],[-0.102406,51.545515],[-0.102228,51.545656],[-0.10223,51.545953],[-0.102396,51.546117],[-0.103184,51.546247],[-0.103538,51.546388],[-0.105528,51.547454],[-0.106887,51.548402],[-0.109343,51.550402],[-0.112441,51.552679],[-0.113648,51.553736],[-0.119525,51.557769],[-0.113636,51.561001],[-0.112958,51.561323],[-0.107334,51.563336],[-0.105715,51.564129],[-0.105668,51.564218],[-0.105741,51.564337]]}}]}