{"type":"FeatureCollection","metadata":{"routeId":"N31","sourceDate":"20260822","source":"https://bus.data.tfl.gov.uk/bus-geometry/"},"features":[{"type":"Feature","properties":{"routeId":"N31","direction":"1","sourceDate":"20260822"},"geometry":{"type":"MultiLineString","coordinates":[[[-0.140539,51.538163],[-0.13747,51.534854],[-0.137504,51.53472],[-0.138348,51.534526],[-0.138717,51.534667],[-0.138974,51.535094],[-0.141513,51.537544],[-0.142404,51.538664],[-0.142485,51.53916],[-0.142119,51.541061],[-0.143013,51.541066],[-0.144252,51.540744],[-0.146587,51.542193],[-0.148009,51.542701],[-0.151026,51.543324],[-0.152935,51.543911],[-0.160888,51.543758],[-0.170337,51.542601],[-0.171468,51.542088],[-0.174973,51.541693],[-0.175157,51.541786],[-0.175204,51.542066],[-0.175093,51.54316],[-0.175373,51.543975],[-0.175758,51.544421],[-0.17622,51.544779],[-0.177724,51.545396],[-0.178099,51.544891],[-0.179626,51.542197],[-0.179589,51.542026],[-0.179349,51.541896],[-0.179383,51.541771],[-0.187333,51.539853],[-0.191203,51.538276],[-0.191346,51.537945],[-0.192724,51.537355],[-0.192152,51.536879],[-0.193814,51.534593],[-0.1923,51.533149],[-0.192336,51.53297],[-0.193193,51.531724],[-0.196318,51.528006],[-0.196557,51.527585],[-0.1972,51.527721],[-0.197457,51.525243],[-0.201181,51.524392],[-0.201563,51.524209],[-0.201749,51.523879],[-0.201785,51.523322],[-0.201585,51.522914],[-0.201309,51.521867],[-0.200365,51.520585],[-0.198527,51.518587],[-0.196374,51.519076],[-0.195039,51.514937],[-0.196365,51.514193],[-0.196965,51.513608],[-0.197496,51.512851],[-0.197709,51.51228],[-0.197756,51.511831],[-0.197315,51.509854],[-0.197333,51.509652],[-0.197072,51.509069],[-0.197104,51.508979],[-0.194145,51.509483],[-0.193833,51.508614],[-0.194872,51.508217],[-0.194996,51.508003],[-0.194345,51.505871],[-0.193536,51.504455],[-0.193086,51.504188],[-0.192238,51.504129],[-0.191125,51.502413],[-0.190914,51.501915],[-0.191423,51.501788],[-0.193434,51.500866],[-0.198693,51.499022],[-0.197725,51.497623],[-0.196807,51.496071],[-0.195948,51.495109],[-0.19451,51.493286],[-0.193816,51.492661],[-0.192926,51.492198],[-0.191264,51.490896],[-0.190792,51.490189],[-0.190263,51.489621],[-0.190218,51.489279],[-0.187,51.486163],[-0.184303,51.484089],[-0.184214,51.48415],[-0.183793,51.483865],[-0.181575,51.48169],[-0.180646,51.481874],[-0.179094,51.482403],[-0.177327,51.483135],[-0.176969,51.483435],[-0.176879,51.483884],[-0.175775,51.484478],[-0.173531,51.482249],[-0.17105,51.479467],[-0.16674,51.474895],[-0.163503,51.474835],[-0.162619,51.472798],[-0.165656,51.472135],[-0.169106,51.471182],[-0.171059,51.470232],[-0.171641,51.470088],[-0.17166,51.470002],[-0.170721,51.468239],[-0.170448,51.467165],[-0.169884,51.466851],[-0.169558,51.466378],[-0.168974,51.46579],[-0.16832,51.46492],[-0.167828,51.463914],[-0.167853,51.463654],[-0.16983,51.463137]],[[-0.140539,51.538163],[-0.13747,51.534854],[-0.137504,51.53472],[-0.138348,51.534526],[-0.138717,51.534667],[-0.138974,51.535094],[-0.141513,51.537544],[-0.143643,51.540123],[-0.144252,51.540744],[-0.146587,51.542193],[-0.148009,51.542701],[-0.151026,51.543324],[-0.153219,51.544024],[-0.153482,51.543929],[-0.160888,51.543758],[-0.170337,51.542601],[-0.171468,51.542088],[-0.174973,51.541693],[-0.175157,51.541786],[-0.175204,51.542066],[-0.175093,51.54316],[-0.175373,51.543975],[-0.175758,51.544421],[-0.17622,51.544779],[-0.177724,51.545396],[-0.178099,51.544891],[-0.179626,51.542197],[-0.179589,51.542026],[-0.179349,51.541896],[-0.179383,51.541771],[-0.187333,51.539853],[-0.191203,51.538276],[-0.191346,51.537945],[-0.192724,51.537355],[-0.192152,51.536879],[-0.193814,51.534593],[-0.1923,51.533149],[-0.192336,51.53297],[-0.193193,51.531724],[-0.196318,51.528006],[-0.196557,51.527585],[-0.1972,51.527721],[-0.197457,51.525243],[-0.201181,51.524392],[-0.201527,51.524196],[-0.200352,51.52384],[-0.194664,51.522961],[-0.193945,51.522545],[-0.193393,51.521916],[-0.19119,51.520417],[-0.189448,51.519861],[-0.184443,51.519728],[-0.183211,51.519889],[-0.182248,51.520179],[-0.180808,51.520868],[-0.180546,51.520926],[-0.180317,51.520887],[-0.179351,51.520341],[-0.178959,51.520236],[-0.177476,51.520204],[-0.177247,51.520156],[-0.177051,51.520009],[-0.177059,51.51982],[-0.180553,51.51786],[-0.182093,51.517551],[-0.176618,51.513712],[-0.176384,51.513623],[-0.175645,51.51371],[-0.175416,51.513671],[-0.175337,51.513499],[-0.175626,51.513117],[-0.175587,51.512999],[-0.174397,51.512135],[-0.174475,51.511975],[-0.174903,51.51172],[-0.178511,51.511237],[-0.182239,51.510629],[-0.191118,51.510005],[-0.194109,51.509489],[-0.193833,51.508614],[-0.194872,51.508217],[-0.194996,51.508003],[-0.194345,51.505871],[-0.193536,51.504455],[-0.193086,51.504188],[-0.192238,51.504129],[-0.191125,51.502413],[-0.190914,51.501915],[-0.191423,51.501788],[-0.193434,51.500866],[-0.198693,51.499022],[-0.197725,51.497623],[-0.196807,51.496071],[-0.195948,51.495109],[-0.19451,51.493286],[-0.193816,51.492661],[-0.192926,51.492198],[-0.191555,51.49117],[-0.190263,51.489621],[-0.190218,51.489279],[-0.187,51.486163],[-0.184303,51.484089],[-0.184214,51.48415],[-0.183793,51.483865],[-0.181575,51.48169],[-0.180646,51.481874],[-0.179094,51.482403],[-0.177327,51.483135],[-0.176969,51.483435],[-0.176879,51.483884],[-0.175775,51.484478],[-0.173531,51.482249],[-0.17105,51.479467],[-0.16674,51.474895],[-0.163503,51.474835],[-0.162619,51.472798],[-0.165656,51.472135],[-0.169106,51.471182],[-0.171059,51.470232],[-0.171641,51.470088],[-0.17166,51.470002],[-0.170721,51.468239],[-0.170448,51.467165],[-0.169884,51.466851],[-0.169558,51.466378],[-0.168974,51.46579],[-0.16832,51.46492],[-0.167828,51.463914],[-0.167853,51.463654],[-0.16983,51.463137]]]}},{"type":"Feature","properties":{"routeId":"N31","direction":"2","sourceDate":"20260822"},"geometry":{"type":"MultiLineString","coordinates":[[[-0.168378,51.463579],[-0.167833,51.463788],[-0.16832,51.46492],[-0.169884,51.466851],[-0.170406,51.467129],[-0.170721,51.468239],[-0.17166,51.470002],[-0.171641,51.470088],[-0.171059,51.470232],[-0.170249,51.470678],[-0.168653,51.471346],[-0.165671,51.472117],[-0.165531,51.472367],[-0.165834,51.473064],[-0.165929,51.473938],[-0.173531,51.482249],[-0.175775,51.484478],[-0.176879,51.483884],[-0.176969,51.483435],[-0.177327,51.483135],[-0.177943,51.482848],[-0.180646,51.481874],[-0.182346,51.481496],[-0.183294,51.481195],[-0.186522,51.484429],[-0.189978,51.486631],[-0.190655,51.486984],[-0.192461,51.488675],[-0.192841,51.488537],[-0.193541,51.489042],[-0.200002,51.492496],[-0.20083,51.493052],[-0.201958,51.494037],[-0.196715,51.495853],[-0.197265,51.496878],[-0.198693,51.499022],[-0.193022,51.501075],[-0.191688,51.501639],[-0.191232,51.501932],[-0.191058,51.502277],[-0.192238,51.504129],[-0.193229,51.504226],[-0.193619,51.504556],[-0.194345,51.505871],[-0.1953,51.50906],[-0.195526,51.509171],[-0.197079,51.508898],[-0.197214,51.509134],[-0.197168,51.509205],[-0.197333,51.509652],[-0.197291,51.509728],[-0.197756,51.511831],[-0.197628,51.512548],[-0.197392,51.513044],[-0.196965,51.513608],[-0.196365,51.514193],[-0.195039,51.514937],[-0.196374,51.519076],[-0.198527,51.518587],[-0.200365,51.520585],[-0.201309,51.521867],[-0.201585,51.522914],[-0.201785,51.523322],[-0.201749,51.523879],[-0.201563,51.524209],[-0.201181,51.524392],[-0.197457,51.525243],[-0.1972,51.527721],[-0.196557,51.527585],[-0.195953,51.528456],[-0.193193,51.531724],[-0.192383,51.532872],[-0.1923,51.533149],[-0.193814,51.534593],[-0.192152,51.536879],[-0.192724,51.537355],[-0.191346,51.537945],[-0.191188,51.538285],[-0.187333,51.539853],[-0.180228,51.541568],[-0.179662,51.542009],[-0.179404,51.54196],[-0.179368,51.541798],[-0.177267,51.542044],[-0.177081,51.541996],[-0.176648,51.541656],[-0.176274,51.541624],[-0.175333,51.541726],[-0.175183,51.542203],[-0.175089,51.543143],[-0.174824,51.543265],[-0.174694,51.543272],[-0.174483,51.543134],[-0.173544,51.542094],[-0.173319,51.541956],[-0.172918,51.541895],[-0.171468,51.542088],[-0.170483,51.54255],[-0.169914,51.542669],[-0.161436,51.54372],[-0.154026,51.54392],[-0.153308,51.543953],[-0.153144,51.544077],[-0.151026,51.543324],[-0.14908,51.54296],[-0.147643,51.542594],[-0.146587,51.542193],[-0.145893,51.541773],[-0.144384,51.542805],[-0.144063,51.542899],[-0.141864,51.542729],[-0.139922,51.540496],[-0.141007,51.540054],[-0.14176,51.539625],[-0.141779,51.539491],[-0.141516,51.539191]],[[-0.168378,51.463579],[-0.167833,51.463788],[-0.16832,51.46492],[-0.169884,51.466851],[-0.170406,51.467129],[-0.170721,51.468239],[-0.17166,51.470002],[-0.171641,51.470088],[-0.171059,51.470232],[-0.170249,51.470678],[-0.168653,51.471346],[-0.165671,51.472117],[-0.165531,51.472367],[-0.165834,51.473064],[-0.165929,51.473938],[-0.173531,51.482249],[-0.175775,51.484478],[-0.176879,51.483884],[-0.176969,51.483435],[-0.177327,51.483135],[-0.177943,51.482848],[-0.180646,51.481874],[-0.182346,51.481496],[-0.183294,51.481195],[-0.186522,51.484429],[-0.189978,51.486631],[-0.190655,51.486984],[-0.192461,51.488675],[-0.192841,51.488537],[-0.193541,51.489042],[-0.200002,51.492496],[-0.20083,51.493052],[-0.201958,51.494037],[-0.196715,51.495853],[-0.197265,51.496878],[-0.198693,51.499022],[-0.193022,51.501075],[-0.191688,51.501639],[-0.191232,51.501932],[-0.191062,51.502178],[-0.191058,51.502277],[-0.192238,51.504129],[-0.193229,51.504226],[-0.193619,51.504556],[-0.194442,51.506132],[-0.195363,51.509276],[-0.191575,51.509964],[-0.182053,51.510653],[-0.176309,51.511536],[-0.176012,51.511756],[-0.175703,51.513001],[-0.175882,51.513201],[-0.182093,51.517551],[-0.180389,51.517993],[-0.180224,51.518161],[-0.178086,51.519369],[-0.17795,51.51951],[-0.178003,51.519628],[-0.178943,51.520047],[-0.179858,51.520098],[-0.180725,51.520058],[-0.184883,51.519528],[-0.185115,51.519651],[-0.189633,51.519682],[-0.190528,51.520011],[-0.191671,51.520653],[-0.191653,51.520716],[-0.192825,51.521438],[-0.192785,51.521492],[-0.193393,51.521916],[-0.194015,51.522609],[-0.19451,51.522894],[-0.195249,51.523096],[-0.200288,51.523831],[-0.201563,51.524209],[-0.201181,51.524392],[-0.197457,51.525243],[-0.1972,51.527721],[-0.196557,51.527585],[-0.195953,51.528456],[-0.193193,51.531724],[-0.192383,51.532872],[-0.1923,51.533149],[-0.193814,51.534593],[-0.192152,51.536879],[-0.192724,51.537355],[-0.191346,51.537945],[-0.191188,51.538285],[-0.187333,51.539853],[-0.180228,51.541568],[-0.179662,51.542009],[-0.179404,51.54196],[-0.179368,51.541798],[-0.177267,51.542044],[-0.177081,51.541996],[-0.176648,51.541656],[-0.176274,51.541624],[-0.175333,51.541726],[-0.175183,51.542203],[-0.175089,51.543143],[-0.174824,51.543265],[-0.174694,51.543272],[-0.174483,51.543134],[-0.173544,51.542094],[-0.173319,51.541956],[-0.172918,51.541895],[-0.171468,51.542088],[-0.170483,51.54255],[-0.169914,51.542669],[-0.161436,51.54372],[-0.154026,51.54392],[-0.153308,51.543953],[-0.153144,51.544077],[-0.151026,51.543324],[-0.14908,51.54296],[-0.147643,51.542594],[-0.146587,51.542193],[-0.145893,51.541773],[-0.144384,51.542805],[-0.144063,51.542899],[-0.141864,51.542729],[-0.139922,51.540496],[-0.141007,51.540054],[-0.14176,51.539625],[-0.141779,51.539491],[-0.141516,51.539191]]]}}]}