{"type":"FeatureCollection","metadata":{"routeId":"SL4","sourceDate":"20260717","source":"https://bus.data.tfl.gov.uk/bus-geometry/"},"features":[{"type":"Feature","properties":{"routeId":"SL4","direction":"1","sourceDate":"20260717"},"geometry":{"type":"LineString","coordinates":[[-0.024579,51.505562],[-0.023564,51.505464],[-0.023411,51.505659],[-0.023222,51.505701],[-0.017391,51.505055],[-0.014661,51.504738],[-0.014215,51.504398],[-0.013211,51.5043],[-0.012538,51.504522],[-0.011185,51.505479],[-0.010913,51.505763],[-0.010631,51.506295],[-0.010591,51.506549],[-0.010796,51.506804],[-0.010762,51.50692],[-0.010543,51.506988],[-0.009628,51.506811],[-0.008936,51.506835],[-0.008803,51.506914],[-0.008677,51.507154],[-0.008914,51.507338],[-0.008959,51.507627],[-0.008777,51.507822],[-0.008354,51.50794],[-0.007981,51.507916],[-0.007643,51.507731],[-0.007554,51.50745],[-0.007685,51.507102],[-0.007664,51.506913],[-0.007281,51.506789],[-0.006613,51.506904],[-0.006624,51.507299],[-0.006531,51.507451],[-0.00452,51.507956],[-0.003932,51.508225],[-0.003041,51.508839],[-0.00254,51.509069],[0.000576,51.509821],[0.000691,51.510134],[0.000628,51.510341],[0.000358,51.510427],[0.000123,51.510656],[0.000159,51.510835],[0.000441,51.511028],[0.000848,51.511093],[0.001219,51.511015],[0.001428,51.51084],[0.001463,51.51066],[0.001701,51.510494],[0.002512,51.510255],[0.003534,51.510229],[0.005109,51.510328],[0.005016,51.509862],[0.00362,51.509904],[0.002733,51.510036],[0.00148,51.510381],[0.000684,51.510323],[0.000217,51.51051],[0.000125,51.51071],[0.000265,51.510941],[0.000821,51.511102],[0.001359,51.510923],[0.001463,51.51066],[0.001701,51.510494],[0.002526,51.510246],[0.003501,51.510131],[0.006299,51.510199],[0.008153,51.510078],[0.009112,51.509918],[0.012911,51.508818],[0.01338,51.508769],[0.013834,51.507716],[0.014794,51.506705],[0.01494,51.506278],[0.01459,51.503828],[0.014424,51.503203],[0.013954,51.502766],[0.012369,51.501651],[0.009633,51.500585],[0.007349,51.499808],[0.005658,51.499086],[0.004642,51.498476],[0.003474,51.497268],[0.002516,51.496655],[0.002397,51.49636],[0.00283,51.495993],[0.004614,51.495121],[0.005453,51.494553],[0.01258,51.489211],[0.016538,51.487488],[0.017311,51.487061],[0.018036,51.486518],[0.020234,51.48443],[0.020506,51.484066],[0.020735,51.483378],[0.02078,51.482118],[0.020931,51.481621],[0.023288,51.477291],[0.023636,51.477006],[0.02417,51.476062],[0.024489,51.475454],[0.024522,51.475111],[0.025099,51.474922],[0.025078,51.474778],[0.02485,51.474503],[0.024703,51.474443],[0.02389,51.474619],[0.021134,51.474172],[0.018024,51.473839],[0.017946,51.473723],[0.015083,51.473107],[0.013219,51.471988],[0.00981,51.469133],[0.008718,51.467524],[0.008529,51.46652],[0.008702,51.466193],[0.00905,51.465917],[0.009158,51.465463],[0.009008,51.464956],[0.009008,51.464623],[0.009768,51.462587],[0.009822,51.462181],[0.009752,51.460932],[0.00987,51.459671],[0.010195,51.458853],[0.011433,51.456929],[0.01152,51.456613],[0.011464,51.456326],[0.011862,51.452605],[0.012362,51.451202],[0.012758,51.449502],[0.013272,51.448003],[0.013523,51.447495],[0.01469,51.446225],[0.013805,51.445994],[0.013853,51.445826],[0.01434,51.44481],[0.014959,51.443819],[0.015047,51.443548],[0.01503,51.442829],[0.015142,51.442431],[0.015595,51.441605],[0.016361,51.440586],[0.017111,51.439115],[0.017538,51.438011],[0.017929,51.437429],[0.019595,51.435726],[0.020702,51.434404],[0.021219,51.433091],[0.021293,51.432335]]}},{"type":"Feature","properties":{"routeId":"SL4","direction":"2","sourceDate":"20260717"},"geometry":{"type":"LineString","coordinates":[[0.020953,51.43364],[0.020594,51.434577],[0.017738,51.437657],[0.016663,51.44004],[0.016203,51.440847],[0.015595,51.441605],[0.015142,51.442431],[0.01503,51.442829],[0.015047,51.443548],[0.014907,51.443946],[0.01434,51.44481],[0.013765,51.445948],[0.013777,51.446061],[0.014608,51.446308],[0.013523,51.447495],[0.013272,51.448003],[0.012649,51.449875],[0.012362,51.451202],[0.01196,51.452208],[0.011531,51.455551],[0.011473,51.456838],[0.010357,51.458557],[0.009931,51.459428],[0.009752,51.460932],[0.009823,51.462074],[0.009768,51.462587],[0.009206,51.464224],[0.009114,51.464433],[0.008905,51.46458],[0.009163,51.465529],[0.00905,51.465917],[0.008927,51.466063],[0.008393,51.46636],[0.006991,51.466897],[0.006898,51.467069],[0.007111,51.467335],[0.007647,51.467625],[0.009228,51.468324],[0.009767,51.469074],[0.012801,51.471662],[0.013749,51.472322],[0.015008,51.473045],[0.015723,51.473591],[0.020659,51.474162],[0.02375,51.474711],[0.023955,51.474779],[0.024167,51.475019],[0.023971,51.475139],[0.023093,51.476791],[0.022991,51.477089],[0.023018,51.477377],[0.020769,51.481552],[0.02059,51.482068],[0.020526,51.483535],[0.020291,51.484096],[0.020084,51.484368],[0.017876,51.486485],[0.017207,51.486982],[0.017213,51.487126],[0.016538,51.487488],[0.01258,51.489211],[0.005453,51.494553],[0.004614,51.495121],[0.00283,51.495993],[0.002397,51.49636],[0.002516,51.496655],[0.003474,51.497268],[0.004642,51.498476],[0.005658,51.499086],[0.007349,51.499808],[0.009633,51.500585],[0.012369,51.501651],[0.013954,51.502766],[0.014424,51.503203],[0.01459,51.503828],[0.01494,51.506278],[0.014794,51.506705],[0.013834,51.507716],[0.013591,51.508213],[0.013295,51.508371],[0.013173,51.508589],[0.01278,51.508769],[0.009258,51.509795],[0.00844,51.509954],[0.006698,51.510095],[0.003152,51.510064],[0.001379,51.510392],[0.000684,51.510323],[0.000217,51.51051],[0.000135,51.510611],[0.000175,51.510862],[0.000441,51.511028],[0.000821,51.511102],[0.001359,51.510923],[0.001463,51.51066],[0.001701,51.510494],[0.002526,51.510246],[0.005109,51.510328],[0.005016,51.509862],[0.003334,51.509936],[0.001608,51.510361],[0.00122,51.510385],[0.000896,51.510229],[0.000814,51.510109],[0.000795,51.50988],[0.000873,51.50978],[0.000787,51.509709],[0.000314,51.509753],[-0.002374,51.509135],[-0.003041,51.508839],[-0.003932,51.508225],[-0.00452,51.507956],[-0.006399,51.507511],[-0.006624,51.507299],[-0.006613,51.506904],[-0.007759,51.506707],[-0.007794,51.506897],[-0.007934,51.507007],[-0.008391,51.507087],[-0.00894,51.506736],[-0.010337,51.506751],[-0.01066,51.505947],[-0.011115,51.505433],[-0.011919,51.504826],[-0.012004,51.504882],[-0.012685,51.504453],[-0.013136,51.504361],[-0.013244,51.504201],[-0.01432,51.504309],[-0.014905,51.504095],[-0.019439,51.504549],[-0.023468,51.505022],[-0.023566,51.505086],[-0.023614,51.505312],[-0.024982,51.505469]]}}]}