{"type":"FeatureCollection","metadata":{"routeId":"SL7","sourceDate":"20260214","source":"https://bus.data.tfl.gov.uk/bus-geometry/"},"features":[{"type":"Feature","properties":{"routeId":"SL7","direction":"1","sourceDate":"20260214"},"geometry":{"type":"LineString","coordinates":[[-0.101671,51.378937],[-0.101751,51.37879],[-0.10132,51.378801],[-0.101202,51.378862],[-0.100998,51.379273],[-0.10102,51.379453],[-0.100363,51.379685],[-0.099773,51.379729],[-0.099664,51.378423],[-0.098219,51.376251],[-0.09588,51.376905],[-0.095756,51.377137],[-0.095484,51.377115],[-0.095343,51.377031],[-0.095482,51.376809],[-0.093964,51.374542],[-0.096616,51.374058],[-0.096441,51.373084],[-0.0966,51.372025],[-0.09629,51.371543],[-0.096332,51.370879],[-0.096452,51.370737],[-0.097339,51.370823],[-0.10008,51.370571],[-0.099758,51.369333],[-0.09904,51.367568],[-0.099031,51.365014],[-0.098701,51.363999],[-0.098588,51.363946],[-0.098719,51.364227],[-0.098751,51.364134],[-0.098536,51.363792],[-0.102206,51.362925],[-0.105995,51.362312],[-0.106196,51.362324],[-0.10625,51.362424],[-0.108159,51.362446],[-0.112244,51.362998],[-0.113251,51.363311],[-0.114658,51.364035],[-0.116188,51.364644],[-0.117023,51.364864],[-0.117745,51.364861],[-0.118555,51.364637],[-0.120443,51.363093],[-0.121785,51.362234],[-0.123626,51.361463],[-0.125458,51.360926],[-0.130237,51.360328],[-0.131384,51.361785],[-0.131803,51.362808],[-0.131935,51.36343],[-0.132356,51.364372],[-0.132429,51.365016],[-0.132073,51.366391],[-0.132177,51.367013],[-0.132577,51.367799],[-0.133265,51.368173],[-0.133825,51.368883],[-0.134951,51.369108],[-0.136454,51.369248],[-0.139049,51.369739],[-0.142406,51.369847],[-0.145499,51.369383],[-0.149236,51.368651],[-0.150571,51.368312],[-0.152595,51.367631],[-0.155116,51.367116],[-0.158561,51.3661],[-0.159612,51.365632],[-0.162106,51.365103],[-0.164533,51.365133],[-0.166911,51.363866],[-0.168313,51.363285],[-0.168363,51.362735],[-0.16904,51.362703],[-0.170795,51.363009],[-0.172744,51.363112],[-0.175961,51.363126],[-0.180959,51.362421],[-0.18317,51.362824],[-0.184176,51.362804],[-0.186346,51.362415],[-0.188047,51.36227],[-0.189716,51.361828],[-0.189783,51.361604],[-0.189522,51.360926],[-0.189749,51.360651],[-0.191231,51.360584],[-0.192844,51.360096],[-0.194188,51.35991],[-0.194703,51.359936],[-0.195378,51.361034],[-0.195586,51.361226],[-0.196013,51.361341],[-0.198698,51.361014],[-0.200866,51.361029],[-0.203757,51.360192],[-0.211066,51.359144],[-0.213136,51.358717],[-0.214501,51.35836],[-0.215366,51.357905],[-0.216354,51.357674],[-0.216809,51.359213],[-0.217474,51.360204],[-0.220113,51.363256],[-0.220574,51.363956],[-0.223669,51.366035],[-0.224855,51.367321],[-0.225323,51.3682],[-0.225842,51.368919],[-0.227594,51.370614],[-0.227953,51.370794],[-0.227996,51.370928],[-0.228268,51.371035],[-0.228588,51.37137],[-0.229463,51.371869],[-0.233058,51.37365],[-0.236926,51.376577],[-0.238395,51.37686],[-0.239461,51.377523],[-0.243554,51.379482],[-0.244145,51.380165],[-0.248736,51.382626],[-0.250945,51.384251],[-0.252392,51.385118],[-0.254069,51.386357],[-0.25413,51.386654],[-0.253269,51.387748],[-0.253036,51.388203],[-0.253155,51.389598],[-0.252831,51.391707],[-0.253179,51.393511],[-0.253294,51.393872],[-0.254456,51.394321],[-0.254552,51.394439],[-0.254118,51.39526],[-0.254648,51.395709],[-0.255298,51.396743],[-0.255537,51.398382],[-0.257873,51.398914],[-0.257642,51.399008],[-0.256843,51.398853],[-0.256891,51.398701],[-0.256478,51.398613],[-0.255851,51.398838],[-0.255614,51.398989],[-0.255647,51.40004],[-0.256599,51.402977],[-0.256713,51.403023],[-0.257187,51.40491],[-0.258916,51.410124],[-0.273763,51.408664],[-0.258916,51.410124],[-0.25691,51.403871],[-0.256539,51.403039],[-0.256599,51.402977],[-0.255647,51.40004],[-0.255631,51.398961],[-0.256478,51.398613],[-0.262725,51.399911],[-0.275845,51.403873],[-0.277797,51.404747],[-0.279755,51.405441],[-0.285706,51.408559],[-0.288571,51.409617],[-0.291443,51.410099],[-0.291822,51.410348],[-0.292077,51.410837],[-0.294777,51.410543],[-0.296553,51.410713],[-0.297407,51.410564],[-0.300761,51.410469],[-0.300812,51.411026],[-0.300441,51.411354],[-0.300519,51.411824],[-0.300769,51.412195],[-0.301376,51.412492],[-0.304762,51.412721],[-0.30517,51.412574],[-0.305681,51.411969],[-0.305728,51.41108],[-0.30586,51.41101],[-0.307378,51.411176],[-0.307855,51.411111],[-0.310996,51.411327],[-0.312086,51.411028],[-0.313934,51.412385],[-0.314784,51.413513],[-0.317486,51.414352],[-0.318898,51.416243],[-0.319576,51.416963],[-0.322606,51.418256],[-0.32806,51.420141],[-0.331377,51.420692],[-0.334528,51.421043],[-0.334824,51.421218],[-0.334971,51.421517],[-0.334723,51.425578],[-0.334939,51.425572],[-0.335077,51.425727],[-0.336143,51.426074],[-0.336866,51.426008],[-0.339235,51.426091],[-0.340888,51.426528],[-0.343145,51.426956],[-0.347913,51.427563],[-0.351789,51.428579],[-0.365328,51.431332],[-0.365945,51.431376],[-0.366557,51.431217],[-0.368039,51.432764],[-0.368628,51.433213],[-0.369574,51.433684],[-0.373606,51.434792],[-0.375049,51.435082],[-0.376669,51.435644],[-0.379093,51.436271],[-0.379252,51.43666],[-0.379392,51.43677],[-0.388807,51.440712],[-0.391183,51.441887],[-0.399934,51.445514],[-0.400481,51.445908],[-0.40163,51.447218],[-0.409384,51.456406],[-0.412055,51.459077],[-0.412172,51.459429],[-0.415069,51.462652],[-0.415124,51.463156],[-0.415666,51.463298],[-0.417648,51.465501],[-0.418347,51.465682],[-0.421458,51.466065],[-0.421968,51.466315],[-0.422773,51.467366],[-0.423043,51.467597],[-0.422862,51.467936],[-0.423,51.468118],[-0.423301,51.468167],[-0.423511,51.468323],[-0.425253,51.470828],[-0.425741,51.471293],[-0.426774,51.471829],[-0.427064,51.472174],[-0.427045,51.472327],[-0.426684,51.472772],[-0.427173,51.47321],[-0.427184,51.474541],[-0.427069,51.474971],[-0.426345,51.476337],[-0.426606,51.476819],[-0.426531,51.47723],[-0.426729,51.478986],[-0.427009,51.479224],[-0.427536,51.479393],[-0.449511,51.479433],[-0.449637,51.479516],[-0.44963,51.480145],[-0.449836,51.480436],[-0.450669,51.480501],[-0.451798,51.480767],[-0.452406,51.480694],[-0.452773,51.480466],[-0.45293,51.480081],[-0.452886,51.474087],[-0.452981,51.472627],[-0.452864,51.472266],[-0.452573,51.471902],[-0.452646,51.471556]]}},{"type":"Feature","properties":{"routeId":"SL7","direction":"2","sourceDate":"20260214"},"geometry":{"type":"LineString","coordinates":[[-0.453454,51.471398],[-0.453857,51.471407],[-0.454054,51.471188],[-0.454441,51.471189],[-0.454028,51.471835],[-0.453289,51.472377],[-0.453178,51.472756],[-0.453015,51.474174],[-0.453048,51.479588],[-0.451841,51.4795],[-0.446184,51.479443],[-0.427536,51.479393],[-0.427009,51.479224],[-0.426729,51.478986],[-0.426531,51.47723],[-0.426606,51.476819],[-0.426471,51.476447],[-0.426345,51.476337],[-0.427069,51.474971],[-0.427184,51.474541],[-0.427173,51.47321],[-0.426684,51.472772],[-0.427045,51.472327],[-0.427064,51.472174],[-0.426774,51.471829],[-0.425741,51.471293],[-0.425434,51.471028],[-0.423455,51.468268],[-0.423301,51.468167],[-0.422813,51.468107],[-0.422803,51.467576],[-0.423569,51.467487],[-0.423963,51.466899],[-0.423924,51.466773],[-0.423722,51.466797],[-0.423621,51.467236],[-0.423184,51.467374],[-0.423017,51.46721],[-0.423198,51.466952],[-0.423942,51.466674],[-0.424026,51.466738],[-0.423637,51.467587],[-0.423293,51.467564],[-0.422871,51.467685],[-0.421839,51.466286],[-0.421458,51.466065],[-0.418347,51.465682],[-0.417648,51.465501],[-0.415666,51.463298],[-0.415124,51.463156],[-0.415109,51.462733],[-0.415014,51.462579],[-0.411105,51.458255],[-0.410031,51.457251],[-0.40163,51.447218],[-0.400481,51.445908],[-0.399934,51.445514],[-0.391183,51.441887],[-0.388807,51.440712],[-0.379392,51.43677],[-0.379252,51.43666],[-0.379093,51.436271],[-0.369574,51.433684],[-0.368628,51.433213],[-0.368039,51.432764],[-0.366557,51.431217],[-0.365945,51.431376],[-0.365328,51.431332],[-0.351789,51.428579],[-0.347913,51.427563],[-0.344701,51.427214],[-0.343145,51.426956],[-0.340888,51.426528],[-0.339235,51.426091],[-0.336869,51.426008],[-0.336143,51.426074],[-0.334841,51.426408],[-0.334623,51.426301],[-0.334971,51.421517],[-0.334824,51.421218],[-0.334528,51.421043],[-0.331377,51.420692],[-0.32806,51.420141],[-0.322606,51.418256],[-0.320258,51.417188],[-0.319576,51.416963],[-0.318898,51.416243],[-0.317486,51.414352],[-0.314784,51.413513],[-0.313934,51.412385],[-0.312086,51.411028],[-0.311061,51.411535],[-0.310821,51.411414],[-0.310077,51.411305],[-0.307855,51.411111],[-0.307378,51.411176],[-0.30586,51.41101],[-0.305713,51.411116],[-0.305689,51.412131],[-0.305416,51.412532],[-0.305149,51.412744],[-0.304641,51.412863],[-0.303579,51.41282],[-0.303199,51.413354],[-0.302559,51.413579],[-0.300811,51.413401],[-0.300617,51.4132],[-0.300716,51.412514],[-0.300662,51.412364],[-0.29674,51.412272],[-0.296489,51.412144],[-0.296414,51.411925],[-0.296716,51.410985],[-0.296652,51.410759],[-0.296497,51.410694],[-0.294777,51.410543],[-0.292077,51.410837],[-0.291822,51.410348],[-0.291443,51.410099],[-0.289487,51.409851],[-0.289647,51.409804],[-0.291443,51.410099],[-0.291822,51.410348],[-0.292069,51.410763],[-0.291998,51.410778],[-0.291822,51.410348],[-0.291443,51.410099],[-0.289046,51.409754],[-0.285706,51.408559],[-0.279755,51.405441],[-0.277797,51.404747],[-0.275845,51.403873],[-0.262725,51.399911],[-0.256478,51.398613],[-0.255894,51.398829],[-0.255573,51.398829],[-0.25544,51.398679],[-0.255537,51.398382],[-0.255298,51.396743],[-0.254949,51.396109],[-0.254648,51.395709],[-0.254159,51.395333],[-0.253986,51.394961],[-0.253278,51.394681],[-0.253271,51.394501],[-0.253464,51.394324],[-0.253441,51.394171],[-0.253241,51.393754],[-0.252863,51.391986],[-0.252842,51.391419],[-0.253155,51.389598],[-0.253054,51.388113],[-0.254069,51.386752],[-0.25411,51.386429],[-0.253973,51.386256],[-0.250945,51.384251],[-0.248736,51.382626],[-0.247902,51.382263],[-0.244296,51.380348],[-0.243554,51.379482],[-0.239461,51.377523],[-0.238395,51.37686],[-0.23738,51.376728],[-0.236926,51.376577],[-0.233058,51.37365],[-0.228768,51.371479],[-0.227724,51.370782],[-0.226338,51.369457],[-0.225636,51.368673],[-0.224855,51.367321],[-0.223669,51.366035],[-0.220574,51.363956],[-0.220113,51.363256],[-0.217474,51.360204],[-0.216809,51.359213],[-0.216354,51.357674],[-0.215366,51.357905],[-0.214501,51.35836],[-0.213136,51.358717],[-0.211066,51.359144],[-0.203757,51.360192],[-0.200866,51.361029],[-0.198698,51.361014],[-0.19666,51.361315],[-0.195739,51.361364],[-0.194431,51.361389],[-0.192008,51.36127],[-0.191038,51.361445],[-0.188382,51.362228],[-0.186346,51.362415],[-0.183643,51.362849],[-0.180959,51.362421],[-0.175961,51.363126],[-0.172744,51.363112],[-0.170795,51.363009],[-0.16904,51.362703],[-0.168363,51.362735],[-0.168313,51.363285],[-0.166911,51.363866],[-0.166186,51.364243],[-0.166081,51.364394],[-0.164533,51.365133],[-0.163009,51.365171],[-0.162106,51.365103],[-0.160358,51.365433],[-0.159396,51.365699],[-0.158561,51.3661],[-0.155116,51.367116],[-0.153773,51.367449],[-0.152991,51.36754],[-0.149236,51.368651],[-0.145499,51.369383],[-0.142622,51.369832],[-0.139049,51.369739],[-0.136454,51.369248],[-0.134951,51.369108],[-0.133825,51.368883],[-0.133265,51.368173],[-0.132577,51.367799],[-0.132177,51.367013],[-0.13192,51.367683],[-0.131533,51.367659],[-0.131943,51.367486],[-0.132139,51.367237],[-0.132073,51.366391],[-0.132429,51.365016],[-0.132356,51.364372],[-0.131935,51.36343],[-0.131803,51.362808],[-0.131384,51.361785],[-0.130237,51.360328],[-0.126986,51.360676],[-0.125458,51.360926],[-0.123626,51.361463],[-0.121785,51.362234],[-0.120443,51.363093],[-0.118555,51.364637],[-0.117745,51.364861],[-0.117023,51.364864],[-0.116188,51.364644],[-0.114658,51.364035],[-0.113251,51.363311],[-0.112244,51.362998],[-0.108159,51.362446],[-0.10625,51.362424],[-0.106088,51.362503],[-0.10592,51.362383],[-0.105561,51.362395],[-0.102206,51.362925],[-0.098536,51.363792],[-0.099031,51.365014],[-0.09904,51.367568],[-0.099758,51.369333],[-0.100046,51.370573],[-0.100185,51.370806],[-0.097231,51.37101],[-0.096986,51.371734],[-0.096681,51.371819],[-0.095935,51.371771],[-0.09114,51.372377],[-0.090047,51.372413],[-0.090628,51.374679],[-0.091892,51.374691],[-0.092247,51.374778],[-0.095645,51.374276],[-0.097043,51.374154],[-0.0988,51.376845],[-0.09951,51.377747],[-0.09984,51.378436],[-0.100219,51.378325],[-0.100814,51.378523],[-0.101017,51.378721]]}}]}