{"type":"FeatureCollection","metadata":{"routeId":"T6","sourceDate":"20260214","source":"https://bus.data.tfl.gov.uk/bus-geometry/"},"features":[{"type":"Feature","properties":{"routeId":"T6","direction":"1","sourceDate":"20260214"},"geometry":{"type":"LineString","coordinates":[[-0.018094,51.342882],[-0.018864,51.343542],[-0.020404,51.345124],[-0.021251,51.346127],[-0.021537,51.346168],[-0.021902,51.346363],[-0.021988,51.346688],[-0.021716,51.346998],[-0.021778,51.347233],[-0.022186,51.347771],[-0.024075,51.351116],[-0.024637,51.351886],[-0.025132,51.352389],[-0.026012,51.352961],[-0.030316,51.355417],[-0.030997,51.35595],[-0.031408,51.356415],[-0.031469,51.356668],[-0.031761,51.356898],[-0.032449,51.356927],[-0.03341,51.356611],[-0.033359,51.356457],[-0.033261,51.35641],[-0.031944,51.356298],[-0.031838,51.35644],[-0.031892,51.356513],[-0.032939,51.356558],[-0.033086,51.35647],[-0.033061,51.35638],[-0.031944,51.356298],[-0.031719,51.356528],[-0.031471,51.356623],[-0.031509,51.356732],[-0.031761,51.356898],[-0.032449,51.356927],[-0.03341,51.356611],[-0.033359,51.356457],[-0.033061,51.35638],[-0.033055,51.356524],[-0.032939,51.356558],[-0.031892,51.356513],[-0.031838,51.35644],[-0.031944,51.356298],[-0.033061,51.35638],[-0.033086,51.35647],[-0.032907,51.356557],[-0.031892,51.356513],[-0.031838,51.35644],[-0.031471,51.356623],[-0.031606,51.356814],[-0.032132,51.356949],[-0.032353,51.357159],[-0.032364,51.357232],[-0.032048,51.357568],[-0.031671,51.357643],[-0.030857,51.357539],[-0.027427,51.359136],[-0.026688,51.359627],[-0.024664,51.361257],[-0.021081,51.363085],[-0.019736,51.363629],[-0.016106,51.364511],[-0.006908,51.367908],[-0.005997,51.368378],[-0.008343,51.370944],[-0.008584,51.371021],[-0.009365,51.370899],[-0.009907,51.37098],[-0.0104,51.371213],[-0.011071,51.371962],[-0.011364,51.372174],[-0.012061,51.372292],[-0.012301,51.372433],[-0.014601,51.375501],[-0.014643,51.375759],[-0.017099,51.376111],[-0.020579,51.37706],[-0.023993,51.377531],[-0.024297,51.377465],[-0.024521,51.377612],[-0.02613,51.377289],[-0.028818,51.377253],[-0.035331,51.376832],[-0.038249,51.376827],[-0.04214,51.375885],[-0.047084,51.375185],[-0.04832,51.374828],[-0.051143,51.374335],[-0.053587,51.373971],[-0.055549,51.373779],[-0.056217,51.373619],[-0.055178,51.371345],[-0.053036,51.367298],[-0.052776,51.366673],[-0.052449,51.365238],[-0.051745,51.364219],[-0.051408,51.36335],[-0.051515,51.362876],[-0.051708,51.362717],[-0.053627,51.361849],[-0.055186,51.360976],[-0.055661,51.360633],[-0.055832,51.360321],[-0.055817,51.359997],[-0.054993,51.358419],[-0.055215,51.358261],[-0.056852,51.358944],[-0.057988,51.35926],[-0.061854,51.359899],[-0.062699,51.3603],[-0.064115,51.360782],[-0.064448,51.361058],[-0.064715,51.361569],[-0.064948,51.361808],[-0.067033,51.36244],[-0.070529,51.362983],[-0.072913,51.362996],[-0.074151,51.363286],[-0.075649,51.363517],[-0.076624,51.363578],[-0.078762,51.363982],[-0.080412,51.363979],[-0.082431,51.364168],[-0.084378,51.364666],[-0.085266,51.364754],[-0.086751,51.3653],[-0.089112,51.365869],[-0.088783,51.366187],[-0.087663,51.366529],[-0.087161,51.366844],[-0.086617,51.367483],[-0.086147,51.368419],[-0.085981,51.369298],[-0.086042,51.369901],[-0.087016,51.372213],[-0.087385,51.372495],[-0.087814,51.372548],[-0.089126,51.372434],[-0.089679,51.372424],[-0.089842,51.372499],[-0.090134,51.372738],[-0.090628,51.374679],[-0.091892,51.374691],[-0.092247,51.374778],[-0.094763,51.374396],[-0.097044,51.374154],[-0.097385,51.374725]]}},{"type":"Feature","properties":{"routeId":"T6","direction":"2","sourceDate":"20260214"},"geometry":{"type":"LineString","coordinates":[[-0.098736,51.376989],[-0.098316,51.376391],[-0.097948,51.376327],[-0.09588,51.376905],[-0.09589,51.377013],[-0.095756,51.377137],[-0.095385,51.377077],[-0.095346,51.376969],[-0.095482,51.376809],[-0.093953,51.374527],[-0.092247,51.374778],[-0.091892,51.374691],[-0.090628,51.374679],[-0.090134,51.372738],[-0.089842,51.372499],[-0.089679,51.372424],[-0.089126,51.372434],[-0.087814,51.372548],[-0.087249,51.3727],[-0.087063,51.372634],[-0.087098,51.372482],[-0.086921,51.371921],[-0.086042,51.369901],[-0.085981,51.369298],[-0.086147,51.368419],[-0.086617,51.367483],[-0.087161,51.366844],[-0.087663,51.366529],[-0.088783,51.366187],[-0.089112,51.365869],[-0.086751,51.3653],[-0.085394,51.364783],[-0.084378,51.364666],[-0.082674,51.364208],[-0.081789,51.364077],[-0.080041,51.363967],[-0.078762,51.363982],[-0.076624,51.363578],[-0.075649,51.363517],[-0.074151,51.363286],[-0.072913,51.362996],[-0.070529,51.362983],[-0.066677,51.362362],[-0.064948,51.361808],[-0.064715,51.361569],[-0.064448,51.361058],[-0.064115,51.360782],[-0.062699,51.3603],[-0.062179,51.360022],[-0.060943,51.359696],[-0.057988,51.35926],[-0.056584,51.358832],[-0.055316,51.358595],[-0.055049,51.358465],[-0.054676,51.358099],[-0.051726,51.356872],[-0.049276,51.355725],[-0.045761,51.354947],[-0.044588,51.354855],[-0.042907,51.354854],[-0.041663,51.354734],[-0.039361,51.354156],[-0.037666,51.353831],[-0.037199,51.353958],[-0.036938,51.354223],[-0.036594,51.354884],[-0.036359,51.355158],[-0.034955,51.356097],[-0.032364,51.357232],[-0.031931,51.35762],[-0.031671,51.357643],[-0.031173,51.357535],[-0.031036,51.357371],[-0.031071,51.357237],[-0.031385,51.356945],[-0.032536,51.356911],[-0.03341,51.356611],[-0.033386,51.356511],[-0.033061,51.35638],[-0.031944,51.356298],[-0.031469,51.356668],[-0.031761,51.356898],[-0.032132,51.356949],[-0.032364,51.357232],[-0.031931,51.35762],[-0.031671,51.357643],[-0.031173,51.357535],[-0.031038,51.357344],[-0.031289,51.356494],[-0.031254,51.356314],[-0.030997,51.35595],[-0.030316,51.355417],[-0.025178,51.352471],[-0.024637,51.351886],[-0.023888,51.350809],[-0.023802,51.350789],[-0.023739,51.35069],[-0.023794,51.35065],[-0.023001,51.349169],[-0.021983,51.347472],[-0.021624,51.347132],[-0.020909,51.347074],[-0.020516,51.346861],[-0.020429,51.346545],[-0.020598,51.346305],[-0.0189,51.344379],[-0.01731,51.342994]]}}]}