{"type":"FeatureCollection","metadata":{"routeId":"T7","sourceDate":"20260227","source":"https://bus.data.tfl.gov.uk/bus-geometry/"},"features":[{"type":"Feature","properties":{"routeId":"T7","direction":"1","sourceDate":"20260227"},"geometry":{"type":"LineString","coordinates":[[-0.026844,51.41071],[-0.028056,51.411044],[-0.028643,51.411099],[-0.02922,51.411046],[-0.029846,51.410771],[-0.030344,51.410336],[-0.030635,51.409909],[-0.031804,51.407456],[-0.031859,51.407205],[-0.031815,51.406881],[-0.032076,51.406822],[-0.032175,51.406869],[-0.032207,51.407121],[-0.032399,51.407331],[-0.033092,51.407604],[-0.036066,51.407995],[-0.037703,51.408391],[-0.041129,51.408988],[-0.043616,51.409326],[-0.044823,51.409697],[-0.046009,51.410203],[-0.050273,51.412489],[-0.051164,51.413076],[-0.051691,51.413868],[-0.0573,51.409797],[-0.059578,51.40863],[-0.058489,51.407182],[-0.056369,51.40497],[-0.055561,51.404013],[-0.054016,51.402476],[-0.052384,51.401056],[-0.051498,51.400141],[-0.049378,51.398946],[-0.048629,51.398637],[-0.047011,51.398169],[-0.047036,51.398095],[-0.047849,51.397733],[-0.048185,51.396912],[-0.049476,51.396313],[-0.04979,51.39603],[-0.050099,51.395514],[-0.051614,51.394361],[-0.051841,51.394113],[-0.051841,51.393429],[-0.052041,51.392776],[-0.052565,51.391958],[-0.052989,51.391452],[-0.056347,51.389538],[-0.057576,51.388686],[-0.061386,51.386969],[-0.063135,51.385694],[-0.064657,51.384038],[-0.065325,51.383536],[-0.06389,51.38246],[-0.063504,51.382067],[-0.063211,51.381532],[-0.062947,51.380619],[-0.062605,51.379885],[-0.060803,51.377301],[-0.060435,51.376828],[-0.059923,51.376369],[-0.059941,51.376271],[-0.061875,51.37606],[-0.066058,51.374996],[-0.067637,51.374698],[-0.068657,51.374373],[-0.069366,51.374259],[-0.072529,51.374194],[-0.073259,51.37426],[-0.073899,51.374424],[-0.074829,51.374853],[-0.075672,51.374974],[-0.077929,51.375152],[-0.080334,51.375159],[-0.080943,51.375034],[-0.081443,51.37473],[-0.081936,51.373611],[-0.082208,51.373301],[-0.082604,51.373092],[-0.08384,51.372743],[-0.087053,51.372526],[-0.087244,51.372439],[-0.087814,51.372548],[-0.089126,51.372434],[-0.089679,51.372424],[-0.089842,51.372499],[-0.090134,51.372738],[-0.090628,51.374679],[-0.092582,51.37476],[-0.095712,51.374265],[-0.097043,51.374154],[-0.097385,51.374725]]}},{"type":"Feature","properties":{"routeId":"T7","direction":"2","sourceDate":"20260227"},"geometry":{"type":"LineString","coordinates":[[-0.098736,51.376989],[-0.098316,51.376391],[-0.097948,51.376327],[-0.09588,51.376905],[-0.09589,51.377013],[-0.095756,51.377137],[-0.095385,51.377077],[-0.095346,51.376969],[-0.095482,51.376809],[-0.093953,51.374527],[-0.092247,51.374778],[-0.091892,51.374691],[-0.090628,51.374679],[-0.090134,51.372738],[-0.089679,51.372424],[-0.087814,51.372548],[-0.087262,51.3727],[-0.086471,51.372573],[-0.084064,51.372741],[-0.083127,51.372974],[-0.082072,51.373461],[-0.081766,51.373905],[-0.081423,51.37488],[-0.080707,51.375183],[-0.077275,51.375118],[-0.075841,51.37499],[-0.074886,51.374872],[-0.073899,51.374424],[-0.073259,51.37426],[-0.072529,51.374194],[-0.069366,51.374259],[-0.068657,51.374373],[-0.067637,51.374698],[-0.066058,51.374996],[-0.061875,51.37606],[-0.06017,51.376284],[-0.060448,51.376846],[-0.062605,51.379885],[-0.062947,51.380619],[-0.063211,51.381532],[-0.063504,51.382067],[-0.06389,51.38246],[-0.065325,51.383536],[-0.064657,51.384038],[-0.063135,51.385694],[-0.061386,51.386969],[-0.057576,51.388686],[-0.056347,51.389538],[-0.052989,51.391452],[-0.052565,51.391958],[-0.052041,51.392776],[-0.051841,51.393429],[-0.051841,51.394113],[-0.051614,51.394361],[-0.050099,51.395514],[-0.04979,51.39603],[-0.049174,51.396649],[-0.048522,51.396764],[-0.048185,51.396912],[-0.047879,51.397698],[-0.047492,51.397997],[-0.047441,51.398185],[-0.047678,51.398369],[-0.048629,51.398637],[-0.049378,51.398946],[-0.051498,51.400141],[-0.052384,51.401056],[-0.054016,51.402476],[-0.055561,51.404013],[-0.056369,51.40497],[-0.058489,51.407182],[-0.059578,51.40863],[-0.0573,51.409797],[-0.051691,51.413868],[-0.051164,51.413076],[-0.050273,51.412489],[-0.046009,51.410203],[-0.044823,51.409697],[-0.042959,51.409234],[-0.037703,51.408391],[-0.036066,51.407995],[-0.033434,51.407681],[-0.032766,51.407508],[-0.032159,51.407246],[-0.032,51.407261],[-0.031759,51.4075],[-0.030543,51.410052],[-0.030193,51.410486],[-0.0296,51.410917],[-0.028858,51.411103],[-0.028256,51.411074],[-0.026027,51.410493],[-0.025852,51.410782],[-0.025563,51.410715]]}}]}