{"type":"FeatureCollection","metadata":{"routeId":"UL16","sourceDate":"20260328","source":"https://bus.data.tfl.gov.uk/bus-geometry/"},"features":[{"type":"Feature","properties":{"routeId":"UL16","direction":"1","sourceDate":"20260328"},"geometry":{"type":"LineString","coordinates":[[-0.004199,51.543856],[-0.004123,51.543749],[-0.003908,51.543719],[-0.003888,51.545499],[-0.004093,51.546078],[-0.003198,51.546089],[-0.000974,51.546492],[-0.000377,51.545313],[-2.4e-05,51.544803],[-4e-05,51.544444],[-0.00041,51.544226],[-0.000445,51.544082],[0.000482,51.543203],[0.000942,51.543168],[0.002796,51.543667],[0.003687,51.543607],[0.003986,51.543503],[0.004065,51.54334],[0.003736,51.542743],[0.003783,51.542224],[0.003965,51.542135],[0.004385,51.542084],[0.006671,51.542261],[0.008413,51.542528],[0.012386,51.543656],[0.019565,51.545547],[0.021313,51.545939],[0.024391,51.546405],[0.03089,51.546916],[0.033689,51.547263],[0.039327,51.548191],[0.042665,51.548969],[0.044976,51.549693],[0.04884,51.551253],[0.052028,51.552232],[0.056648,51.553904],[0.059334,51.554622],[0.061282,51.555262],[0.064657,51.556201],[0.066424,51.556997],[0.067489,51.557581],[0.069688,51.558342],[0.070115,51.558218],[0.07018,51.557434],[0.070627,51.556797],[0.070796,51.556695],[0.071569,51.556564],[0.074948,51.557602],[0.076281,51.558343],[0.076942,51.558619],[0.078591,51.559012],[0.078769,51.559135],[0.078738,51.559405],[0.078919,51.559573],[0.079123,51.559614],[0.079423,51.559546],[0.080663,51.559857],[0.080858,51.560024],[0.080691,51.560377],[0.080791,51.560516],[0.088077,51.562018],[0.092191,51.563006],[0.095113,51.563475],[0.096924,51.563659],[0.097409,51.56383],[0.097731,51.564247],[0.09787,51.564313],[0.100492,51.564683],[0.110574,51.566786],[0.116412,51.567886],[0.121614,51.56897],[0.125889,51.569675],[0.130416,51.570816],[0.130506,51.570266],[0.130131,51.569347],[0.129887,51.569378],[0.12959,51.569815],[0.128904,51.570268],[0.128811,51.570441],[0.130867,51.570907],[0.135377,51.571679],[0.137323,51.571941],[0.141489,51.572161],[0.145805,51.572775],[0.158519,51.574313],[0.161883,51.574638],[0.163885,51.574547],[0.166018,51.574175],[0.167153,51.574064],[0.169135,51.574181],[0.173378,51.574786],[0.175346,51.57519],[0.176575,51.57585],[0.176849,51.576151],[0.176896,51.576528],[0.177076,51.576668],[0.177265,51.576701],[0.177466,51.57667],[0.177633,51.576532],[0.177674,51.57619],[0.178725,51.574021],[0.179516,51.572774],[0.180133,51.572088],[0.180745,51.571609],[0.181202,51.571511],[0.182987,51.57172],[0.183585,51.571844],[0.18378,51.571993],[0.184112,51.572904],[0.183814,51.574205],[0.182707,51.573928]]}},{"type":"Feature","properties":{"routeId":"UL16","direction":"2","sourceDate":"20260328"},"geometry":{"type":"LineString","coordinates":[[0.183088,51.574029],[0.183814,51.574205],[0.184112,51.572904],[0.183881,51.572288],[0.184147,51.571825],[0.181634,51.571485],[0.181325,51.571356],[0.181231,51.571196],[0.18085,51.571086],[0.180593,51.571136],[0.18044,51.571255],[0.180388,51.571679],[0.179411,51.572677],[0.17865,51.573968],[0.177541,51.57612],[0.177402,51.576231],[0.177095,51.576164],[0.175715,51.575363],[0.175054,51.575114],[0.173378,51.574786],[0.169135,51.574181],[0.167153,51.574064],[0.166018,51.574175],[0.163885,51.574547],[0.161883,51.574638],[0.158519,51.574313],[0.145805,51.572775],[0.141718,51.572154],[0.137323,51.571941],[0.135014,51.571623],[0.130416,51.570816],[0.130506,51.570266],[0.130131,51.569347],[0.129887,51.569378],[0.12959,51.569815],[0.129119,51.570155],[0.128904,51.570268],[0.128374,51.570326],[0.125889,51.569675],[0.121614,51.56897],[0.116412,51.567886],[0.115257,51.567565],[0.114126,51.567442],[0.111536,51.566976],[0.101832,51.564947],[0.09833,51.564289],[0.097731,51.564247],[0.097409,51.56383],[0.096924,51.563659],[0.095113,51.563475],[0.092191,51.563006],[0.088077,51.562018],[0.081648,51.560677],[0.081545,51.560575],[0.081777,51.560136],[0.081728,51.560002],[0.07987,51.559547],[0.079545,51.559382],[0.079525,51.559265],[0.079317,51.559125],[0.078928,51.559141],[0.078494,51.559419],[0.077796,51.559305],[0.077518,51.559849],[0.075581,51.559443],[0.075911,51.55879],[0.075828,51.558531],[0.075576,51.5584],[0.074526,51.558158],[0.072919,51.557395],[0.072411,51.557323],[0.072226,51.55738],[0.071575,51.558615],[0.070652,51.558444],[0.070115,51.558218],[0.070071,51.557611],[0.069072,51.557175],[0.06858,51.557148],[0.067654,51.557477],[0.067266,51.557441],[0.064657,51.556201],[0.061282,51.555262],[0.059334,51.554622],[0.056648,51.553904],[0.052028,51.552232],[0.048625,51.551174],[0.045181,51.549761],[0.042665,51.548969],[0.039196,51.548166],[0.033689,51.547263],[0.03089,51.546916],[0.024479,51.546416],[0.021313,51.545939],[0.019565,51.545547],[0.012386,51.543656],[0.00818,51.542469],[0.006671,51.542261],[0.004385,51.542084],[0.003783,51.542224],[0.003753,51.542814],[0.004065,51.54334],[0.003986,51.543503],[0.003687,51.543607],[0.002796,51.543667],[0.000942,51.543168],[0.000454,51.543221],[-0.000445,51.544082],[-0.00041,51.544226],[-4e-05,51.544444],[-2.4e-05,51.544803],[-0.000377,51.545313],[-0.000974,51.546492],[-0.003198,51.546089],[-0.004093,51.546078],[-0.003888,51.545499],[-0.003908,51.543719],[-0.004184,51.543678],[-0.004242,51.543304]]}}]}