{"type":"FeatureCollection","metadata":{"routeId":"UL2","sourceDate":"20260214","source":"https://bus.data.tfl.gov.uk/bus-geometry/"},"features":[{"type":"Feature","properties":{"routeId":"UL2","direction":"1","sourceDate":"20260214"},"geometry":{"type":"MultiLineString","coordinates":[[[-0.275766,51.492396],[-0.273032,51.492623],[-0.270441,51.492944],[-0.269074,51.492915],[-0.266606,51.492672],[-0.26248,51.49244],[-0.260563,51.492457],[-0.255353,51.492712],[-0.255298,51.495679],[-0.255941,51.496938],[-0.256831,51.501169],[-0.257174,51.501246],[-0.257879,51.502425],[-0.258174,51.502601],[-0.258432,51.50264],[-0.265686,51.502478],[-0.265657,51.502864],[-0.26583,51.503244],[-0.266591,51.503687],[-0.267572,51.505168],[-0.26816,51.50639],[-0.268167,51.506588],[-0.267989,51.506721],[-0.262885,51.506468],[-0.260176,51.506416],[-0.256856,51.506556],[-0.25755,51.509156],[-0.257793,51.509573],[-0.25784,51.509861],[-0.257687,51.510471],[-0.256749,51.511266],[-0.256485,51.511766],[-0.256139,51.511961],[-0.254613,51.512106],[-0.252272,51.512647],[-0.252129,51.5126],[-0.24935,51.512927],[-0.249144,51.513092],[-0.249136,51.513608],[-0.249416,51.513819],[-0.251245,51.513864],[-0.253998,51.514238],[-0.255654,51.514649],[-0.257602,51.515352],[-0.259965,51.516484],[-0.260627,51.516908],[-0.261463,51.517666],[-0.262349,51.519145],[-0.262792,51.51949],[-0.264633,51.519953],[-0.264416,51.520363],[-0.263459,51.52168],[-0.261569,51.523198],[-0.26112,51.523255],[-0.25869,51.522706],[-0.258122,51.522869],[-0.257267,51.524124],[-0.255907,51.525381],[-0.252213,51.527735],[-0.250929,51.528139],[-0.250529,51.528403],[-0.248786,51.529888],[-0.248009,51.530964],[-0.247171,51.53177],[-0.24661,51.53249],[-0.24431,51.531934],[-0.244062,51.532002],[-0.243978,51.531938],[-0.244025,51.531831],[-0.244199,51.531806],[-0.24431,51.531934],[-0.24661,51.53249],[-0.246527,51.532767],[-0.2467,51.533139],[-0.247553,51.533835],[-0.248389,51.534962],[-0.24845,51.535251],[-0.248138,51.535489],[-0.245911,51.53604],[-0.245259,51.536111],[-0.244802,51.536006],[-0.240457,51.533144],[-0.239681,51.532692],[-0.239085,51.532458],[-0.23735,51.532207],[-0.234333,51.532665],[-0.231035,51.531219],[-0.229233,51.530709],[-0.228199,51.530235],[-0.227626,51.530154],[-0.225492,51.530158],[-0.223827,51.529962],[-0.221661,51.529309],[-0.21821,51.528699],[-0.217312,51.528442],[-0.216049,51.527928],[-0.216095,51.528972],[-0.215877,51.529742],[-0.218599,51.533515],[-0.218846,51.533474],[-0.219137,51.533757],[-0.218874,51.533861],[-0.21678,51.530997],[-0.214741,51.531506],[-0.213174,51.531769],[-0.211076,51.531944],[-0.209034,51.532551],[-0.208002,51.532769],[-0.205775,51.532933],[-0.204666,51.532916],[-0.204518,51.533004],[-0.204497,51.533225],[-0.204198,51.53344],[-0.20401,51.533446],[-0.203546,51.533142],[-0.202296,51.532673],[-0.201767,51.532566],[-0.199254,51.532501],[-0.192902,51.532142],[-0.192336,51.53297],[-0.1923,51.533149],[-0.193814,51.534593],[-0.192152,51.536879],[-0.196794,51.540907],[-0.200483,51.543922],[-0.202472,51.545769],[-0.199467,51.546631],[-0.195684,51.547371],[-0.194156,51.547826],[-0.193198,51.547973],[-0.192317,51.548005],[-0.191051,51.547923],[-0.19117,51.546378],[-0.188901,51.546486],[-0.187945,51.546229],[-0.182496,51.546891],[-0.181863,51.546845],[-0.180823,51.546541],[-0.179963,51.546771],[-0.179344,51.546734],[-0.178259,51.545728],[-0.177806,51.545874],[-0.176538,51.545845],[-0.175544,51.545443],[-0.174998,51.544688],[-0.174486,51.544869],[-0.173121,51.54556],[-0.172907,51.545762],[-0.172719,51.546137],[-0.172633,51.547187],[-0.172116,51.547863],[-0.166289,51.551449],[-0.167663,51.552433],[-0.169185,51.55321],[-0.167554,51.553718],[-0.164677,51.554239],[-0.162986,51.554671],[-0.161262,51.554491],[-0.158436,51.553404],[-0.158128,51.553156],[-0.157307,51.551714],[-0.156686,51.551011],[-0.154528,51.550536],[-0.153767,51.550075],[-0.153366,51.549655],[-0.150748,51.545936],[-0.149997,51.545592],[-0.149413,51.545061],[-0.149294,51.544789],[-0.14908,51.54296],[-0.147353,51.542501],[-0.146587,51.542193],[-0.145893,51.541773],[-0.144384,51.542805],[-0.144063,51.542899],[-0.141864,51.542729],[-0.139922,51.540495],[-0.140463,51.540277]],[[-0.245584,51.532251],[-0.24661,51.53249],[-0.246527,51.532767],[-0.2467,51.533139],[-0.247553,51.533835],[-0.248389,51.534962],[-0.24845,51.535251],[-0.248359,51.535375],[-0.248138,51.535489],[-0.245911,51.53604],[-0.245259,51.536111],[-0.244802,51.536006],[-0.240457,51.533144],[-0.239681,51.532692],[-0.239085,51.532458],[-0.23735,51.532207],[-0.234333,51.532665],[-0.231035,51.531219],[-0.229233,51.530709],[-0.228199,51.530235],[-0.227626,51.530154],[-0.225492,51.530158],[-0.223827,51.529962],[-0.221661,51.529309],[-0.21821,51.528699],[-0.217312,51.528442],[-0.216049,51.527928],[-0.216095,51.528972],[-0.215877,51.529742],[-0.218599,51.533515],[-0.218846,51.533474],[-0.219137,51.533757],[-0.218874,51.533861],[-0.21678,51.530997],[-0.214741,51.531506],[-0.213174,51.531769],[-0.211076,51.531944],[-0.209034,51.532551],[-0.208002,51.532769],[-0.205775,51.532933],[-0.204666,51.532916],[-0.204518,51.533004],[-0.204497,51.533225],[-0.204198,51.53344],[-0.20401,51.533446],[-0.203546,51.533142],[-0.202296,51.532673],[-0.201767,51.532566],[-0.199254,51.532501],[-0.192902,51.532142],[-0.192336,51.53297],[-0.1923,51.533149],[-0.193814,51.534593],[-0.192152,51.536879],[-0.196794,51.540907],[-0.200483,51.543922],[-0.202472,51.545769],[-0.199467,51.546631],[-0.195684,51.547371],[-0.194156,51.547826],[-0.193198,51.547973],[-0.192317,51.548005],[-0.191051,51.547923],[-0.19117,51.546378],[-0.188901,51.546486],[-0.187945,51.546229],[-0.182496,51.546891],[-0.181863,51.546845],[-0.180823,51.546541],[-0.179963,51.546771],[-0.179344,51.546734],[-0.178259,51.545728],[-0.177806,51.545874],[-0.176538,51.545845],[-0.175544,51.545443],[-0.174998,51.544688],[-0.174486,51.544869],[-0.173121,51.54556],[-0.172907,51.545762],[-0.172719,51.546137],[-0.172633,51.547187],[-0.172116,51.547863],[-0.166289,51.551449],[-0.167663,51.552433],[-0.169185,51.55321],[-0.167554,51.553718],[-0.164677,51.554239],[-0.162986,51.554671],[-0.161262,51.554491],[-0.158436,51.553404],[-0.158128,51.553156],[-0.157307,51.551714],[-0.156686,51.551011],[-0.154528,51.550536],[-0.153767,51.550075],[-0.153366,51.549655],[-0.150748,51.545936],[-0.149997,51.545592],[-0.149413,51.545061],[-0.149294,51.544789],[-0.14908,51.54296],[-0.147353,51.542501],[-0.146587,51.542193],[-0.145893,51.541773],[-0.144384,51.542805],[-0.144063,51.542899],[-0.141864,51.542729],[-0.139922,51.540495],[-0.140463,51.540277]]]}},{"type":"Feature","properties":{"routeId":"UL2","direction":"2","sourceDate":"20260214"},"geometry":{"type":"LineString","coordinates":[[-0.139103,51.542594],[-0.140039,51.543618],[-0.140805,51.544295],[-0.14116,51.544786],[-0.141555,51.545],[-0.141502,51.545251],[-0.141754,51.545785],[-0.141817,51.546302],[-0.141973,51.546449],[-0.142226,51.546546],[-0.144676,51.546632],[-0.146894,51.546352],[-0.148321,51.546024],[-0.150748,51.545936],[-0.153366,51.549655],[-0.153767,51.550075],[-0.154528,51.550536],[-0.156686,51.551011],[-0.157225,51.551596],[-0.158128,51.553156],[-0.159552,51.552902],[-0.161676,51.553527],[-0.164359,51.553901],[-0.165025,51.554182],[-0.167554,51.553718],[-0.169185,51.55321],[-0.167663,51.552433],[-0.166289,51.551449],[-0.172116,51.547863],[-0.172633,51.547187],[-0.172719,51.546137],[-0.172952,51.545709],[-0.173868,51.545174],[-0.174998,51.544688],[-0.174875,51.544507],[-0.174793,51.543687],[-0.174483,51.543133],[-0.173544,51.542094],[-0.173535,51.541968],[-0.173625,51.54187],[-0.173816,51.541801],[-0.17493,51.541693],[-0.175144,51.541768],[-0.175204,51.542066],[-0.175082,51.542936],[-0.1752,51.543594],[-0.175606,51.544275],[-0.17622,51.544779],[-0.178207,51.545574],[-0.179006,51.546162],[-0.17955,51.54591],[-0.179738,51.545895],[-0.180783,51.54646],[-0.18362,51.544741],[-0.184091,51.544515],[-0.185463,51.544086],[-0.185869,51.544039],[-0.192669,51.544224],[-0.192484,51.544527],[-0.191759,51.544984],[-0.191322,51.545855],[-0.19117,51.546378],[-0.191051,51.547923],[-0.192851,51.547995],[-0.194156,51.547826],[-0.195684,51.547371],[-0.199467,51.546631],[-0.202472,51.545769],[-0.200483,51.543922],[-0.196794,51.540907],[-0.192152,51.536879],[-0.193814,51.534593],[-0.1923,51.533149],[-0.192336,51.53297],[-0.192902,51.532142],[-0.199254,51.532501],[-0.201767,51.532566],[-0.202651,51.532814],[-0.20575,51.532934],[-0.208002,51.532769],[-0.209034,51.532551],[-0.211076,51.531944],[-0.213174,51.531769],[-0.214741,51.531506],[-0.21678,51.530997],[-0.218599,51.533515],[-0.218846,51.533474],[-0.219137,51.533757],[-0.218874,51.533861],[-0.215877,51.529742],[-0.216095,51.528972],[-0.216049,51.527928],[-0.217312,51.528442],[-0.21821,51.528699],[-0.221661,51.529309],[-0.223827,51.529962],[-0.225492,51.530158],[-0.227626,51.530154],[-0.228199,51.530235],[-0.229233,51.530709],[-0.231035,51.531219],[-0.234333,51.532665],[-0.23735,51.532207],[-0.239085,51.532458],[-0.239681,51.532692],[-0.240457,51.533144],[-0.244802,51.536006],[-0.245259,51.536111],[-0.245911,51.53604],[-0.248138,51.535489],[-0.24845,51.535251],[-0.248389,51.534962],[-0.247553,51.533835],[-0.2467,51.533139],[-0.246527,51.532767],[-0.24661,51.53249],[-0.24431,51.531934],[-0.244199,51.531806],[-0.244025,51.531831],[-0.244006,51.531974],[-0.244191,51.532013],[-0.24431,51.531934],[-0.24661,51.53249],[-0.247171,51.53177],[-0.248009,51.530964],[-0.248786,51.529888],[-0.250529,51.528403],[-0.250929,51.528139],[-0.252213,51.527735],[-0.255404,51.525724],[-0.256249,51.525116],[-0.257267,51.524124],[-0.258429,51.522369],[-0.258593,51.522228],[-0.25985,51.521401],[-0.261225,51.520882],[-0.261691,51.520377],[-0.262079,51.519654],[-0.262045,51.519483],[-0.262212,51.519188],[-0.261635,51.518065],[-0.261055,51.517391],[-0.260159,51.516694],[-0.258774,51.51599],[-0.256389,51.51501],[-0.254708,51.5145],[-0.251844,51.514017],[-0.249022,51.513956],[-0.248181,51.512964],[-0.249009,51.512796],[-0.249741,51.51287],[-0.251593,51.512682],[-0.252129,51.5126],[-0.252204,51.51252],[-0.252332,51.512585],[-0.253332,51.512438],[-0.254613,51.512106],[-0.256139,51.511961],[-0.256485,51.511766],[-0.256749,51.511266],[-0.257687,51.510471],[-0.25784,51.509861],[-0.257793,51.509573],[-0.25755,51.509156],[-0.256856,51.506556],[-0.260176,51.506416],[-0.266536,51.506654],[-0.266369,51.506121],[-0.267892,51.505865],[-0.267572,51.505168],[-0.266591,51.503687],[-0.26583,51.503244],[-0.265657,51.502864],[-0.265686,51.502478],[-0.258432,51.50264],[-0.258174,51.502601],[-0.257879,51.502425],[-0.257174,51.501246],[-0.256831,51.501169],[-0.255941,51.496938],[-0.255298,51.495679],[-0.255353,51.492712],[-0.260563,51.492457],[-0.26248,51.49244],[-0.266606,51.492672],[-0.269074,51.492915],[-0.270441,51.492944],[-0.274971,51.492393]]}}]}