{"type":"FeatureCollection","metadata":{"routeId":"UL24","sourceDate":"20260731","source":"https://bus.data.tfl.gov.uk/bus-geometry/"},"features":[{"type":"Feature","properties":{"routeId":"UL24","direction":"1","sourceDate":"20260731"},"geometry":{"type":"LineString","coordinates":[[0.008734,51.513872],[0.008904,51.513707],[0.009266,51.513746],[0.009201,51.513909],[0.007613,51.515483],[0.007577,51.515654],[0.007689,51.515904],[0.007909,51.516008],[0.008558,51.516064],[0.009263,51.516323],[0.013454,51.518179],[0.012648,51.518859],[0.012081,51.519732],[0.012334,51.520905],[0.012278,51.52355],[0.012484,51.523978],[0.012833,51.524368],[0.013279,51.524693],[0.014178,51.525118],[0.017993,51.525646],[0.017543,51.527543],[0.019269,51.531029],[0.018275,51.531256],[0.015493,51.532371],[0.014159,51.533185],[0.013381,51.53354],[0.011958,51.53396],[0.00739,51.535666],[0.006824,51.536224],[0.006362,51.536871],[0.007696,51.537378],[0.008569,51.53722],[0.013741,51.537113],[0.016687,51.536883],[0.01789,51.537015],[0.021846,51.536803],[0.02968,51.537558],[0.030874,51.537492],[0.034042,51.537707],[0.034386,51.537341],[0.034719,51.537363],[0.036439,51.537144],[0.03794,51.536839],[0.039141,51.53725],[0.040653,51.537529],[0.042015,51.538324],[0.043657,51.538601],[0.045377,51.539335],[0.046313,51.539616],[0.048945,51.540118],[0.050042,51.540126],[0.050753,51.540222],[0.051218,51.539027],[0.051523,51.537798],[0.051799,51.5372],[0.051751,51.537093],[0.051063,51.536862],[0.050812,51.536731],[0.050895,51.536658],[0.050765,51.536651],[0.051427,51.535336],[0.05137,51.534384],[0.052101,51.532689],[0.052903,51.532863],[0.05892,51.533631],[0.06115,51.533844],[0.062706,51.533798],[0.063948,51.533903],[0.064452,51.534017],[0.065019,51.534261],[0.067103,51.535376],[0.067719,51.53594],[0.068253,51.536296],[0.068403,51.536465],[0.068435,51.536733],[0.068895,51.537061],[0.069313,51.537045],[0.06981,51.536883],[0.070608,51.536995],[0.071591,51.537374],[0.072249,51.537893],[0.073208,51.537723],[0.073519,51.537582],[0.073981,51.537592],[0.075513,51.537673],[0.078881,51.538162],[0.079088,51.538293],[0.079039,51.538474],[0.078026,51.539337],[0.078835,51.539636],[0.080638,51.538751],[0.082614,51.540335],[0.082635,51.540496],[0.082436,51.540858],[0.082699,51.541063],[0.08288,51.54113],[0.083267,51.541072],[0.08376,51.541124],[0.084723,51.541673],[0.086151,51.542646],[0.089076,51.543826],[0.093624,51.545822],[0.094675,51.54485],[0.09496,51.544459],[0.095557,51.543324],[0.096459,51.542246],[0.098585,51.5405],[0.099695,51.540174],[0.100289,51.539912],[0.101628,51.538629],[0.102969,51.536419],[0.102596,51.535784],[0.102453,51.535718],[0.103393,51.535306],[0.105202,51.533889],[0.105666,51.533637],[0.107032,51.533235],[0.108226,51.533178],[0.109488,51.533344],[0.110326,51.533994],[0.111165,51.534995],[0.11174,51.535884],[0.112221,51.536937],[0.112444,51.537706],[0.1222,51.538492],[0.127608,51.53879],[0.130953,51.539098],[0.148123,51.540224],[0.150647,51.540213],[0.152963,51.54009],[0.154379,51.540154],[0.156111,51.539879],[0.157767,51.539831],[0.158434,51.539612],[0.158608,51.539312],[0.158651,51.538708],[0.158804,51.53858],[0.159248,51.538509],[0.163095,51.538456],[0.163829,51.538109],[0.164144,51.538059],[0.165193,51.538606],[0.165573,51.539003],[0.165371,51.53961],[0.165344,51.540573],[0.165456,51.542018],[0.165621,51.542753],[0.165823,51.543351],[0.166151,51.543885],[0.165978,51.544548]]}},{"type":"Feature","properties":{"routeId":"UL24","direction":"2","sourceDate":"20260731"},"geometry":{"type":"LineString","coordinates":[[0.166095,51.544484],[0.166237,51.543883],[0.165755,51.543146],[0.165456,51.542018],[0.165461,51.540301],[0.165371,51.53961],[0.165579,51.539138],[0.166279,51.538685],[0.166289,51.538594],[0.166209,51.538425],[0.166032,51.538356],[0.16471,51.538147],[0.164107,51.537898],[0.163379,51.538369],[0.163095,51.538456],[0.159248,51.538509],[0.158804,51.53858],[0.158651,51.538708],[0.158608,51.539312],[0.158434,51.539612],[0.157767,51.539831],[0.156111,51.539879],[0.154379,51.540154],[0.152963,51.54009],[0.150647,51.540213],[0.148123,51.540224],[0.130953,51.539098],[0.127608,51.53879],[0.1222,51.538492],[0.112444,51.537706],[0.112059,51.536544],[0.111429,51.535386],[0.110326,51.533994],[0.109622,51.533423],[0.109653,51.532837],[0.109519,51.53275],[0.108737,51.532692],[0.10854,51.532785],[0.108509,51.533065],[0.108226,51.533178],[0.107032,51.533235],[0.105666,51.533637],[0.105202,51.533889],[0.103393,51.535306],[0.102984,51.535511],[0.102421,51.535641],[0.102944,51.536501],[0.102005,51.538046],[0.101462,51.538767],[0.100289,51.539912],[0.099695,51.540174],[0.098585,51.5405],[0.096459,51.542246],[0.095557,51.543324],[0.09496,51.544459],[0.094675,51.54485],[0.093624,51.545822],[0.089076,51.543826],[0.086151,51.542646],[0.084723,51.541673],[0.082987,51.540651],[0.080638,51.538751],[0.07924,51.539414],[0.078839,51.539513],[0.078288,51.539404],[0.078192,51.539199],[0.079039,51.538474],[0.079088,51.538293],[0.078881,51.538162],[0.077735,51.538029],[0.075844,51.537667],[0.07343,51.53753],[0.072961,51.537691],[0.07225,51.537596],[0.07191,51.537404],[0.070459,51.536899],[0.069816,51.536769],[0.069211,51.536408],[0.068053,51.536145],[0.067719,51.53594],[0.067103,51.535376],[0.064501,51.53394],[0.062387,51.533777],[0.06115,51.533844],[0.05892,51.533631],[0.054367,51.533063],[0.052101,51.532689],[0.05137,51.534384],[0.051427,51.535336],[0.050751,51.53667],[0.051063,51.536862],[0.051751,51.537093],[0.051799,51.5372],[0.051523,51.537798],[0.051108,51.539388],[0.050753,51.540222],[0.050042,51.540126],[0.048728,51.540095],[0.046152,51.539574],[0.045201,51.539276],[0.043686,51.538609],[0.042015,51.538324],[0.040653,51.537529],[0.039141,51.53725],[0.03794,51.536839],[0.036439,51.537144],[0.034719,51.537363],[0.034386,51.537341],[0.034042,51.537707],[0.030874,51.537492],[0.02968,51.537558],[0.021846,51.536803],[0.01789,51.537015],[0.016687,51.536883],[0.014432,51.537083],[0.011841,51.537182],[0.009995,51.537186],[0.009314,51.537108],[0.008056,51.537363],[0.007508,51.537346],[0.006362,51.536871],[0.006988,51.536033],[0.007547,51.535628],[0.011958,51.53396],[0.013381,51.53354],[0.014159,51.533185],[0.015493,51.532371],[0.018354,51.531224],[0.019269,51.531029],[0.017543,51.527543],[0.017993,51.525646],[0.014178,51.525118],[0.013279,51.524693],[0.012833,51.524368],[0.012484,51.523978],[0.012278,51.52355],[0.012334,51.520905],[0.012081,51.519732],[0.012648,51.518859],[0.013454,51.518179],[0.008699,51.516037],[0.008522,51.515845],[0.008804,51.515578],[0.008805,51.515426],[0.008425,51.515236],[0.007596,51.515105],[0.007605,51.514988],[0.008904,51.513707],[0.009266,51.513746],[0.00902,51.514083]]}}]}