{"type":"FeatureCollection","metadata":{"routeId":"UL25","sourceDate":"20260822","source":"https://bus.data.tfl.gov.uk/bus-geometry/"},"features":[{"type":"Feature","properties":{"routeId":"UL25","direction":"1","sourceDate":"20260822"},"geometry":{"type":"LineString","coordinates":[[0.082214,51.540027],[0.082645,51.540388],[0.082436,51.540858],[0.082699,51.541063],[0.08288,51.54113],[0.083267,51.541072],[0.08376,51.541124],[0.084723,51.541673],[0.086151,51.542646],[0.089076,51.543826],[0.093624,51.545822],[0.09697,51.547093],[0.099801,51.548437],[0.102717,51.549419],[0.103912,51.549685],[0.104896,51.550072],[0.10546,51.550404],[0.107198,51.551811],[0.107488,51.552148],[0.107737,51.552233],[0.113157,51.551839],[0.119974,51.551095],[0.123456,51.551212],[0.126025,51.551553],[0.130827,51.551843],[0.133636,51.552359],[0.136199,51.552582],[0.138866,51.553477],[0.143343,51.554502],[0.144009,51.554858],[0.146924,51.557095],[0.147436,51.558096],[0.14785,51.559527],[0.147961,51.560641],[0.147866,51.560795],[0.147812,51.561174],[0.150058,51.561384],[0.151376,51.561171],[0.152472,51.560863],[0.153432,51.561026],[0.15369,51.560994],[0.153885,51.560846],[0.153878,51.560703],[0.15399,51.56062],[0.155278,51.560101],[0.159443,51.557264],[0.159706,51.556729],[0.159845,51.554478],[0.159998,51.554043],[0.160523,51.55326],[0.160624,51.552053],[0.161065,51.551002],[0.161348,51.550583],[0.162213,51.54965],[0.163172,51.548274],[0.165433,51.545769],[0.165469,51.545633],[0.165879,51.545149],[0.166237,51.543883],[0.165755,51.543146],[0.165456,51.542018],[0.165461,51.540301],[0.165371,51.53961],[0.165579,51.539138],[0.166209,51.53874],[0.169255,51.537596],[0.170663,51.537183],[0.172316,51.536756],[0.176165,51.536137],[0.177162,51.535866],[0.177795,51.535549],[0.178757,51.534856],[0.17938,51.53462],[0.179951,51.534789],[0.180602,51.534831],[0.180866,51.534925],[0.184476,51.537439],[0.184944,51.537889],[0.185623,51.538803],[0.187502,51.540413],[0.188231,51.54147],[0.189148,51.54255],[0.191228,51.543815],[0.191605,51.544159],[0.191701,51.544651],[0.191472,51.544997],[0.191166,51.545219],[0.187273,51.546461],[0.186965,51.546655],[0.186803,51.546883],[0.18685,51.547269],[0.188088,51.549017],[0.190459,51.551536],[0.193389,51.550663],[0.194732,51.550395],[0.196279,51.550483],[0.198739,51.550931],[0.198859,51.551028],[0.198944,51.550991],[0.198866,51.550884],[0.199895,51.54859],[0.200094,51.548532],[0.200089,51.548415],[0.199985,51.548363],[0.200556,51.547048],[0.200907,51.546547],[0.201449,51.546123],[0.201858,51.545918],[0.202924,51.545592],[0.202609,51.544456],[0.202549,51.542901],[0.20271,51.542062],[0.202636,51.541137],[0.202296,51.540361],[0.201073,51.538918],[0.201242,51.538834],[0.202129,51.538701],[0.202765,51.538724],[0.204161,51.538968],[0.204811,51.539289],[0.205407,51.539979],[0.206976,51.542602],[0.207696,51.543182],[0.208283,51.543378],[0.208981,51.543491],[0.210086,51.543398],[0.211416,51.543148],[0.212976,51.542615],[0.213646,51.542755],[0.216048,51.546469],[0.217409,51.548359],[0.218259,51.550411],[0.218629,51.552688],[0.220155,51.555879],[0.220399,51.556729],[0.220493,51.557176],[0.220371,51.557943],[0.22053,51.559127],[0.220561,51.560053],[0.220722,51.560698],[0.220864,51.560964],[0.220862,51.561198],[0.220679,51.561589],[0.2208,51.561712],[0.221712,51.561479],[0.222807,51.56144],[0.224226,51.561261],[0.227519,51.560434],[0.232931,51.559593],[0.238808,51.558519],[0.242256,51.557644],[0.245425,51.556657],[0.248131,51.556236],[0.249069,51.556245],[0.249356,51.55651],[0.250259,51.558723],[0.251769,51.558662]]}},{"type":"Feature","properties":{"routeId":"UL25","direction":"2","sourceDate":"20260822"},"geometry":{"type":"LineString","coordinates":[[0.249875,51.557816],[0.24918,51.556162],[0.247442,51.556304],[0.245425,51.556657],[0.242256,51.557644],[0.238808,51.558519],[0.232931,51.559593],[0.227519,51.560434],[0.224226,51.561261],[0.222807,51.56144],[0.221752,51.561415],[0.221044,51.561096],[0.220864,51.560964],[0.220722,51.560698],[0.220561,51.560053],[0.22053,51.559127],[0.220371,51.557943],[0.220493,51.557176],[0.220399,51.556729],[0.220155,51.555879],[0.218629,51.552688],[0.218259,51.550411],[0.217567,51.548644],[0.216048,51.546469],[0.213752,51.542852],[0.213396,51.542652],[0.212976,51.542615],[0.211416,51.543148],[0.209168,51.543487],[0.208283,51.543378],[0.207696,51.543182],[0.206976,51.542602],[0.205049,51.539428],[0.204247,51.538958],[0.203097,51.538736],[0.201655,51.538736],[0.201073,51.538918],[0.202296,51.540361],[0.202636,51.541137],[0.20271,51.542062],[0.202549,51.542901],[0.202609,51.544456],[0.202924,51.545592],[0.201858,51.545918],[0.201449,51.546123],[0.201086,51.546373],[0.200758,51.54673],[0.199985,51.548363],[0.199772,51.548421],[0.199895,51.54859],[0.198866,51.550884],[0.198739,51.550931],[0.196279,51.550483],[0.194545,51.550408],[0.193389,51.550663],[0.190459,51.551536],[0.188088,51.549017],[0.18685,51.547269],[0.186803,51.546883],[0.186965,51.546655],[0.187273,51.546461],[0.191166,51.545219],[0.191472,51.544997],[0.191701,51.544651],[0.191605,51.544159],[0.191228,51.543815],[0.189148,51.54255],[0.188231,51.54147],[0.187502,51.540413],[0.185623,51.538803],[0.184944,51.537889],[0.184476,51.537439],[0.181029,51.535021],[0.180602,51.534831],[0.180162,51.534372],[0.179517,51.534456],[0.178736,51.534722],[0.177453,51.535627],[0.176474,51.53596],[0.171384,51.536873],[0.169193,51.537489],[0.166756,51.538415],[0.165525,51.538303],[0.165256,51.538398],[0.165176,51.538543],[0.16521,51.538659],[0.165573,51.539003],[0.165371,51.53961],[0.165332,51.540312],[0.165456,51.542018],[0.165823,51.543351],[0.166151,51.543885],[0.165882,51.544906],[0.165674,51.545386],[0.165429,51.545706],[0.165234,51.545844],[0.165238,51.545925],[0.163172,51.548274],[0.162213,51.54965],[0.161348,51.550583],[0.160868,51.551319],[0.160589,51.552207],[0.160596,51.55298],[0.160498,51.553333],[0.160066,51.55397],[0.159899,51.554099],[0.159728,51.55452],[0.159589,51.556695],[0.159487,51.556975],[0.158979,51.557506],[0.155329,51.559957],[0.154766,51.560246],[0.153729,51.560598],[0.153267,51.560579],[0.153103,51.560771],[0.152129,51.560924],[0.15109,51.561239],[0.150058,51.561384],[0.14861,51.561258],[0.148009,51.561071],[0.147905,51.559565],[0.147371,51.557926],[0.146924,51.557095],[0.14649,51.556694],[0.144009,51.554858],[0.143343,51.554502],[0.138866,51.553477],[0.136199,51.552582],[0.133636,51.552359],[0.130827,51.551843],[0.126025,51.551553],[0.123456,51.551212],[0.119974,51.551095],[0.117292,51.551423],[0.115107,51.551597],[0.108077,51.552092],[0.107656,51.552046],[0.106973,51.551673],[0.10546,51.550404],[0.10472,51.549994],[0.103912,51.549685],[0.102117,51.549231],[0.099801,51.548437],[0.09697,51.547093],[0.093624,51.545822],[0.089076,51.543826],[0.086151,51.542646],[0.084723,51.541673],[0.083355,51.540906],[0.082048,51.539887]]}}]}