{"type":"FeatureCollection","metadata":{"routeId":"UL31","sourceDate":"20260822","source":"https://bus.data.tfl.gov.uk/bus-geometry/"},"features":[{"type":"Feature","properties":{"routeId":"UL31","direction":"1","sourceDate":"20260822"},"geometry":{"type":"MultiLineString","coordinates":[[[-0.192358,51.491756],[-0.191264,51.490896],[-0.190719,51.490096],[-0.190263,51.489621],[-0.190218,51.489279],[-0.187,51.486163],[-0.184303,51.484089],[-0.186166,51.482868],[-0.186852,51.482285],[-0.187604,51.481469],[-0.189087,51.480386],[-0.189946,51.480147],[-0.190423,51.48011],[-0.192605,51.480287],[-0.195526,51.479999],[-0.197423,51.48046],[-0.197827,51.480439],[-0.198311,51.480204],[-0.1999,51.478988],[-0.200424,51.478483],[-0.201267,51.477929],[-0.201825,51.477273],[-0.202822,51.476838],[-0.20372,51.476708],[-0.204012,51.476596],[-0.205908,51.475626],[-0.206563,51.474701],[-0.207892,51.473499],[-0.211003,51.47164],[-0.211143,51.471372],[-0.21108,51.471146],[-0.210186,51.469694],[-0.210276,51.469255],[-0.214288,51.465692],[-0.214475,51.465308],[-0.215296,51.464206],[-0.216157,51.462798],[-0.217122,51.460813],[-0.212143,51.459778],[-0.209367,51.458905],[-0.206711,51.457726],[-0.205716,51.457018],[-0.205249,51.456831],[-0.202261,51.456678],[-0.198651,51.456973],[-0.197867,51.457123],[-0.197775,51.457274],[-0.197956,51.457627],[-0.197822,51.457904],[-0.196191,51.458374],[-0.193016,51.458954],[-0.192099,51.458859],[-0.191974,51.458731],[-0.192239,51.457476],[-0.192733,51.456789],[-0.194026,51.457073],[-0.194316,51.457023],[-0.195201,51.45611],[-0.196358,51.455598],[-0.197161,51.454944],[-0.197313,51.454749],[-0.197397,51.454436],[-0.197181,51.453722],[-0.197228,51.453255],[-0.197403,51.452826],[-0.197925,51.451998],[-0.198241,51.451274],[-0.199723,51.449966],[-0.199871,51.449735],[-0.198441,51.446196],[-0.198058,51.444608],[-0.197626,51.443409],[-0.197392,51.442152],[-0.196751,51.440532],[-0.197284,51.439039],[-0.197343,51.437769],[-0.197091,51.436644],[-0.196662,51.435846],[-0.19636,51.435472],[-0.196236,51.435145],[-0.196165,51.435128],[-0.195694,51.434104],[-0.194818,51.432994],[-0.194509,51.432072],[-0.194218,51.431779],[-0.191274,51.429828],[-0.190844,51.429416],[-0.190742,51.429082],[-0.190898,51.428419],[-0.19083,51.427582],[-0.192405,51.427786],[-0.194173,51.427813],[-0.200224,51.427205],[-0.201847,51.425431],[-0.202788,51.424555],[-0.20375,51.423859],[-0.205279,51.42302],[-0.207042,51.421854]],[[-0.193841,51.480144],[-0.195669,51.480002],[-0.197423,51.48046],[-0.197973,51.480397],[-0.1999,51.478988],[-0.200424,51.478483],[-0.201267,51.477929],[-0.201825,51.477273],[-0.202822,51.476838],[-0.20372,51.476708],[-0.204012,51.476596],[-0.205908,51.475626],[-0.206563,51.474701],[-0.207892,51.473499],[-0.210788,51.471822],[-0.211003,51.47164],[-0.211143,51.471372],[-0.21108,51.471146],[-0.210186,51.469694],[-0.210276,51.469255],[-0.214288,51.465692],[-0.214475,51.465308],[-0.215296,51.464206],[-0.216157,51.462798],[-0.217122,51.460813],[-0.212143,51.459778],[-0.209367,51.458905],[-0.206711,51.457726],[-0.205716,51.457018],[-0.205249,51.456831],[-0.202261,51.456678],[-0.198651,51.456973],[-0.197867,51.457123],[-0.197775,51.457274],[-0.197956,51.457627],[-0.197822,51.457904],[-0.196191,51.458374],[-0.193016,51.458954],[-0.192099,51.458859],[-0.191974,51.458731],[-0.192239,51.457476],[-0.192733,51.456789],[-0.194026,51.457073],[-0.194316,51.457023],[-0.195201,51.45611],[-0.196358,51.455598],[-0.197161,51.454944],[-0.197313,51.454749],[-0.197397,51.454436],[-0.197181,51.453722],[-0.197228,51.453255],[-0.197403,51.452826],[-0.197925,51.451998],[-0.198241,51.451274],[-0.199723,51.449966],[-0.199871,51.449735],[-0.198441,51.446196],[-0.198058,51.444608],[-0.197626,51.443409],[-0.197392,51.442152],[-0.196751,51.440532],[-0.197284,51.439039],[-0.197343,51.437769],[-0.197091,51.436644],[-0.196662,51.435846],[-0.19636,51.435472],[-0.196236,51.435145],[-0.196165,51.435128],[-0.195694,51.434104],[-0.194818,51.432994],[-0.194509,51.432072],[-0.194218,51.431779],[-0.191274,51.429828],[-0.190844,51.429416],[-0.190742,51.429082],[-0.190898,51.428419],[-0.19083,51.427582],[-0.192405,51.427786],[-0.194173,51.427813],[-0.200224,51.427205],[-0.201847,51.425431],[-0.202788,51.424555],[-0.20375,51.423859],[-0.205279,51.42302],[-0.207042,51.421854]]]}},{"type":"Feature","properties":{"routeId":"UL31","direction":"2","sourceDate":"20260822"},"geometry":{"type":"LineString","coordinates":[[-0.20657,51.420355],[-0.206603,51.420441],[-0.206117,51.420721],[-0.205516,51.420649],[-0.205019,51.42048],[-0.204844,51.420531],[-0.20362,51.421358],[-0.203624,51.421439],[-0.203068,51.421822],[-0.202707,51.421957],[-0.201448,51.42279],[-0.200655,51.423201],[-0.199707,51.423537],[-0.195619,51.424328],[-0.189798,51.42494],[-0.18903,51.425081],[-0.189186,51.425146],[-0.189976,51.425905],[-0.190727,51.426914],[-0.190887,51.42796],[-0.190898,51.428419],[-0.190742,51.429082],[-0.190844,51.429416],[-0.191274,51.429828],[-0.194343,51.43188],[-0.194509,51.432072],[-0.194818,51.432994],[-0.195694,51.434104],[-0.197091,51.436644],[-0.197258,51.437159],[-0.197343,51.437769],[-0.197284,51.439039],[-0.196751,51.440532],[-0.197392,51.442152],[-0.197626,51.443409],[-0.198058,51.444608],[-0.198441,51.446196],[-0.199871,51.449735],[-0.199598,51.450081],[-0.198241,51.451274],[-0.197925,51.451998],[-0.197325,51.452978],[-0.197185,51.453605],[-0.197397,51.454436],[-0.197313,51.454749],[-0.19655,51.455475],[-0.195156,51.456146],[-0.194404,51.45697],[-0.194398,51.457132],[-0.195039,51.457304],[-0.195727,51.457368],[-0.197319,51.457141],[-0.197692,51.457183],[-0.198271,51.458208],[-0.198342,51.458964],[-0.198695,51.459491],[-0.199336,51.460023],[-0.20071,51.460592],[-0.201791,51.460933],[-0.20547,51.461825],[-0.206914,51.462072],[-0.208668,51.462586],[-0.209459,51.462903],[-0.210816,51.463166],[-0.213274,51.464373],[-0.214827,51.464792],[-0.214475,51.465308],[-0.214207,51.465924],[-0.213763,51.466214],[-0.210276,51.469255],[-0.210186,51.469694],[-0.21108,51.471146],[-0.211263,51.471626],[-0.210412,51.472026],[-0.207892,51.473499],[-0.206563,51.474701],[-0.205908,51.475626],[-0.204012,51.476596],[-0.20372,51.476708],[-0.202822,51.476838],[-0.201825,51.477273],[-0.201267,51.477929],[-0.200424,51.478483],[-0.1999,51.478988],[-0.197973,51.480397],[-0.197423,51.48046],[-0.195526,51.479999],[-0.192605,51.480287],[-0.190941,51.480109],[-0.189554,51.480231],[-0.188808,51.480534],[-0.187604,51.481469],[-0.186702,51.482426],[-0.185442,51.483324],[-0.186662,51.48453],[-0.189978,51.486631],[-0.190655,51.486984],[-0.192461,51.488675],[-0.192834,51.488539],[-0.193541,51.489042],[-0.197245,51.491018]]}}]}