{"type":"FeatureCollection","metadata":{"routeId":"UL36","sourceDate":"20260214","source":"https://bus.data.tfl.gov.uk/bus-geometry/"},"features":[{"type":"Feature","properties":{"routeId":"UL36","direction":"1","sourceDate":"20260214"},"geometry":{"type":"LineString","coordinates":[[-0.224723,51.51136],[-0.225027,51.512445],[-0.225847,51.514346],[-0.226269,51.514981],[-0.226567,51.515831],[-0.227214,51.516983],[-0.230099,51.51655],[-0.233292,51.516364],[-0.238082,51.515861],[-0.249119,51.515199],[-0.249345,51.514933],[-0.249022,51.513956],[-0.248181,51.512964],[-0.249009,51.512796],[-0.249144,51.513092],[-0.249136,51.513608],[-0.249416,51.513819],[-0.251245,51.513864],[-0.252781,51.514031],[-0.255126,51.514497],[-0.256636,51.51496],[-0.259965,51.516484],[-0.260851,51.517073],[-0.261463,51.517666],[-0.262349,51.519145],[-0.262792,51.51949],[-0.264633,51.519953],[-0.264416,51.520363],[-0.263459,51.52168],[-0.262118,51.522779],[-0.261233,51.522363],[-0.259378,51.521691],[-0.25985,51.521401],[-0.261225,51.520882],[-0.261691,51.520377],[-0.262079,51.519645],[-0.262227,51.519539],[-0.26309,51.519588],[-0.264633,51.519953],[-0.264416,51.520363],[-0.263459,51.52168],[-0.261642,51.523164],[-0.261117,51.523259],[-0.258762,51.522716],[-0.258508,51.522586],[-0.258459,51.522343],[-0.259378,51.521691],[-0.261233,51.522363],[-0.262118,51.522779],[-0.261835,51.523031],[-0.261569,51.523198],[-0.260948,51.523225],[-0.258762,51.522716],[-0.258508,51.522586],[-0.258459,51.522343],[-0.25985,51.521401],[-0.261225,51.520882],[-0.261691,51.520377],[-0.262079,51.519645],[-0.262227,51.519539],[-0.26309,51.519588],[-0.264633,51.519953],[-0.264416,51.520363],[-0.263459,51.52168],[-0.262118,51.522779],[-0.261233,51.522363],[-0.259378,51.521691],[-0.258459,51.522343],[-0.258508,51.522586],[-0.258762,51.522716],[-0.261117,51.523259],[-0.261569,51.523198],[-0.261835,51.523031],[-0.262118,51.522779],[-0.261233,51.522363],[-0.259378,51.521691],[-0.25985,51.521401],[-0.261225,51.520882],[-0.261691,51.520377],[-0.262079,51.519645],[-0.262227,51.519539],[-0.26309,51.519588],[-0.264633,51.519953],[-0.265075,51.519321],[-0.266048,51.519515],[-0.267545,51.519555],[-0.275412,51.518502],[-0.280545,51.5175],[-0.281943,51.516539],[-0.282288,51.516166],[-0.282464,51.515719],[-0.282336,51.513757],[-0.281032,51.508567],[-0.283402,51.508781],[-0.28569,51.509633],[-0.287389,51.510158],[-0.290209,51.510958],[-0.292489,51.511505],[-0.292571,51.511599],[-0.297698,51.513396],[-0.299711,51.514027]]}},{"type":"Feature","properties":{"routeId":"UL36","direction":"2","sourceDate":"20260214"},"geometry":{"type":"LineString","coordinates":[[-0.30244,51.513896],[-0.301781,51.51404],[-0.300137,51.514079],[-0.299635,51.514009],[-0.292571,51.511599],[-0.292376,51.511608],[-0.291515,51.511359],[-0.29139,51.511257],[-0.28777,51.510275],[-0.28569,51.509633],[-0.283402,51.508781],[-0.281032,51.508567],[-0.282336,51.513757],[-0.282515,51.51557],[-0.282148,51.516402],[-0.280545,51.5175],[-0.275941,51.518426],[-0.267545,51.519555],[-0.266048,51.519515],[-0.265203,51.519359],[-0.263459,51.52168],[-0.261642,51.523164],[-0.261117,51.523259],[-0.258762,51.522716],[-0.258508,51.522586],[-0.258459,51.522343],[-0.25985,51.521401],[-0.261048,51.520997],[-0.261691,51.520377],[-0.262079,51.519654],[-0.262045,51.519483],[-0.262212,51.519188],[-0.261635,51.518065],[-0.260748,51.517116],[-0.259835,51.5165],[-0.257043,51.515254],[-0.256063,51.514898],[-0.254708,51.5145],[-0.252375,51.514078],[-0.250939,51.513958],[-0.249022,51.513956],[-0.248181,51.512964],[-0.249009,51.512796],[-0.249118,51.512969],[-0.249175,51.513356],[-0.249022,51.513956],[-0.249422,51.515176],[-0.238082,51.515861],[-0.233292,51.516364],[-0.230099,51.51655],[-0.227214,51.516983],[-0.226567,51.515831],[-0.226277,51.515503],[-0.225812,51.514498],[-0.225847,51.514346],[-0.225691,51.513904],[-0.225027,51.512445],[-0.224766,51.511575]]}}]}