{"type":"FeatureCollection","metadata":{"routeId":"UL38","sourceDate":"20260313","source":"https://bus.data.tfl.gov.uk/bus-geometry/"},"features":[{"type":"Feature","properties":{"routeId":"UL38","direction":"1","sourceDate":"20260313"},"geometry":{"type":"LineString","coordinates":[[-0.142908,51.506733],[-0.146974,51.504601],[-0.148306,51.503759],[-0.149787,51.503108],[-0.149871,51.502498],[-0.151201,51.501997],[-0.151763,51.501988],[-0.152041,51.502235],[-0.152349,51.502824],[-0.152793,51.502903],[-0.155318,51.502449],[-0.158714,51.502187],[-0.16068,51.501688],[-0.161416,51.501285],[-0.162878,51.500049],[-0.165676,51.498538],[-0.167041,51.49792],[-0.168961,51.496745],[-0.170238,51.496322],[-0.172166,51.49586],[-0.17474,51.495612],[-0.17886,51.495361],[-0.179711,51.495222],[-0.188076,51.494641],[-0.188826,51.494608],[-0.192594,51.494765],[-0.194643,51.494698],[-0.195021,51.494596],[-0.195387,51.494448],[-0.194594,51.493366],[-0.193816,51.492661],[-0.192926,51.492198],[-0.191555,51.49117],[-0.190263,51.489621],[-0.190239,51.489486],[-0.192841,51.488537],[-0.193541,51.489042],[-0.200086,51.492551],[-0.200565,51.492469],[-0.201376,51.491978],[-0.202516,51.491581],[-0.204436,51.491348],[-0.208592,51.490541],[-0.21034,51.490424],[-0.214116,51.490724],[-0.216666,51.490718],[-0.219661,51.491123],[-0.221244,51.491165],[-0.222418,51.491345],[-0.224162,51.491326],[-0.224634,51.491414],[-0.224829,51.491588],[-0.224826,51.492784],[-0.224572,51.493005],[-0.224338,51.493092],[-0.223775,51.493119],[-0.223597,51.492892],[-0.223095,51.49283],[-0.222594,51.492391],[-0.222392,51.492388],[-0.222154,51.491485],[-0.222418,51.491345],[-0.224162,51.491326],[-0.224634,51.491414],[-0.224829,51.491588],[-0.224826,51.492784],[-0.225036,51.49294],[-0.229013,51.492524],[-0.232021,51.492596],[-0.23435,51.492816],[-0.233954,51.494406],[-0.234643,51.494452],[-0.234513,51.495583],[-0.234597,51.496052],[-0.234829,51.496353],[-0.236658,51.497882],[-0.237324,51.498539],[-0.238048,51.499917],[-0.239148,51.499789],[-0.240123,51.499543],[-0.240636,51.499326],[-0.243119,51.498765],[-0.243782,51.498743],[-0.245106,51.498467],[-0.246622,51.498004],[-0.249151,51.497053],[-0.255298,51.495679],[-0.255941,51.496938],[-0.256831,51.501169],[-0.257174,51.501246],[-0.25781,51.502334],[-0.258061,51.502554],[-0.258432,51.50264],[-0.265686,51.502478],[-0.265657,51.502864],[-0.265761,51.503144],[-0.265941,51.503336],[-0.266646,51.503742],[-0.267572,51.505168],[-0.26816,51.50639],[-0.268167,51.506588],[-0.268334,51.506734],[-0.269528,51.506806],[-0.271353,51.507301],[-0.272312,51.507477],[-0.273734,51.507974],[-0.274171,51.508223],[-0.274887,51.508351],[-0.276186,51.508316],[-0.276751,51.50783],[-0.277272,51.507019],[-0.278135,51.506285],[-0.278961,51.505408],[-0.280189,51.503402],[-0.279363,51.50276],[-0.278938,51.502305]]}},{"type":"Feature","properties":{"routeId":"UL38","direction":"2","sourceDate":"20260313"},"geometry":{"type":"LineString","coordinates":[[-0.279816,51.504006],[-0.278961,51.505408],[-0.278135,51.506285],[-0.277272,51.507019],[-0.276616,51.507981],[-0.276186,51.508316],[-0.274887,51.508351],[-0.274272,51.508621],[-0.274266,51.508387],[-0.274087,51.508168],[-0.273734,51.507974],[-0.272312,51.507477],[-0.271353,51.507301],[-0.269528,51.506806],[-0.268334,51.506734],[-0.268208,51.506652],[-0.26816,51.50639],[-0.267572,51.505168],[-0.266646,51.503742],[-0.265941,51.503336],[-0.265761,51.503144],[-0.265657,51.502864],[-0.265686,51.502478],[-0.258432,51.50264],[-0.258061,51.502554],[-0.25781,51.502334],[-0.257174,51.501246],[-0.256831,51.501169],[-0.255941,51.496938],[-0.255298,51.495679],[-0.249151,51.497053],[-0.246622,51.498004],[-0.245106,51.498467],[-0.243782,51.498743],[-0.243119,51.498765],[-0.240636,51.499326],[-0.240123,51.499543],[-0.239148,51.499789],[-0.238048,51.499917],[-0.237324,51.498539],[-0.23465,51.496143],[-0.234513,51.495583],[-0.234643,51.494452],[-0.227428,51.494406],[-0.226376,51.493671],[-0.224514,51.493023],[-0.223775,51.493119],[-0.223597,51.492892],[-0.222982,51.492774],[-0.222622,51.492409],[-0.222392,51.492388],[-0.222123,51.491538],[-0.221912,51.4914],[-0.219148,51.491349],[-0.216806,51.490819],[-0.214055,51.490813],[-0.210897,51.49054],[-0.209817,51.490524],[-0.208689,51.490641],[-0.204553,51.491424],[-0.202337,51.491722],[-0.201475,51.492042],[-0.200598,51.492739],[-0.200068,51.493018],[-0.195263,51.494689],[-0.192594,51.494765],[-0.188826,51.494608],[-0.18506,51.494825],[-0.17235,51.495838],[-0.170238,51.496322],[-0.168961,51.496745],[-0.167041,51.49792],[-0.164573,51.499114],[-0.162724,51.500299],[-0.161099,51.501658],[-0.160064,51.501957],[-0.158222,51.502251],[-0.157096,51.502297],[-0.153698,51.502954],[-0.152225,51.503047],[-0.151134,51.503282],[-0.149994,51.503327],[-0.147852,51.504273],[-0.142478,51.50695]]}}]}