{"type":"FeatureCollection","metadata":{"routeId":"UL41","sourceDate":"20260130","source":"https://bus.data.tfl.gov.uk/bus-geometry/"},"features":[{"type":"Feature","properties":{"routeId":"UL41","direction":"1","sourceDate":"20260130"},"geometry":{"type":"LineString","coordinates":[[-0.152453,51.443924],[-0.153259,51.442876],[-0.153375,51.442833],[-0.153921,51.442203],[-0.153889,51.442141],[-0.153986,51.442026],[-0.154105,51.44199],[-0.155129,51.440833],[-0.157056,51.43755],[-0.158885,51.436086],[-0.159431,51.435744],[-0.161173,51.434951],[-0.161764,51.434602],[-0.162788,51.433827],[-0.163312,51.433314],[-0.163662,51.432842],[-0.164118,51.431878],[-0.166247,51.429718],[-0.169327,51.426816],[-0.170641,51.425153],[-0.173569,51.422863],[-0.174406,51.422075],[-0.176258,51.42],[-0.177768,51.418579],[-0.178325,51.417937],[-0.179224,51.417159],[-0.180303,51.416663],[-0.18206,51.416241],[-0.186744,51.415963],[-0.189285,51.415733],[-0.191997,51.415636],[-0.192484,51.415418],[-0.192679,51.414984],[-0.192639,51.414184],[-0.192442,51.412984],[-0.192491,51.412095],[-0.19241,51.410871],[-0.192465,51.410575],[-0.192311,51.408297],[-0.191703,51.404394],[-0.191564,51.403888],[-0.191639,51.40344],[-0.19157,51.403367],[-0.193526,51.402633],[-0.193856,51.402433]]}},{"type":"Feature","properties":{"routeId":"UL41","direction":"2","sourceDate":"20260130"},"geometry":{"type":"LineString","coordinates":[[-0.195676,51.401678],[-0.195143,51.401723],[-0.194579,51.401904],[-0.193756,51.402618],[-0.191843,51.403371],[-0.191687,51.403684],[-0.191726,51.40417],[-0.191664,51.404268],[-0.191953,51.406071],[-0.192309,51.407596],[-0.192461,51.410692],[-0.192728,51.412296],[-0.192647,51.413258],[-0.192679,51.414984],[-0.192453,51.415638],[-0.189487,51.415721],[-0.18206,51.416241],[-0.180303,51.416663],[-0.179148,51.417248],[-0.176258,51.42],[-0.174406,51.422075],[-0.173569,51.422863],[-0.170641,51.425153],[-0.169327,51.426816],[-0.166247,51.429718],[-0.164118,51.431878],[-0.163662,51.432842],[-0.163312,51.433314],[-0.162788,51.433827],[-0.161764,51.434602],[-0.161173,51.434951],[-0.159431,51.435744],[-0.158885,51.436086],[-0.157056,51.43755],[-0.156751,51.437986],[-0.155426,51.440489],[-0.154105,51.44199],[-0.154039,51.442181],[-0.153921,51.442203],[-0.153375,51.442833],[-0.153337,51.442988]]}}]}