{"type":"FeatureCollection","metadata":{"routeId":"UL44","sourceDate":"20260509","source":"https://bus.data.tfl.gov.uk/bus-geometry/"},"features":[{"type":"Feature","properties":{"routeId":"UL44","direction":"1","sourceDate":"20260509"},"geometry":{"type":"LineString","coordinates":[[-0.423589,51.611138],[-0.423643,51.611417],[-0.425664,51.611867],[-0.426885,51.612054],[-0.431685,51.611903],[-0.433513,51.611411],[-0.434484,51.612381],[-0.436642,51.613488],[-0.438664,51.614747],[-0.439617,51.615182],[-0.442657,51.616248],[-0.44331,51.616589],[-0.443771,51.617036],[-0.443862,51.617666],[-0.443824,51.618871],[-0.443501,51.619865],[-0.443807,51.620152],[-0.443546,51.620261],[-0.44347,51.620383],[-0.443072,51.620588],[-0.442768,51.620601],[-0.438941,51.620155],[-0.438852,51.620657],[-0.43846,51.621542],[-0.438584,51.623414],[-0.438478,51.62397],[-0.438825,51.624793],[-0.438457,51.625427],[-0.438436,51.625624],[-0.438646,51.626643],[-0.439196,51.627633],[-0.438926,51.628167],[-0.4334,51.629631],[-0.433427,51.629685],[-0.433191,51.629826],[-0.432917,51.629804],[-0.432826,51.629643]]}},{"type":"Feature","properties":{"routeId":"UL44","direction":"2","sourceDate":"20260509"},"geometry":{"type":"LineString","coordinates":[[-0.432826,51.629643],[-0.433058,51.6295],[-0.433359,51.629549],[-0.434757,51.629244],[-0.438926,51.628167],[-0.439196,51.627633],[-0.438646,51.626643],[-0.438436,51.625624],[-0.438457,51.625427],[-0.438825,51.624793],[-0.438478,51.62397],[-0.438584,51.623414],[-0.43846,51.621542],[-0.438852,51.620657],[-0.438941,51.620155],[-0.442768,51.620601],[-0.443072,51.620588],[-0.44347,51.620383],[-0.443626,51.620019],[-0.443504,51.619793],[-0.443824,51.618871],[-0.443862,51.617666],[-0.443771,51.617036],[-0.44331,51.616589],[-0.442657,51.616248],[-0.439617,51.615182],[-0.438664,51.614747],[-0.436642,51.613488],[-0.434484,51.612381],[-0.43354,51.611554],[-0.432982,51.611578],[-0.431685,51.611903],[-0.426885,51.612054],[-0.425664,51.611867],[-0.423643,51.611417],[-0.423512,51.610953]]}}]}