{"type":"FeatureCollection","metadata":{"routeId":"UL51","sourceDate":"20260313","source":"https://bus.data.tfl.gov.uk/bus-geometry/"},"features":[{"type":"Feature","properties":{"routeId":"UL51","direction":"1","sourceDate":"20260313"},"geometry":{"type":"LineString","coordinates":[[0.090813,51.575515],[0.090861,51.575835],[0.090709,51.576003],[0.090578,51.57691],[0.090624,51.576964],[0.090768,51.576952],[0.091099,51.576015],[0.091022,51.575581],[0.090875,51.57552],[0.09082,51.575584],[0.090834,51.575251],[0.091759,51.575298],[0.092661,51.575453],[0.094179,51.575812],[0.096142,51.576443],[0.096849,51.576745],[0.104817,51.580726],[0.106573,51.581434],[0.109162,51.582099],[0.111386,51.582428],[0.11402,51.582588],[0.115838,51.582564],[0.117521,51.582443],[0.117404,51.582095],[0.116626,51.580895],[0.116356,51.580657],[0.115564,51.580393],[0.115384,51.580261],[0.114645,51.578638],[0.113863,51.577339],[0.113365,51.576241],[0.112826,51.574893],[0.112221,51.572746],[0.111893,51.571879],[0.111422,51.568893],[0.110658,51.567037],[0.110825,51.566908],[0.111113,51.566894],[0.116412,51.567886],[0.121614,51.56897],[0.125889,51.569675],[0.130416,51.570816],[0.130506,51.570266],[0.130131,51.569347],[0.129887,51.569378],[0.12959,51.569815],[0.128821,51.570342],[0.128811,51.570441],[0.130867,51.570907],[0.137323,51.571941],[0.141489,51.572161],[0.145805,51.572775],[0.160638,51.574544],[0.161883,51.574638],[0.163181,51.574605],[0.167153,51.574064],[0.169135,51.574181],[0.173378,51.574786],[0.175346,51.57519],[0.175715,51.575363],[0.176575,51.57585],[0.176849,51.576151],[0.176896,51.576528],[0.177076,51.576668],[0.177265,51.576701],[0.177466,51.57667],[0.177633,51.576532],[0.177674,51.57619],[0.178725,51.574021],[0.179516,51.572774],[0.180521,51.571739],[0.180745,51.571609],[0.181202,51.571511],[0.183585,51.571844],[0.18378,51.571993],[0.184112,51.572904],[0.183814,51.574205],[0.182134,51.573796],[0.181704,51.573858],[0.181597,51.574031],[0.182835,51.573963],[0.183814,51.574205],[0.183838,51.574106],[0.196516,51.577844],[0.205407,51.577839],[0.207719,51.578191],[0.20774,51.578344],[0.205605,51.58074],[0.205093,51.581199],[0.205491,51.581371],[0.207103,51.581575],[0.207772,51.581374],[0.20855,51.58135],[0.208526,51.58144],[0.208673,51.581501],[0.208829,51.581453],[0.211509,51.581942],[0.216594,51.582916],[0.218579,51.583373],[0.220456,51.58367],[0.220568,51.584774],[0.221029,51.585656],[0.221474,51.586187],[0.226849,51.587758],[0.229958,51.588454],[0.233528,51.589412],[0.232955,51.590996],[0.232721,51.592098],[0.232579,51.593863],[0.232623,51.594815],[0.232374,51.595935],[0.232397,51.597571],[0.231858,51.598364],[0.239477,51.600899],[0.246323,51.602962],[0.257465,51.606624],[0.260046,51.607699],[0.261084,51.608236],[0.261343,51.608519],[0.261303,51.608862],[0.261385,51.609067],[0.261757,51.609284],[0.262207,51.60933],[0.262823,51.609228],[0.263349,51.609065],[0.263975,51.608576],[0.264489,51.608459],[0.26494,51.608522],[0.266456,51.609383],[0.267132,51.609621],[0.27015,51.610471],[0.271116,51.61079],[0.271654,51.611099],[0.273891,51.611631],[0.279901,51.613673],[0.28846,51.616402],[0.290834,51.617084],[0.292127,51.617527],[0.293413,51.618095],[0.295132,51.618655],[0.297793,51.619286],[0.299451,51.616664],[0.299668,51.616084],[0.299907,51.615953],[0.299672,51.615589],[0.299451,51.614658],[0.299537,51.614639],[0.299603,51.613945],[0.300912,51.613838],[0.302226,51.614685],[0.29967,51.615562],[0.299751,51.615745],[0.299721,51.615993],[0.300019,51.616041],[0.300919,51.616824],[0.302126,51.617564],[0.305018,51.618749],[0.306274,51.61903],[0.307267,51.619461],[0.305644,51.621138],[0.305626,51.621354],[0.309092,51.622734],[0.313922,51.625103],[0.315914,51.626763],[0.31659,51.627838],[0.319651,51.630053],[0.321067,51.630627],[0.322258,51.629335],[0.322737,51.629092],[0.325279,51.629635],[0.328681,51.630585]]}},{"type":"Feature","properties":{"routeId":"UL51","direction":"2","sourceDate":"20260313"},"geometry":{"type":"LineString","coordinates":[[0.328487,51.630515],[0.325279,51.629635],[0.322633,51.629031],[0.322449,51.629107],[0.321122,51.630572],[0.319651,51.630053],[0.31659,51.627838],[0.315914,51.626763],[0.313922,51.625103],[0.309092,51.622734],[0.305744,51.621388],[0.305648,51.621218],[0.307267,51.619461],[0.306274,51.61903],[0.305018,51.618749],[0.304159,51.618343],[0.302466,51.617711],[0.301963,51.617478],[0.300634,51.616614],[0.299816,51.615874],[0.299672,51.615589],[0.299451,51.614658],[0.299537,51.614639],[0.299631,51.613917],[0.300912,51.613838],[0.302226,51.614685],[0.29967,51.615562],[0.299751,51.615745],[0.299451,51.616664],[0.297793,51.619286],[0.295132,51.618655],[0.293413,51.618095],[0.292127,51.617527],[0.290834,51.617084],[0.28846,51.616402],[0.279901,51.613673],[0.273891,51.611631],[0.272386,51.611248],[0.271192,51.610773],[0.266662,51.60946],[0.265922,51.609105],[0.265058,51.608564],[0.264048,51.608305],[0.263883,51.607886],[0.263465,51.607624],[0.263029,51.60756],[0.261979,51.607644],[0.261515,51.607608],[0.260311,51.607208],[0.258046,51.606676],[0.231967,51.598218],[0.232397,51.597571],[0.232374,51.595935],[0.232623,51.594815],[0.232577,51.59389],[0.232633,51.593259],[0.232933,51.593232],[0.232829,51.593016],[0.232654,51.592905],[0.232721,51.592098],[0.232955,51.590996],[0.233528,51.589412],[0.229958,51.588454],[0.226849,51.587758],[0.221474,51.586187],[0.221029,51.585656],[0.220568,51.584774],[0.220456,51.58367],[0.218579,51.583373],[0.216594,51.582916],[0.208829,51.581453],[0.208811,51.581372],[0.20865,51.581321],[0.207772,51.581374],[0.207103,51.581575],[0.205491,51.581371],[0.205093,51.581199],[0.205605,51.58074],[0.20774,51.578344],[0.207988,51.578384],[0.208072,51.578328],[0.208153,51.578228],[0.208071,51.578023],[0.207855,51.578036],[0.207719,51.578191],[0.205407,51.577839],[0.196516,51.577844],[0.183838,51.574106],[0.183814,51.574205],[0.18199,51.573789],[0.181704,51.573858],[0.181597,51.574031],[0.182835,51.573963],[0.183814,51.574205],[0.184112,51.572904],[0.183881,51.572288],[0.184147,51.571825],[0.183724,51.571725],[0.181634,51.571485],[0.181325,51.571356],[0.181231,51.571196],[0.18085,51.571086],[0.180593,51.571136],[0.18044,51.571255],[0.180388,51.571679],[0.179411,51.572677],[0.17865,51.573968],[0.177541,51.57612],[0.177402,51.576231],[0.177095,51.576164],[0.175715,51.575363],[0.175054,51.575114],[0.173378,51.574786],[0.169135,51.574181],[0.167153,51.574064],[0.166018,51.574175],[0.163885,51.574547],[0.161883,51.574638],[0.158519,51.574313],[0.145805,51.572775],[0.141718,51.572154],[0.137323,51.571941],[0.135014,51.571623],[0.130416,51.570816],[0.130506,51.570266],[0.130131,51.569347],[0.129887,51.569378],[0.12959,51.569815],[0.129119,51.570155],[0.128904,51.570268],[0.128374,51.570326],[0.125889,51.569675],[0.121614,51.56897],[0.116412,51.567886],[0.115257,51.567565],[0.114126,51.567442],[0.110574,51.566786],[0.111422,51.568893],[0.111893,51.571879],[0.112221,51.572746],[0.112826,51.574893],[0.113365,51.576241],[0.113863,51.577339],[0.114645,51.578638],[0.115384,51.580261],[0.115564,51.580393],[0.116356,51.580657],[0.116626,51.580895],[0.117436,51.582166],[0.116825,51.582375],[0.11514,51.582459],[0.113032,51.582434],[0.111786,51.582349],[0.108821,51.581908],[0.107522,51.581589],[0.105645,51.580958],[0.0973,51.576826],[0.095725,51.576162],[0.093297,51.575468],[0.090852,51.575017],[0.090704,51.575254],[0.090508,51.575392],[0.090504,51.575604]]}}]}