{"type":"FeatureCollection","metadata":{"routeId":"UL54","sourceDate":"20260509","source":"https://bus.data.tfl.gov.uk/bus-geometry/"},"features":[{"type":"Feature","properties":{"routeId":"UL54","direction":"1","sourceDate":"20260509"},"geometry":{"type":"LineString","coordinates":[[-0.474117,51.640515],[-0.475851,51.639937],[-0.476235,51.639672],[-0.476446,51.639414],[-0.476558,51.639092],[-0.476541,51.63875],[-0.47622,51.638404],[-0.475965,51.638257],[-0.475897,51.638121],[-0.475961,51.637942],[-0.476082,51.637791],[-0.476285,51.637748],[-0.476644,51.637794],[-0.476898,51.637948],[-0.476955,51.638054],[-0.476796,51.638465],[-0.476799,51.639239],[-0.476629,51.639569],[-0.476375,51.639809],[-0.474531,51.640513],[-0.473207,51.640757],[-0.473072,51.640908],[-0.47299,51.641317],[-0.473132,51.641708],[-0.474838,51.643853],[-0.475318,51.645469],[-0.476126,51.64681],[-0.476463,51.648406],[-0.47702,51.649034],[-0.478162,51.649885],[-0.478973,51.650282],[-0.481066,51.650813],[-0.482921,51.65152],[-0.484347,51.652114],[-0.486091,51.653116],[-0.487893,51.653724],[-0.490175,51.654212],[-0.49251,51.654863],[-0.495141,51.655292],[-0.496129,51.655565],[-0.498055,51.656363],[-0.499741,51.656951],[-0.500723,51.657431],[-0.501531,51.657946],[-0.503301,51.658615],[-0.509094,51.660065],[-0.510304,51.660467],[-0.510608,51.660183],[-0.511185,51.659354],[-0.511926,51.658779],[-0.513702,51.657084],[-0.513982,51.656926],[-0.516344,51.656308],[-0.516933,51.655992],[-0.517003,51.655615],[-0.516959,51.65521],[-0.51659,51.654108],[-0.516452,51.653899],[-0.515704,51.653342],[-0.515766,51.653216],[-0.515956,51.653156],[-0.516113,51.653212],[-0.517791,51.654051],[-0.518215,51.654353],[-0.518928,51.654659],[-0.520261,51.655649],[-0.519979,51.655998],[-0.520194,51.656168],[-0.522126,51.658566],[-0.52265,51.661117],[-0.522691,51.66163],[-0.522293,51.664098],[-0.521728,51.665898],[-0.521182,51.667141],[-0.521112,51.66795],[-0.521853,51.668274],[-0.523665,51.669493],[-0.524538,51.669773],[-0.527588,51.670243],[-0.531481,51.671056],[-0.533023,51.67121],[-0.534442,51.671174],[-0.543574,51.670514],[-0.54791,51.670586],[-0.549723,51.670402],[-0.554625,51.669509],[-0.555168,51.669273],[-0.55587,51.668571],[-0.556516,51.668255],[-0.558691,51.668057],[-0.559963,51.667641],[-0.561917,51.667557],[-0.564915,51.666956],[-0.565363,51.666988],[-0.566165,51.667204],[-0.568254,51.667931],[-0.570784,51.668403],[-0.574599,51.669393],[-0.590002,51.672591],[-0.591777,51.672703],[-0.591863,51.67274],[-0.59184,51.672997],[-0.592322,51.67333],[-0.596842,51.674948],[-0.600957,51.677056],[-0.60187,51.677454],[-0.604878,51.674648],[-0.605701,51.674391],[-0.60768,51.674322],[-0.60775,51.674363],[-0.607674,51.674502],[-0.607655,51.674914],[-0.607592,51.676695],[-0.607645,51.676857],[-0.607527,51.676937],[-0.608553,51.679799],[-0.608515,51.680087],[-0.608738,51.680341],[-0.609074,51.681172],[-0.6128,51.684211],[-0.614486,51.685381],[-0.614667,51.685608],[-0.614704,51.685824],[-0.614588,51.686785],[-0.614236,51.688346],[-0.613771,51.689842],[-0.612944,51.691819],[-0.6122,51.69297],[-0.611868,51.693884],[-0.611584,51.697981],[-0.611308,51.699416],[-0.610949,51.699789],[-0.611032,51.699934],[-0.610997,51.700599],[-0.611124,51.701653],[-0.611399,51.702106],[-0.612853,51.703318],[-0.613239,51.703467],[-0.614233,51.703623],[-0.614389,51.704209],[-0.614376,51.704613],[-0.613941,51.705597],[-0.613873,51.705938],[-0.61392,51.70628],[-0.614284,51.706689],[-0.613657,51.707303],[-0.613288,51.707532],[-0.611361,51.708094],[-0.610969,51.708134],[-0.610928,51.708044],[-0.611031,51.707991],[-0.610936,51.707801],[-0.609729,51.707499],[-0.609941,51.707187],[-0.610608,51.7067],[-0.611099,51.705595]]}},{"type":"Feature","properties":{"routeId":"UL54","direction":"2","sourceDate":"20260509"},"geometry":{"type":"LineString","coordinates":[[-0.611099,51.705595],[-0.611799,51.705581],[-0.611906,51.704935],[-0.612044,51.704694],[-0.612475,51.704312],[-0.612585,51.704044],[-0.612601,51.703514],[-0.612853,51.703318],[-0.611399,51.702106],[-0.611124,51.701653],[-0.611052,51.701157],[-0.610988,51.700419],[-0.611032,51.699934],[-0.610951,51.699744],[-0.611308,51.699416],[-0.611584,51.697981],[-0.611868,51.693884],[-0.612076,51.693221],[-0.612944,51.691819],[-0.613771,51.689842],[-0.614236,51.688346],[-0.614588,51.686785],[-0.614704,51.685824],[-0.614667,51.685608],[-0.614486,51.685381],[-0.6128,51.684211],[-0.609074,51.681172],[-0.608738,51.680341],[-0.608515,51.680087],[-0.608553,51.679799],[-0.607527,51.676937],[-0.607645,51.676857],[-0.607592,51.676695],[-0.607691,51.674412],[-0.605701,51.674391],[-0.605025,51.674569],[-0.604581,51.674888],[-0.60187,51.677454],[-0.600957,51.677056],[-0.596842,51.674948],[-0.592322,51.67333],[-0.59184,51.672997],[-0.591863,51.67274],[-0.591777,51.672703],[-0.590002,51.672591],[-0.574599,51.669393],[-0.570784,51.668403],[-0.568254,51.667931],[-0.566165,51.667204],[-0.565363,51.666988],[-0.564915,51.666956],[-0.561917,51.667557],[-0.559963,51.667641],[-0.558691,51.668057],[-0.556549,51.668248],[-0.555929,51.668527],[-0.555168,51.669273],[-0.554625,51.669509],[-0.549723,51.670402],[-0.54791,51.670586],[-0.543574,51.670514],[-0.534442,51.671174],[-0.533023,51.67121],[-0.531481,51.671056],[-0.527588,51.670243],[-0.524538,51.669773],[-0.523665,51.669493],[-0.521853,51.668274],[-0.521112,51.66795],[-0.521182,51.667141],[-0.521728,51.665898],[-0.522293,51.664098],[-0.522672,51.661774],[-0.52265,51.661117],[-0.522126,51.658566],[-0.520194,51.656168],[-0.519979,51.655998],[-0.520261,51.655649],[-0.518928,51.654659],[-0.518215,51.654353],[-0.517791,51.654051],[-0.516113,51.653212],[-0.515956,51.653156],[-0.515766,51.653216],[-0.515704,51.653342],[-0.516452,51.653899],[-0.51659,51.654108],[-0.516959,51.65521],[-0.517003,51.655615],[-0.516933,51.655992],[-0.516344,51.656308],[-0.513982,51.656926],[-0.513702,51.657084],[-0.511926,51.658779],[-0.511185,51.659354],[-0.510608,51.660183],[-0.510304,51.660467],[-0.509094,51.660065],[-0.503301,51.658615],[-0.501531,51.657946],[-0.500723,51.657431],[-0.499741,51.656951],[-0.495811,51.655579],[-0.492954,51.654985],[-0.490175,51.654212],[-0.487893,51.653724],[-0.486391,51.653237],[-0.485707,51.652932],[-0.484347,51.652114],[-0.482921,51.65152],[-0.481066,51.650813],[-0.478973,51.650282],[-0.478162,51.649885],[-0.47702,51.649034],[-0.476463,51.648406],[-0.476126,51.64681],[-0.475318,51.645469],[-0.474851,51.643889],[-0.474659,51.643572],[-0.473819,51.642779],[-0.472874,51.641643],[-0.472191,51.641337],[-0.472122,51.641228],[-0.472159,51.641004],[-0.472321,51.640907],[-0.472625,51.640875],[-0.473503,51.640572],[-0.474117,51.640515]]}}]}