{"type":"FeatureCollection","metadata":{"routeId":"UL67","sourceDate":"20260731","source":"https://bus.data.tfl.gov.uk/bus-geometry/"},"features":[{"type":"Feature","properties":{"routeId":"UL67","direction":"1","sourceDate":"20260731"},"geometry":{"type":"LineString","coordinates":[[-0.192087,51.602515],[-0.133458,51.61617],[-0.191775,51.60276],[-0.191598,51.602865],[-0.133103,51.616157],[-0.133047,51.616121],[-0.190574,51.603542],[-0.133023,51.615994],[-0.190041,51.603875],[-0.130978,51.615854],[-0.130189,51.615759],[-0.188959,51.604578],[-0.129011,51.615562],[-0.128669,51.615448],[-0.188287,51.605134],[-0.187826,51.60546],[-0.127918,51.615104],[-0.127691,51.614983],[-0.186728,51.606216],[-0.185853,51.606787],[-0.127014,51.615287],[-0.183454,51.60827],[-0.126026,51.615784],[-0.18295,51.608604],[-0.125612,51.616011],[-0.125093,51.616344],[-0.181642,51.609528],[-0.124796,51.616546],[-0.180243,51.610549],[-0.124422,51.616832],[-0.179828,51.610839],[-0.12438,51.616867],[-0.178934,51.6115],[-0.178281,51.611957],[-0.124089,51.6171],[-0.177877,51.612302],[-0.124102,51.617119],[-0.177598,51.612414],[-0.123973,51.617233],[-0.177335,51.612491],[-0.123918,51.617318],[-0.123859,51.617358],[-0.176829,51.612492],[-0.123803,51.617363],[-0.176123,51.612463],[-0.123058,51.618065],[-0.122981,51.618172],[-0.175908,51.612415],[-0.122917,51.618315],[-0.175474,51.612417],[-0.122644,51.619336],[-0.174582,51.61234],[-0.122498,51.61972],[-0.173851,51.612212],[-0.172551,51.611859],[-0.121874,51.620834],[-0.121721,51.621056],[-0.171821,51.611695],[-0.121672,51.621182],[-0.17112,51.611513],[-0.121667,51.621308],[-0.169879,51.611134],[-0.121762,51.621813],[-0.169406,51.611037],[-0.169061,51.610996],[-0.122036,51.622527],[-0.168642,51.610998],[-0.122237,51.622899],[-0.168395,51.611039],[-0.122566,51.623318],[-0.167912,51.611193],[-0.122676,51.623455],[-0.167489,51.611313],[-0.163462,51.611591],[-0.123956,51.624662],[-0.124026,51.624708],[-0.162679,51.611669],[-0.162155,51.611778],[-0.124099,51.624691],[-0.161719,51.611825],[-0.124213,51.624738],[-0.161631,51.611869],[-0.12417,51.624816],[-0.16156,51.611849],[-0.124411,51.625048],[-0.161036,51.611949],[-0.124676,51.625411],[-0.160627,51.612051],[-0.124804,51.625731],[-0.160335,51.612136],[-0.124893,51.626116],[-0.159011,51.612731],[-0.125206,51.626571],[-0.158662,51.612875],[-0.125482,51.626881],[-0.158473,51.61297],[-0.157125,51.613291],[-0.126536,51.627865],[-0.126635,51.627919],[-0.156378,51.613433],[-0.155939,51.613453],[-0.127298,51.628403],[-0.127561,51.628668],[-0.155689,51.613439],[-0.127628,51.628794],[-0.154481,51.613321],[-0.127693,51.628984],[-0.127902,51.629878],[-0.153947,51.613304],[-0.127928,51.630171],[-0.153614,51.613316],[-0.15328,51.613356],[-0.127844,51.630569],[-0.153164,51.613381],[-0.152959,51.613432],[-0.127801,51.63127],[-0.152813,51.613484],[-0.152371,51.613701],[-0.127746,51.631539],[-0.127558,51.631896],[-0.127683,51.632032],[-0.150831,51.61428],[-0.127826,51.632053],[-0.15067,51.614331],[-0.128151,51.632247],[-0.12817,51.632457],[-0.149708,51.61455],[-0.146407,51.615091],[-0.14315,51.615957],[-0.141848,51.616368],[-0.141743,51.616474],[-0.141649,51.617003],[-0.141341,51.617106],[-0.141055,51.61703],[-0.140356,51.616479],[-0.139439,51.616294],[-0.138934,51.616268],[-0.13666,51.61643],[-0.134609,51.616073],[-0.133458,51.61617],[-0.12817,51.632457],[-0.133103,51.616157],[-0.12814,51.632516],[-0.133047,51.616121],[-0.127948,51.632621],[-0.133023,51.615994],[-0.127484,51.63265],[-0.130978,51.615854],[-0.127074,51.632778],[-0.127381,51.633035],[-0.130189,51.615759],[-0.127393,51.633098],[-0.129011,51.615562],[-0.128669,51.615448],[-0.127413,51.634366],[-0.127918,51.615104],[-0.127691,51.614983],[-0.127397,51.636173],[-0.127014,51.615287],[-0.127429,51.636444],[-0.126026,51.615784],[-0.127975,51.638099],[-0.125612,51.616011],[-0.128059,51.638202],[-0.125093,51.616344],[-0.124796,51.616546],[-0.128264,51.638753],[-0.124422,51.616832],[-0.128335,51.63883],[-0.12438,51.616867],[-0.128311,51.638877],[-0.124139,51.617058],[-0.124089,51.6171],[-0.128469,51.639266],[-0.124102,51.617119],[-0.12408,51.617183],[-0.128576,51.639474],[-0.123973,51.617233],[-0.123859,51.617358],[-0.12909,51.64027],[-0.123803,51.617363],[-0.129281,51.640601],[-0.123058,51.618065],[-0.122981,51.618172],[-0.122644,51.619336],[-0.129743,51.641328],[-0.122498,51.61972],[-0.129971,51.641754],[-0.130397,51.642624],[-0.121874,51.620834],[-0.130483,51.642661],[-0.121721,51.621056],[-0.130466,51.642715],[-0.121672,51.621182],[-0.13053,51.642914],[-0.121667,51.621308],[-0.121762,51.621813],[-0.122237,51.622899],[-0.122676,51.623455],[-0.132323,51.646616],[-0.123956,51.624662],[-0.124213,51.624738],[-0.12417,51.624816],[-0.124676,51.625411],[-0.124893,51.626116],[-0.125206,51.626571],[-0.126536,51.627865],[-0.127409,51.628494],[-0.127628,51.628794],[-0.127928,51.630171],[-0.127746,51.631539],[-0.127558,51.631896],[-0.127683,51.632032],[-0.128151,51.632247],[-0.132323,51.646616],[-0.12814,51.632516],[-0.132541,51.647073],[-0.127948,51.632621],[-0.127484,51.63265],[-0.132877,51.647708],[-0.127074,51.632778],[-0.127381,51.633035],[-0.127413,51.634366],[-0.13779,51.646036],[-0.127397,51.636173],[-0.127429,51.636444],[-0.140178,51.645558],[-0.140629,51.645484],[-0.127999,51.638044],[-0.128059,51.638202],[-0.142545,51.645281],[-0.128264,51.638753],[-0.143559,51.645234],[-0.128313,51.638766],[-0.128335,51.63883],[-0.144223,51.645244],[-0.128311,51.638877],[-0.145175,51.645304],[-0.145696,51.645276],[-0.128469,51.639266],[-0.128576,51.639474],[-0.145974,51.645182],[-0.146035,51.64512],[-0.12909,51.64027],[-0.146242,51.644997],[-0.129281,51.640601],[-0.146575,51.644984],[-0.129743,51.641328],[-0.146759,51.645077],[-0.146871,51.645169],[-0.129971,51.641754],[-0.146898,51.645223],[-0.130249,51.642369],[-0.130343,51.642542],[-0.146879,51.645322],[-0.130397,51.642624],[-0.146849,51.645366],[-0.130483,51.642661],[-0.130466,51.642715],[-0.146699,51.645481],[-0.13053,51.642914],[-0.146601,51.645767],[-0.147573,51.648174],[-0.147816,51.648574],[-0.132323,51.646616],[-0.148635,51.649765],[-0.149823,51.651416],[-0.150018,51.651458],[-0.132323,51.646616],[-0.132877,51.647708],[-0.13779,51.646036],[-0.140178,51.645558],[-0.142545,51.645281],[-0.145696,51.645276],[-0.146242,51.644997],[-0.146575,51.644984],[-0.146898,51.645223],[-0.146699,51.645481],[-0.146601,51.645767],[-0.147573,51.648174],[-0.149743,51.651311],[-0.149823,51.651416],[-0.150018,51.651458]]}},{"type":"Feature","properties":{"routeId":"UL67","direction":"2","sourceDate":"20260731"},"geometry":{"type":"LineString","coordinates":[[-0.149875,51.651485],[-0.147573,51.648174],[-0.146601,51.645758],[-0.146009,51.645389],[-0.143559,51.645234],[-0.140178,51.645558],[-0.13779,51.646036],[-0.132877,51.647708],[-0.13053,51.642914],[-0.130265,51.642684],[-0.130249,51.642369],[-0.129971,51.641754],[-0.128254,51.638846],[-0.127429,51.636444],[-0.127393,51.633098],[-0.127074,51.632778],[-0.127215,51.632511],[-0.127009,51.632256],[-0.127058,51.63213],[-0.127291,51.63208],[-0.127461,51.632155],[-0.127564,51.632462],[-0.127762,51.632564],[-0.127948,51.632621],[-0.128171,51.632463],[-0.128151,51.632247],[-0.127683,51.632033],[-0.127558,51.631896],[-0.127746,51.631539],[-0.127928,51.630171],[-0.127628,51.628794],[-0.127409,51.628494],[-0.126536,51.627865],[-0.125206,51.626571],[-0.124893,51.626116],[-0.124676,51.625411],[-0.124499,51.625156],[-0.124166,51.624818],[-0.124007,51.624816],[-0.124026,51.624708],[-0.122676,51.623455],[-0.122142,51.622745],[-0.121762,51.621813],[-0.121672,51.621182],[-0.122498,51.61972],[-0.122917,51.618315],[-0.123058,51.618065],[-0.124083,51.617174],[-0.12436,51.616834],[-0.125093,51.616344],[-0.126026,51.615784],[-0.127691,51.614983],[-0.129011,51.615562],[-0.130978,51.615854],[-0.134983,51.616106],[-0.13666,51.61643],[-0.139122,51.616271],[-0.139898,51.616355],[-0.140626,51.616564],[-0.141089,51.616563],[-0.146407,51.615091],[-0.15067,51.614331],[-0.15328,51.613356],[-0.15412,51.613306],[-0.156378,51.613433],[-0.158473,51.61297],[-0.160012,51.612257],[-0.161036,51.611949],[-0.163462,51.611591],[-0.167271,51.611345],[-0.168642,51.610998],[-0.169879,51.611134],[-0.173493,51.612126],[-0.174582,51.61234],[-0.177335,51.612491],[-0.177877,51.612302],[-0.18295,51.608604],[-0.186728,51.606216],[-0.188049,51.605319],[-0.188959,51.604578],[-0.191775,51.60276],[-0.193382,51.601562],[-0.195923,51.599493]]}}]}