{"type":"FeatureCollection","metadata":{"routeId":"UL71","sourceDate":"20260731","source":"https://bus.data.tfl.gov.uk/bus-geometry/"},"features":[{"type":"Feature","properties":{"routeId":"UL71","direction":"1","sourceDate":"20260731"},"geometry":{"type":"MultiLineString","coordinates":[[[-0.142908,51.506733],[-0.14698,51.504598],[-0.148306,51.503759],[-0.149787,51.503108],[-0.149871,51.502498],[-0.151201,51.501997],[-0.151763,51.501988],[-0.152041,51.502235],[-0.152353,51.502815],[-0.152548,51.502882],[-0.156447,51.502313],[-0.158222,51.502251],[-0.159543,51.502011],[-0.16068,51.501688],[-0.161254,51.501391],[-0.162446,51.500381],[-0.163778,51.499515],[-0.167947,51.497233],[-0.169893,51.496424],[-0.171631,51.495906],[-0.188826,51.494608],[-0.192594,51.494765],[-0.194643,51.494698],[-0.195387,51.494448],[-0.194165,51.492937],[-0.192358,51.491756],[-0.191264,51.490896],[-0.190239,51.489486],[-0.192461,51.488675],[-0.193191,51.488794],[-0.200098,51.492559],[-0.200565,51.492469],[-0.201376,51.491978],[-0.202516,51.491581],[-0.204556,51.491334],[-0.208969,51.490493],[-0.2107,51.490429],[-0.214116,51.490724],[-0.216666,51.490718],[-0.219273,51.491091],[-0.224577,51.491396],[-0.224829,51.491588],[-0.224846,51.492641],[-0.224735,51.492891],[-0.224338,51.493092],[-0.223775,51.493119],[-0.223597,51.492892],[-0.222994,51.49278],[-0.222608,51.4924],[-0.222402,51.492388],[-0.222154,51.491485],[-0.222418,51.491345],[-0.22386,51.491322],[-0.224761,51.491488],[-0.224826,51.492784],[-0.225036,51.49294],[-0.229013,51.492524],[-0.232021,51.492596],[-0.23435,51.492816],[-0.233954,51.494406],[-0.234643,51.494452],[-0.234513,51.495583],[-0.234597,51.496052],[-0.237324,51.498539],[-0.238048,51.499917],[-0.239148,51.499789],[-0.24347,51.498631],[-0.243829,51.498709],[-0.245106,51.498467],[-0.249151,51.497053],[-0.255298,51.495678],[-0.255781,51.496603],[-0.256065,51.497461],[-0.256831,51.501169],[-0.257174,51.501246],[-0.257879,51.502425],[-0.258432,51.50264],[-0.265686,51.502478],[-0.265761,51.503144],[-0.266646,51.503742],[-0.267572,51.505168],[-0.268167,51.506588],[-0.268334,51.506734],[-0.269528,51.506806],[-0.272312,51.507477],[-0.274171,51.508223],[-0.274887,51.508351],[-0.276171,51.508316],[-0.276751,51.50783],[-0.277272,51.507019],[-0.278961,51.505408],[-0.280266,51.503277],[-0.281063,51.502776],[-0.283644,51.501564],[-0.286223,51.500793],[-0.288869,51.500941],[-0.291901,51.501532],[-0.294146,51.501601],[-0.300991,51.499263],[-0.306943,51.498054],[-0.309576,51.497732],[-0.311784,51.496874],[-0.31216,51.496834],[-0.312812,51.497123],[-0.314946,51.49959],[-0.315285,51.500386],[-0.315417,51.501476],[-0.316719,51.502889],[-0.319044,51.504711],[-0.319558,51.505627],[-0.31965,51.505862],[-0.319094,51.510018],[-0.319414,51.510724],[-0.319901,51.510794],[-0.327973,51.509569],[-0.330468,51.509506],[-0.334501,51.508781],[-0.338031,51.508795],[-0.33723,51.506257],[-0.336957,51.505839],[-0.333463,51.504063],[-0.330303,51.501815],[-0.328704,51.500228],[-0.325726,51.496579],[-0.325124,51.496094],[-0.321643,51.494785],[-0.319166,51.493563],[-0.317839,51.492438],[-0.317291,51.491674],[-0.314345,51.488746],[-0.313382,51.4883],[-0.313002,51.488457],[-0.312968,51.4886],[-0.31226,51.489048],[-0.311987,51.489026],[-0.311859,51.488814],[-0.323416,51.484137],[-0.326745,51.483285],[-0.329811,51.482942],[-0.344313,51.482168],[-0.347065,51.481748],[-0.351658,51.48073],[-0.362263,51.479228],[-0.362303,51.478491],[-0.362649,51.478023],[-0.362241,51.477429],[-0.361762,51.477116],[-0.360785,51.477067],[-0.360657,51.476624],[-0.359969,51.475733],[-0.359194,51.475246],[-0.357094,51.473436],[-0.355329,51.471406],[-0.355003,51.470473],[-0.356745,51.46998],[-0.357921,51.469383],[-0.361119,51.468142],[-0.36202,51.467516],[-0.363009,51.467215],[-0.365139,51.46684],[-0.366156,51.468078],[-0.366885,51.468223],[-0.373385,51.46896],[-0.37613,51.46952],[-0.388779,51.473777],[-0.392207,51.474705],[-0.394976,51.475283],[-0.396448,51.475052],[-0.402702,51.472996],[-0.410058,51.470346],[-0.420193,51.467253],[-0.420385,51.46713],[-0.42048,51.466861],[-0.420029,51.466181],[-0.420095,51.465921],[-0.421187,51.465989],[-0.421968,51.466315],[-0.422963,51.467533],[-0.422803,51.467576],[-0.422832,51.467972],[-0.422608,51.468212],[-0.421385,51.468609],[-0.420576,51.46867],[-0.420308,51.468945],[-0.41888,51.469429],[-0.415004,51.471589],[-0.414968,51.471796],[-0.415143,51.472167],[-0.417483,51.474033],[-0.418126,51.475417],[-0.418618,51.475748],[-0.419947,51.476062],[-0.421295,51.476215],[-0.425514,51.476209],[-0.426471,51.476447],[-0.426606,51.476819],[-0.426531,51.47723],[-0.426663,51.478814],[-0.426854,51.479123],[-0.427536,51.479393],[-0.449508,51.479505],[-0.449637,51.479516],[-0.44963,51.480145],[-0.449836,51.480436],[-0.452135,51.480601],[-0.452631,51.480428],[-0.452844,51.480062],[-0.452799,51.474359],[-0.452981,51.472627],[-0.452754,51.472086],[-0.451893,51.471172],[-0.451972,51.47095],[-0.452307,51.470847],[-0.454392,51.470919],[-0.454446,51.471028],[-0.454028,51.471835],[-0.453242,51.47248],[-0.453015,51.474174],[-0.45307,51.480209],[-0.453533,51.480574],[-0.454189,51.480763],[-0.455175,51.48056],[-0.457191,51.480559],[-0.457916,51.479985],[-0.472949,51.480038],[-0.480168,51.479924],[-0.48281,51.479275],[-0.487595,51.479166],[-0.493176,51.478492],[-0.49395,51.47816],[-0.494339,51.477724],[-0.494649,51.477036],[-0.494637,51.476109],[-0.494118,51.475698],[-0.492107,51.475546],[-0.491553,51.475324],[-0.491318,51.475024],[-0.491059,51.47413],[-0.49054,51.473701],[-0.489789,51.473332],[-0.489689,51.472719]],[[-0.452307,51.470847],[-0.454392,51.470919],[-0.454446,51.471028],[-0.454028,51.471835],[-0.453242,51.47248],[-0.453015,51.474174],[-0.45307,51.480209],[-0.453533,51.480574],[-0.454189,51.480763],[-0.455175,51.48056],[-0.457191,51.480559],[-0.457916,51.479985],[-0.472949,51.480038],[-0.480168,51.479924],[-0.48281,51.479275],[-0.487595,51.479166],[-0.493176,51.478492],[-0.49395,51.47816],[-0.494339,51.477724],[-0.494649,51.477036],[-0.494637,51.476109],[-0.494118,51.475698],[-0.492107,51.475546],[-0.491553,51.475324],[-0.491318,51.475024],[-0.491059,51.47413],[-0.49054,51.473701],[-0.489789,51.473332],[-0.489689,51.472719]]]}},{"type":"Feature","properties":{"routeId":"UL71","direction":"2","sourceDate":"20260731"},"geometry":{"type":"MultiLineString","coordinates":[[[-0.489689,51.472719],[-0.489705,51.470219],[-0.490464,51.469465],[-0.491115,51.469365],[-0.491419,51.470628],[-0.491815,51.471299],[-0.494268,51.47374],[-0.494843,51.475105],[-0.494918,51.476311],[-0.494158,51.477974],[-0.493176,51.478492],[-0.487595,51.479166],[-0.48281,51.479275],[-0.480168,51.479924],[-0.467551,51.479985],[-0.467038,51.480239],[-0.467026,51.481021],[-0.466764,51.481126],[-0.459387,51.480777],[-0.457594,51.480565],[-0.455175,51.48056],[-0.453766,51.480928],[-0.453588,51.481079],[-0.453491,51.481815],[-0.452892,51.482059],[-0.452435,51.481963],[-0.452241,51.481735],[-0.452268,51.480935],[-0.452844,51.480062],[-0.452799,51.474359],[-0.452981,51.472627],[-0.452754,51.472086],[-0.451952,51.471286],[-0.451897,51.471057],[-0.452293,51.470846],[-0.454392,51.470919],[-0.454441,51.471189],[-0.454028,51.471835],[-0.453289,51.472377],[-0.453087,51.47333],[-0.45307,51.480209],[-0.453533,51.480574],[-0.454189,51.480763],[-0.455175,51.48056],[-0.456932,51.480556],[-0.457386,51.480328],[-0.457149,51.480101],[-0.455005,51.480045],[-0.452489,51.479518],[-0.439229,51.479396],[-0.427576,51.479492],[-0.426751,51.479184],[-0.42645,51.478721],[-0.426606,51.476819],[-0.426471,51.476447],[-0.425514,51.476209],[-0.421295,51.476215],[-0.418618,51.475748],[-0.418126,51.475417],[-0.417483,51.474033],[-0.415143,51.472167],[-0.414942,51.471723],[-0.41888,51.469429],[-0.420308,51.468945],[-0.420576,51.46867],[-0.421385,51.468609],[-0.422608,51.468212],[-0.422832,51.467972],[-0.422803,51.467576],[-0.423569,51.467487],[-0.423963,51.466899],[-0.423722,51.466797],[-0.423621,51.467236],[-0.423284,51.467376],[-0.423014,51.467282],[-0.423224,51.466933],[-0.424026,51.466738],[-0.4235,51.467511],[-0.422801,51.46763],[-0.422376,51.466995],[-0.421848,51.466862],[-0.410614,51.470261],[-0.404767,51.472404],[-0.396157,51.475272],[-0.396087,51.47563],[-0.39591,51.475745],[-0.388779,51.473777],[-0.37613,51.46952],[-0.373385,51.46896],[-0.36894,51.468467],[-0.368957,51.467981],[-0.368605,51.467347],[-0.366921,51.467746],[-0.366709,51.467644],[-0.366529,51.467163],[-0.366292,51.46682],[-0.365762,51.466732],[-0.362778,51.467264],[-0.36202,51.467516],[-0.360929,51.468229],[-0.357036,51.46986],[-0.355003,51.470473],[-0.355329,51.471406],[-0.357503,51.473828],[-0.359969,51.475733],[-0.360657,51.476624],[-0.360785,51.477067],[-0.361762,51.477116],[-0.362241,51.477429],[-0.362649,51.478023],[-0.362254,51.478652],[-0.362258,51.479324],[-0.351831,51.480791],[-0.347134,51.481839],[-0.344498,51.482242],[-0.329375,51.483062],[-0.325885,51.483588],[-0.322944,51.484454],[-0.313748,51.488162],[-0.313708,51.48844],[-0.314458,51.488828],[-0.317291,51.491674],[-0.317839,51.492438],[-0.319166,51.493563],[-0.321643,51.494785],[-0.324893,51.495981],[-0.326045,51.496908],[-0.328331,51.4998],[-0.330303,51.501815],[-0.333463,51.504063],[-0.336957,51.505839],[-0.33723,51.506257],[-0.338031,51.508795],[-0.334501,51.508781],[-0.330468,51.509506],[-0.327973,51.509569],[-0.321538,51.510583],[-0.319414,51.510724],[-0.319094,51.510018],[-0.31965,51.505862],[-0.319558,51.505627],[-0.319044,51.504711],[-0.316719,51.502889],[-0.315417,51.501476],[-0.315233,51.500233],[-0.314873,51.499427],[-0.312812,51.497123],[-0.31216,51.496834],[-0.309576,51.497732],[-0.306534,51.498141],[-0.300991,51.499263],[-0.293915,51.501633],[-0.291901,51.501532],[-0.288869,51.500941],[-0.287218,51.50078],[-0.285658,51.500883],[-0.283644,51.501564],[-0.280636,51.503004],[-0.280266,51.503277],[-0.278961,51.505408],[-0.277272,51.507019],[-0.276751,51.50783],[-0.276171,51.508316],[-0.274171,51.508223],[-0.272312,51.507477],[-0.269528,51.506806],[-0.266565,51.506654],[-0.266369,51.506121],[-0.267892,51.505865],[-0.266646,51.503742],[-0.265761,51.503144],[-0.265686,51.502478],[-0.258061,51.502554],[-0.257174,51.501246],[-0.256831,51.501169],[-0.255941,51.496938],[-0.255298,51.495678],[-0.249151,51.497053],[-0.245106,51.498467],[-0.243829,51.498709],[-0.24347,51.498631],[-0.239148,51.499789],[-0.238048,51.499917],[-0.237324,51.498539],[-0.23465,51.496143],[-0.234513,51.495583],[-0.234643,51.494452],[-0.227428,51.494406],[-0.226461,51.493708],[-0.224514,51.493023],[-0.223775,51.493119],[-0.223597,51.492892],[-0.222982,51.492774],[-0.222608,51.4924],[-0.222402,51.492388],[-0.222123,51.491538],[-0.221912,51.4914],[-0.219148,51.491349],[-0.216806,51.490819],[-0.214055,51.490813],[-0.209817,51.490524],[-0.202337,51.491722],[-0.201475,51.492042],[-0.200068,51.493018],[-0.195539,51.49463],[-0.194864,51.494704],[-0.188826,51.494608],[-0.184322,51.494914],[-0.17235,51.495838],[-0.169648,51.496495],[-0.167947,51.497233],[-0.164071,51.499412],[-0.16227,51.500695],[-0.161099,51.501658],[-0.160362,51.501903],[-0.157096,51.502297],[-0.154139,51.502883],[-0.149761,51.503404],[-0.142488,51.506945]],[[-0.314489,51.499006],[-0.312812,51.497123],[-0.31216,51.496834],[-0.309576,51.497732],[-0.306534,51.498141],[-0.300991,51.499263],[-0.293915,51.501633],[-0.291901,51.501532],[-0.288869,51.500941],[-0.287218,51.50078],[-0.285658,51.500883],[-0.283644,51.501564],[-0.280636,51.503004],[-0.280266,51.503277],[-0.278961,51.505408],[-0.277272,51.507019],[-0.276751,51.50783],[-0.276171,51.508316],[-0.274171,51.508223],[-0.272312,51.507477],[-0.269528,51.506806],[-0.266565,51.506654],[-0.266369,51.506121],[-0.267892,51.505865],[-0.266646,51.503742],[-0.265761,51.503144],[-0.265686,51.502478],[-0.258061,51.502554],[-0.257174,51.501246],[-0.256831,51.501169],[-0.255941,51.496938],[-0.255298,51.495678],[-0.249151,51.497053],[-0.245106,51.498467],[-0.243829,51.498709],[-0.24347,51.498631],[-0.239148,51.499789],[-0.238048,51.499917],[-0.237324,51.498539],[-0.23465,51.496143],[-0.234513,51.495583],[-0.234643,51.494452],[-0.227428,51.494406],[-0.226461,51.493708],[-0.224514,51.493023],[-0.223775,51.493119],[-0.223597,51.492892],[-0.222982,51.492774],[-0.222608,51.4924],[-0.222402,51.492388],[-0.222123,51.491538],[-0.221912,51.4914],[-0.219148,51.491349],[-0.216806,51.490819],[-0.214055,51.490813],[-0.209817,51.490524],[-0.202337,51.491722],[-0.201475,51.492042],[-0.200068,51.493018],[-0.195539,51.49463],[-0.194864,51.494704],[-0.188826,51.494608],[-0.184322,51.494914],[-0.17235,51.495838],[-0.169648,51.496495],[-0.167947,51.497233],[-0.164071,51.499412],[-0.16227,51.500695],[-0.161099,51.501658],[-0.160362,51.501903],[-0.157096,51.502297],[-0.154139,51.502883],[-0.149761,51.503404],[-0.142488,51.506945]],[[-0.453831,51.470898],[-0.454392,51.470919],[-0.454441,51.471189],[-0.454028,51.471835],[-0.453289,51.472377],[-0.453087,51.47333],[-0.45307,51.480209],[-0.453533,51.480574],[-0.454189,51.480763],[-0.455175,51.48056],[-0.456932,51.480556],[-0.457386,51.480328],[-0.457149,51.480101],[-0.455005,51.480045],[-0.452489,51.479518],[-0.439229,51.479396],[-0.427576,51.479492],[-0.426751,51.479184],[-0.42645,51.478721],[-0.426606,51.476819],[-0.426471,51.476447],[-0.425514,51.476209],[-0.421295,51.476215],[-0.418618,51.475748],[-0.418126,51.475417],[-0.417483,51.474033],[-0.415143,51.472167],[-0.414942,51.471723],[-0.41888,51.469429],[-0.420308,51.468945],[-0.420576,51.46867],[-0.421385,51.468609],[-0.422608,51.468212],[-0.422832,51.467972],[-0.422803,51.467576],[-0.423569,51.467487],[-0.423963,51.466899],[-0.423722,51.466797],[-0.423621,51.467236],[-0.423284,51.467376],[-0.423014,51.467282],[-0.423224,51.466933],[-0.424026,51.466738],[-0.4235,51.467511],[-0.422801,51.46763],[-0.422376,51.466995],[-0.421848,51.466862],[-0.410614,51.470261],[-0.404767,51.472404],[-0.396157,51.475272],[-0.396087,51.47563],[-0.39591,51.475745],[-0.388779,51.473777],[-0.37613,51.46952],[-0.373385,51.46896],[-0.36894,51.468467],[-0.368957,51.467981],[-0.368605,51.467347],[-0.366921,51.467746],[-0.366709,51.467644],[-0.366529,51.467163],[-0.366292,51.46682],[-0.365762,51.466732],[-0.362778,51.467264],[-0.36202,51.467516],[-0.360929,51.468229],[-0.357036,51.46986],[-0.355003,51.470473],[-0.355329,51.471406],[-0.357503,51.473828],[-0.359969,51.475733],[-0.360657,51.476624],[-0.360785,51.477067],[-0.361762,51.477116],[-0.362241,51.477429],[-0.362649,51.478023],[-0.362254,51.478652],[-0.362258,51.479324],[-0.351831,51.480791],[-0.347134,51.481839],[-0.344498,51.482242],[-0.329375,51.483062],[-0.325885,51.483588],[-0.322944,51.484454],[-0.313748,51.488162],[-0.313708,51.48844],[-0.314458,51.488828],[-0.317291,51.491674],[-0.317839,51.492438],[-0.319166,51.493563],[-0.321643,51.494785],[-0.324893,51.495981],[-0.326045,51.496908],[-0.328331,51.4998],[-0.330303,51.501815],[-0.333463,51.504063],[-0.336957,51.505839],[-0.33723,51.506257],[-0.338031,51.508795],[-0.334501,51.508781],[-0.330468,51.509506],[-0.327973,51.509569],[-0.321538,51.510583],[-0.319414,51.510724],[-0.319094,51.510018],[-0.31965,51.505862],[-0.319558,51.505627],[-0.319044,51.504711],[-0.316719,51.502889],[-0.315417,51.501476],[-0.315233,51.500233],[-0.314873,51.499427],[-0.312812,51.497123],[-0.31216,51.496834],[-0.309576,51.497732],[-0.306534,51.498141],[-0.300991,51.499263],[-0.293915,51.501633],[-0.291901,51.501532],[-0.288869,51.500941],[-0.287218,51.50078],[-0.285658,51.500883],[-0.283644,51.501564],[-0.280636,51.503004],[-0.280266,51.503277],[-0.278961,51.505408],[-0.277272,51.507019],[-0.276751,51.50783],[-0.276171,51.508316],[-0.274171,51.508223],[-0.272312,51.507477],[-0.269528,51.506806],[-0.266565,51.506654],[-0.266369,51.506121],[-0.267892,51.505865],[-0.266646,51.503742],[-0.265761,51.503144],[-0.265686,51.502478],[-0.258061,51.502554],[-0.257174,51.501246],[-0.256831,51.501169],[-0.255941,51.496938],[-0.255298,51.495678],[-0.249151,51.497053],[-0.245106,51.498467],[-0.243829,51.498709],[-0.24347,51.498631],[-0.239148,51.499789],[-0.238048,51.499917],[-0.237324,51.498539],[-0.23465,51.496143],[-0.234513,51.495583],[-0.234643,51.494452],[-0.227428,51.494406],[-0.226461,51.493708],[-0.22524,51.493301]],[[-0.453831,51.470898],[-0.454392,51.470919],[-0.454441,51.471189],[-0.454028,51.471835],[-0.453289,51.472377],[-0.453087,51.47333],[-0.45307,51.480209],[-0.453533,51.480574],[-0.454189,51.480763],[-0.455175,51.48056],[-0.456932,51.480556],[-0.457386,51.480328],[-0.457149,51.480101],[-0.455005,51.480045],[-0.452489,51.479518],[-0.439229,51.479396],[-0.427576,51.479492],[-0.426751,51.479184],[-0.42645,51.478721],[-0.426606,51.476819],[-0.426471,51.476447],[-0.425514,51.476209],[-0.421295,51.476215],[-0.418618,51.475748],[-0.418126,51.475417],[-0.417483,51.474033],[-0.415143,51.472167],[-0.414942,51.471723],[-0.41888,51.469429],[-0.420308,51.468945],[-0.420576,51.46867],[-0.421385,51.468609],[-0.422608,51.468212],[-0.422832,51.467972],[-0.422803,51.467576],[-0.423569,51.467487],[-0.423963,51.466899],[-0.423722,51.466797],[-0.423621,51.467236],[-0.423284,51.467376],[-0.423014,51.467282],[-0.423224,51.466933],[-0.424026,51.466738],[-0.4235,51.467511],[-0.422801,51.46763],[-0.422376,51.466995],[-0.421848,51.466862],[-0.410614,51.470261],[-0.404767,51.472404],[-0.396157,51.475272],[-0.396087,51.47563],[-0.39591,51.475745],[-0.388779,51.473777],[-0.37613,51.46952],[-0.373385,51.46896],[-0.36894,51.468467],[-0.368957,51.467981],[-0.368605,51.467347],[-0.366921,51.467746],[-0.366709,51.467644],[-0.366529,51.467163],[-0.366292,51.46682],[-0.365762,51.466732],[-0.362778,51.467264],[-0.36202,51.467516],[-0.360929,51.468229],[-0.357036,51.46986],[-0.355003,51.470473],[-0.355329,51.471406],[-0.357503,51.473828],[-0.359969,51.475733],[-0.360657,51.476624],[-0.360785,51.477067],[-0.361762,51.477116],[-0.362241,51.477429],[-0.362649,51.478023],[-0.362254,51.478652],[-0.362258,51.479324],[-0.351831,51.480791],[-0.347134,51.481839],[-0.344498,51.482242],[-0.329375,51.483062],[-0.325885,51.483588],[-0.322944,51.484454],[-0.313748,51.488162],[-0.313708,51.48844],[-0.314458,51.488828],[-0.317291,51.491674],[-0.317839,51.492438],[-0.319166,51.493563],[-0.321643,51.494785],[-0.324893,51.495981],[-0.326045,51.496908],[-0.328331,51.4998],[-0.330303,51.501815],[-0.333463,51.504063],[-0.336957,51.505839],[-0.33723,51.506257],[-0.338031,51.508795],[-0.334501,51.508781],[-0.330468,51.509506],[-0.327973,51.509569],[-0.321538,51.510583],[-0.319414,51.510724],[-0.319094,51.510018],[-0.31965,51.505862],[-0.319558,51.505627],[-0.319044,51.504711],[-0.316719,51.502889],[-0.315417,51.501476],[-0.315233,51.500233],[-0.314873,51.499427],[-0.312812,51.497123],[-0.31216,51.496834],[-0.309576,51.497732],[-0.306534,51.498141],[-0.300991,51.499263],[-0.293915,51.501633],[-0.291901,51.501532],[-0.288869,51.500941],[-0.287218,51.50078],[-0.285658,51.500883],[-0.283644,51.501564],[-0.280636,51.503004],[-0.280266,51.503277],[-0.278961,51.505408],[-0.277272,51.507019],[-0.276751,51.50783],[-0.276171,51.508316],[-0.274171,51.508223],[-0.272312,51.507477],[-0.269528,51.506806],[-0.266565,51.506654],[-0.266369,51.506121],[-0.267892,51.505865],[-0.266646,51.503742],[-0.265761,51.503144],[-0.265686,51.502478],[-0.258061,51.502554],[-0.257174,51.501246],[-0.256831,51.501169],[-0.255941,51.496938],[-0.255298,51.495678],[-0.249151,51.497053],[-0.245106,51.498467],[-0.243829,51.498709],[-0.24347,51.498631],[-0.239148,51.499789],[-0.238048,51.499917],[-0.237324,51.498539],[-0.23465,51.496143],[-0.234513,51.495583],[-0.234643,51.494452],[-0.227428,51.494406],[-0.226461,51.493708],[-0.224514,51.493023],[-0.223775,51.493119],[-0.223597,51.492892],[-0.222982,51.492774],[-0.222608,51.4924],[-0.222402,51.492388],[-0.222123,51.491538],[-0.221912,51.4914],[-0.219148,51.491349],[-0.216806,51.490819],[-0.214055,51.490813],[-0.209817,51.490524],[-0.202337,51.491722],[-0.201475,51.492042],[-0.200068,51.493018],[-0.195539,51.49463],[-0.194864,51.494704],[-0.188826,51.494608],[-0.184322,51.494914],[-0.17235,51.495838],[-0.169648,51.496495],[-0.167947,51.497233],[-0.164071,51.499412],[-0.16227,51.500695],[-0.161099,51.501658],[-0.160362,51.501903],[-0.157096,51.502297],[-0.154139,51.502883],[-0.149761,51.503404],[-0.142488,51.506945]],[[-0.453831,51.470898],[-0.454392,51.470919],[-0.454441,51.471189],[-0.454028,51.471835],[-0.453289,51.472377],[-0.453087,51.47333],[-0.45307,51.480209],[-0.453533,51.480574],[-0.454189,51.480763],[-0.455175,51.48056],[-0.456932,51.480556],[-0.457386,51.480328],[-0.457149,51.480101],[-0.455005,51.480045],[-0.452489,51.479518],[-0.439229,51.479396],[-0.427576,51.479492],[-0.426751,51.479184],[-0.42645,51.478721],[-0.426606,51.476819],[-0.426471,51.476447],[-0.425514,51.476209],[-0.421295,51.476215],[-0.418618,51.475748],[-0.418126,51.475417],[-0.417483,51.474033],[-0.415143,51.472167],[-0.414942,51.471723],[-0.41888,51.469429],[-0.420308,51.468945],[-0.420576,51.46867],[-0.421385,51.468609],[-0.422608,51.468212],[-0.422832,51.467972],[-0.422803,51.467576],[-0.423569,51.467487],[-0.423963,51.466899],[-0.423722,51.466797],[-0.423621,51.467236],[-0.423284,51.467376],[-0.423014,51.467282],[-0.423224,51.466933],[-0.424026,51.466738],[-0.4235,51.467511],[-0.422801,51.46763],[-0.422376,51.466995],[-0.421848,51.466862],[-0.410614,51.470261],[-0.404767,51.472404],[-0.396157,51.475272],[-0.396087,51.47563],[-0.39591,51.475745],[-0.388779,51.473777],[-0.37613,51.46952],[-0.373385,51.46896],[-0.36894,51.468467],[-0.368957,51.467981],[-0.368605,51.467347],[-0.366921,51.467746],[-0.366709,51.467644],[-0.366529,51.467163],[-0.366292,51.46682],[-0.365762,51.466732],[-0.362778,51.467264],[-0.36202,51.467516],[-0.360929,51.468229],[-0.357036,51.46986],[-0.355003,51.470473],[-0.355329,51.471406],[-0.357503,51.473828],[-0.359969,51.475733],[-0.360657,51.476624],[-0.360785,51.477067],[-0.361762,51.477116],[-0.362241,51.477429],[-0.362649,51.478023],[-0.362254,51.478652],[-0.362258,51.479324],[-0.351831,51.480791],[-0.347134,51.481839],[-0.344498,51.482242],[-0.329375,51.483062],[-0.325885,51.483588],[-0.322944,51.484454],[-0.313748,51.488162],[-0.313708,51.48844],[-0.314458,51.488828],[-0.317291,51.491674],[-0.317839,51.492438],[-0.319166,51.493563],[-0.321643,51.494785],[-0.324893,51.495981],[-0.326045,51.496908],[-0.328331,51.4998],[-0.330303,51.501815],[-0.333463,51.504063],[-0.336957,51.505839],[-0.33723,51.506257],[-0.338031,51.508795],[-0.334501,51.508781],[-0.330468,51.509506],[-0.327973,51.509569],[-0.321538,51.510583],[-0.319414,51.510724],[-0.319094,51.510018],[-0.31965,51.505862],[-0.319558,51.505627],[-0.319044,51.504711],[-0.316719,51.502889],[-0.315417,51.501476],[-0.315233,51.500233],[-0.314873,51.499427],[-0.312812,51.497123],[-0.31216,51.496834],[-0.309576,51.497732],[-0.306534,51.498141],[-0.300991,51.499263],[-0.294146,51.501601],[-0.291901,51.501532],[-0.288869,51.500941],[-0.28657,51.500762],[-0.285535,51.500917],[-0.283644,51.501564],[-0.281063,51.502776],[-0.280189,51.503402],[-0.278938,51.502305]],[[-0.489689,51.472719],[-0.489705,51.470219],[-0.490464,51.469465],[-0.491115,51.469365],[-0.491419,51.470628],[-0.491815,51.471299],[-0.494268,51.47374],[-0.494843,51.475105],[-0.494918,51.476311],[-0.494158,51.477974],[-0.493176,51.478492],[-0.487595,51.479166],[-0.48281,51.479275],[-0.480168,51.479924],[-0.467551,51.479985],[-0.467038,51.480239],[-0.467026,51.481021],[-0.466764,51.481126],[-0.459387,51.480777],[-0.457594,51.480565],[-0.455175,51.48056],[-0.453766,51.480928],[-0.453588,51.481079],[-0.453491,51.481815],[-0.452892,51.482059],[-0.452435,51.481963],[-0.452241,51.481735],[-0.452268,51.480935],[-0.452844,51.480062],[-0.452799,51.474359],[-0.452981,51.472627],[-0.452754,51.472086],[-0.451952,51.471286],[-0.451897,51.471057],[-0.452293,51.470846],[-0.454392,51.470919],[-0.454441,51.471189],[-0.454028,51.471835],[-0.453289,51.472377],[-0.453087,51.47333],[-0.45307,51.480209],[-0.453533,51.480574],[-0.454189,51.480763],[-0.455175,51.48056],[-0.456932,51.480556],[-0.457386,51.480328],[-0.457149,51.480101],[-0.455005,51.480045],[-0.452489,51.479518],[-0.439229,51.479396],[-0.427576,51.479492],[-0.426751,51.479184],[-0.42645,51.478721],[-0.426606,51.476819],[-0.426471,51.476447],[-0.425514,51.476209],[-0.421295,51.476215],[-0.418618,51.475748],[-0.418126,51.475417],[-0.417483,51.474033],[-0.415143,51.472167],[-0.414942,51.471723],[-0.41888,51.469429],[-0.420308,51.468945],[-0.420576,51.46867],[-0.421385,51.468609],[-0.422608,51.468212],[-0.422832,51.467972],[-0.422803,51.467576],[-0.423569,51.467487],[-0.423963,51.466899],[-0.423722,51.466797],[-0.423621,51.467236],[-0.423284,51.467376],[-0.423014,51.467282],[-0.423224,51.466933],[-0.424026,51.466738],[-0.4235,51.467511],[-0.422801,51.46763],[-0.422376,51.466995],[-0.421848,51.466862],[-0.410614,51.470261],[-0.404767,51.472404],[-0.396157,51.475272],[-0.396087,51.47563],[-0.39591,51.475745],[-0.388779,51.473777],[-0.37613,51.46952],[-0.373385,51.46896],[-0.36894,51.468467],[-0.368957,51.467981],[-0.368605,51.467347],[-0.366921,51.467746],[-0.366709,51.467644],[-0.366529,51.467163],[-0.366292,51.46682],[-0.365762,51.466732],[-0.362778,51.467264],[-0.36202,51.467516],[-0.360929,51.468229],[-0.357036,51.46986],[-0.355003,51.470473],[-0.355329,51.471406],[-0.357503,51.473828],[-0.359969,51.475733],[-0.360657,51.476624],[-0.360785,51.477067],[-0.361762,51.477116],[-0.362241,51.477429],[-0.362649,51.478023],[-0.362254,51.478652],[-0.362258,51.479324],[-0.351831,51.480791],[-0.347134,51.481839],[-0.344498,51.482242],[-0.329375,51.483062],[-0.325885,51.483588],[-0.322944,51.484454],[-0.313748,51.488162],[-0.313708,51.48844],[-0.314458,51.488828],[-0.317291,51.491674],[-0.317839,51.492438],[-0.319166,51.493563],[-0.321643,51.494785],[-0.324893,51.495981],[-0.326045,51.496908],[-0.328331,51.4998],[-0.330303,51.501815],[-0.333463,51.504063],[-0.336957,51.505839],[-0.33723,51.506257],[-0.338031,51.508795],[-0.334501,51.508781],[-0.330468,51.509506],[-0.327973,51.509569],[-0.321538,51.510583],[-0.319414,51.510724],[-0.319094,51.510018],[-0.31965,51.505862],[-0.319558,51.505627],[-0.319044,51.504711],[-0.316719,51.502889],[-0.315417,51.501476],[-0.315233,51.500233],[-0.314873,51.499427],[-0.312812,51.497123],[-0.31216,51.496834],[-0.309576,51.497732],[-0.306534,51.498141],[-0.300991,51.499263],[-0.294146,51.501601],[-0.291901,51.501532],[-0.288869,51.500941],[-0.28657,51.500762],[-0.285535,51.500917],[-0.283644,51.501564],[-0.281063,51.502776],[-0.280189,51.503402],[-0.278938,51.502305]]]}}]}