{"type":"FeatureCollection","metadata":{"routeId":"UL71A","sourceDate":"20260731","source":"https://bus.data.tfl.gov.uk/bus-geometry/"},"features":[{"type":"Feature","properties":{"routeId":"UL71A","direction":"1","sourceDate":"20260731"},"geometry":{"type":"LineString","coordinates":[[-0.281063,51.502776],[-0.283644,51.501564],[-0.286223,51.500793],[-0.288869,51.500941],[-0.291901,51.501532],[-0.294146,51.501601],[-0.300991,51.499263],[-0.306943,51.498054],[-0.309576,51.497732],[-0.311784,51.496874],[-0.31216,51.496834],[-0.312812,51.497123],[-0.314946,51.49959],[-0.315285,51.500386],[-0.315417,51.501476],[-0.316719,51.502889],[-0.319044,51.504711],[-0.319558,51.505627],[-0.31965,51.505862],[-0.319094,51.510018],[-0.319414,51.510724],[-0.319901,51.510794],[-0.321538,51.510583],[-0.327973,51.509569],[-0.330468,51.509506],[-0.334501,51.508781],[-0.338031,51.508795],[-0.33723,51.506257],[-0.336957,51.505839],[-0.333463,51.504063],[-0.330303,51.501815],[-0.328704,51.500228],[-0.325726,51.496579],[-0.325124,51.496094],[-0.321643,51.494785],[-0.319166,51.493563],[-0.317839,51.492438],[-0.317291,51.491674],[-0.314345,51.488746],[-0.313382,51.4883],[-0.313002,51.488457],[-0.312968,51.4886],[-0.31226,51.489048],[-0.311987,51.489026],[-0.311859,51.488814],[-0.323416,51.484137],[-0.326745,51.483285],[-0.329811,51.482942],[-0.344313,51.482168],[-0.347065,51.481748],[-0.351658,51.48073],[-0.362263,51.479228],[-0.362303,51.478491],[-0.362649,51.478023],[-0.362241,51.477429],[-0.361762,51.477116],[-0.360785,51.477067],[-0.360657,51.476624],[-0.359969,51.475733],[-0.359194,51.475246],[-0.357094,51.473436],[-0.355329,51.471406],[-0.355003,51.470473],[-0.356745,51.46998],[-0.357921,51.469383],[-0.361119,51.468142],[-0.36202,51.467516],[-0.363009,51.467215],[-0.365139,51.46684],[-0.366156,51.468078],[-0.366885,51.468223],[-0.373385,51.46896],[-0.37613,51.46952],[-0.388779,51.473777],[-0.392207,51.474705],[-0.394976,51.475283],[-0.396448,51.475052],[-0.402702,51.472996],[-0.410058,51.470346],[-0.420193,51.467253],[-0.420385,51.46713],[-0.42048,51.466861],[-0.420029,51.466181],[-0.420095,51.465921],[-0.421187,51.465989],[-0.421968,51.466315],[-0.422963,51.467533],[-0.422803,51.467576],[-0.422832,51.467972],[-0.422608,51.468212],[-0.421385,51.468609],[-0.420576,51.46867],[-0.420308,51.468945],[-0.41888,51.469429],[-0.415004,51.471589],[-0.414968,51.471796],[-0.415143,51.472167],[-0.417483,51.474033],[-0.418126,51.475417],[-0.418618,51.475748],[-0.419947,51.476062],[-0.421295,51.476215],[-0.425514,51.476209],[-0.426471,51.476447],[-0.426606,51.476819],[-0.426531,51.47723],[-0.426663,51.478814],[-0.426854,51.479123],[-0.427536,51.479393],[-0.449508,51.479505],[-0.449637,51.479516],[-0.44963,51.480145],[-0.449836,51.480436],[-0.452135,51.480601],[-0.452631,51.480428],[-0.452844,51.480062],[-0.452799,51.474359],[-0.452981,51.472627],[-0.452754,51.472086],[-0.451893,51.471172],[-0.451972,51.47095],[-0.452307,51.470847]]}},{"type":"Feature","properties":{"routeId":"UL71A","direction":"2","sourceDate":"20260731"},"geometry":{"type":"LineString","coordinates":[[-0.453831,51.470898],[-0.454392,51.470919],[-0.454441,51.471189],[-0.454028,51.471835],[-0.453289,51.472377],[-0.453087,51.47333],[-0.45307,51.480209],[-0.453533,51.480574],[-0.454189,51.480763],[-0.455175,51.48056],[-0.456932,51.480556],[-0.457386,51.480328],[-0.457149,51.480101],[-0.455005,51.480045],[-0.452489,51.479518],[-0.439229,51.479396],[-0.427576,51.479492],[-0.426751,51.479184],[-0.42645,51.478721],[-0.426606,51.476819],[-0.426471,51.476447],[-0.425514,51.476209],[-0.421295,51.476215],[-0.418618,51.475748],[-0.418126,51.475417],[-0.417483,51.474033],[-0.415143,51.472167],[-0.414942,51.471723],[-0.41888,51.469429],[-0.420308,51.468945],[-0.420576,51.46867],[-0.421385,51.468609],[-0.422608,51.468212],[-0.422832,51.467972],[-0.422803,51.467576],[-0.423569,51.467487],[-0.423963,51.466899],[-0.423722,51.466797],[-0.423621,51.467236],[-0.423284,51.467376],[-0.423014,51.467282],[-0.423224,51.466933],[-0.424026,51.466738],[-0.4235,51.467511],[-0.422801,51.46763],[-0.422376,51.466995],[-0.421848,51.466862],[-0.410614,51.470261],[-0.404767,51.472404],[-0.396157,51.475272],[-0.396087,51.47563],[-0.39591,51.475745],[-0.388779,51.473777],[-0.37613,51.46952],[-0.373385,51.46896],[-0.36894,51.468467],[-0.368957,51.467981],[-0.368605,51.467347],[-0.366921,51.467746],[-0.366709,51.467644],[-0.366529,51.467163],[-0.366292,51.46682],[-0.365762,51.466732],[-0.362778,51.467264],[-0.36202,51.467516],[-0.360929,51.468229],[-0.357036,51.46986],[-0.355003,51.470473],[-0.355329,51.471406],[-0.357503,51.473828],[-0.359969,51.475733],[-0.360657,51.476624],[-0.360785,51.477067],[-0.361762,51.477116],[-0.362241,51.477429],[-0.362649,51.478023],[-0.362254,51.478652],[-0.362258,51.479324],[-0.351831,51.480791],[-0.347134,51.481839],[-0.344498,51.482242],[-0.329375,51.483062],[-0.325885,51.483588],[-0.322944,51.484454],[-0.313748,51.488162],[-0.313708,51.48844],[-0.314458,51.488828],[-0.317291,51.491674],[-0.317839,51.492438],[-0.319166,51.493563],[-0.321643,51.494785],[-0.324893,51.495981],[-0.326045,51.496908],[-0.328331,51.4998],[-0.330303,51.501815],[-0.333463,51.504063],[-0.336957,51.505839],[-0.33723,51.506257],[-0.338031,51.508795],[-0.334501,51.508781],[-0.330468,51.509506],[-0.327973,51.509569],[-0.321538,51.510583],[-0.319414,51.510724],[-0.319094,51.510018],[-0.31965,51.505862],[-0.319558,51.505627],[-0.319044,51.504711],[-0.316719,51.502889],[-0.315417,51.501476],[-0.315233,51.500233],[-0.314873,51.499427],[-0.312812,51.497123],[-0.31216,51.496834],[-0.309576,51.497732],[-0.306534,51.498141],[-0.300991,51.499263],[-0.294146,51.501601],[-0.291901,51.501532],[-0.288869,51.500941],[-0.28657,51.500762],[-0.285535,51.500917],[-0.283644,51.501564],[-0.281063,51.502776],[-0.280189,51.503402],[-0.278938,51.502305]]}}]}