{"type":"FeatureCollection","metadata":{"routeId":"UL74","sourceDate":"20260214","source":"https://bus.data.tfl.gov.uk/bus-geometry/"},"features":[{"type":"Feature","properties":{"routeId":"UL74","direction":"1","sourceDate":"20260214"},"geometry":{"type":"LineString","coordinates":[[-0.224723,51.51136],[-0.225027,51.512445],[-0.225847,51.514346],[-0.226269,51.514981],[-0.22793,51.514872],[-0.228706,51.514928],[-0.237729,51.514183],[-0.241009,51.514322],[-0.249503,51.513811],[-0.251245,51.513864],[-0.253397,51.51413],[-0.255126,51.514497],[-0.256636,51.51496],[-0.259725,51.516364],[-0.260627,51.516908],[-0.261463,51.517666],[-0.262349,51.519145],[-0.262792,51.51949],[-0.264633,51.519953],[-0.264416,51.520363],[-0.263459,51.52168],[-0.262118,51.522779],[-0.261233,51.522363],[-0.259378,51.521691],[-0.258459,51.522343],[-0.258535,51.522614],[-0.260948,51.523225],[-0.261569,51.523198],[-0.261835,51.523031],[-0.262118,51.522779],[-0.261233,51.522363],[-0.259378,51.521691],[-0.25985,51.521401],[-0.261225,51.520882],[-0.261691,51.520377],[-0.262079,51.519645],[-0.262227,51.519539],[-0.262587,51.519545],[-0.263874,51.521704],[-0.264452,51.52245],[-0.265584,51.523384],[-0.267028,51.524079],[-0.272244,51.525667],[-0.27516,51.526313],[-0.277917,51.526596],[-0.281778,51.526661],[-0.282711,51.526765],[-0.285621,51.527581],[-0.287736,51.528475],[-0.288804,51.528833],[-0.292521,51.529651],[-0.293854,51.529859],[-0.294718,51.530285],[-0.294799,51.530439],[-0.294697,51.531444],[-0.294909,51.531727],[-0.295171,51.532441],[-0.295435,51.533857],[-0.29751,51.535829],[-0.299148,51.537912],[-0.299721,51.538406],[-0.299744,51.538568],[-0.300299,51.539152],[-0.301028,51.540134],[-0.301799,51.540591],[-0.303808,51.540183],[-0.306039,51.539351],[-0.308553,51.53937],[-0.310469,51.539508],[-0.316929,51.54021],[-0.318921,51.540958],[-0.320064,51.541244],[-0.32084,51.541348],[-0.3214,51.54138],[-0.324653,51.541157],[-0.324601,51.540842],[-0.324243,51.540144],[-0.324135,51.539549],[-0.324118,51.538424],[-0.324253,51.5375],[-0.324104,51.536059],[-0.324281,51.535558],[-0.324307,51.535244],[-0.323963,51.534025],[-0.323999,51.533837],[-0.324176,51.533713],[-0.325713,51.533888],[-0.329514,51.534014],[-0.329762,51.533946],[-0.329848,51.533569],[-0.333041,51.533768],[-0.333628,51.533902],[-0.339941,51.534747],[-0.345856,51.535855],[-0.346143,51.535886],[-0.346738,51.535778],[-0.347008,51.535881],[-0.347214,51.536153],[-0.347179,51.536333],[-0.347001,51.536465],[-0.346522,51.536557],[-0.346213,51.536724],[-0.345433,51.537567],[-0.345111,51.538093],[-0.343052,51.542371],[-0.345617,51.542989],[-0.346612,51.541639],[-0.349266,51.539239],[-0.349421,51.538945],[-0.34936,51.538629],[-0.348595,51.53745],[-0.348408,51.536656],[-0.34726,51.536478],[-0.346321,51.536545],[-0.346023,51.536397],[-0.345874,51.536134],[-0.345951,51.536001],[-0.346187,51.535869],[-0.346666,51.535777],[-0.347008,51.535881],[-0.347188,51.53609],[-0.347558,51.536239],[-0.350941,51.536772],[-0.351496,51.536969],[-0.36167,51.539153],[-0.363203,51.539435],[-0.367896,51.540049],[-0.370574,51.540554],[-0.376145,51.542061],[-0.377499,51.542511],[-0.378076,51.54251],[-0.378458,51.542722],[-0.378536,51.542957],[-0.378458,51.5431],[-0.378135,51.543284],[-0.377457,51.543275],[-0.374384,51.544122],[-0.372874,51.544803],[-0.37183,51.545382],[-0.369145,51.547357]]}},{"type":"Feature","properties":{"routeId":"UL74","direction":"2","sourceDate":"20260214"},"geometry":{"type":"LineString","coordinates":[[-0.370302,51.546502],[-0.37183,51.545382],[-0.373917,51.544287],[-0.376423,51.543575],[-0.376934,51.543393],[-0.377159,51.543136],[-0.377051,51.542945],[-0.376697,51.542752],[-0.375186,51.542254],[-0.373083,51.541398],[-0.370484,51.540669],[-0.367863,51.540165],[-0.361951,51.539345],[-0.351434,51.537094],[-0.347001,51.536465],[-0.346522,51.536557],[-0.346213,51.536724],[-0.345433,51.537567],[-0.344616,51.539021],[-0.343052,51.542371],[-0.345617,51.542989],[-0.346447,51.541808],[-0.349402,51.539053],[-0.349426,51.538783],[-0.34936,51.538629],[-0.348528,51.537296],[-0.348408,51.536656],[-0.34726,51.536478],[-0.346321,51.536545],[-0.345615,51.536131],[-0.340941,51.535013],[-0.338216,51.534588],[-0.333652,51.534028],[-0.330886,51.533944],[-0.330077,51.533995],[-0.329739,51.534188],[-0.328508,51.533946],[-0.325713,51.533888],[-0.324176,51.533713],[-0.323999,51.533837],[-0.323963,51.534025],[-0.324307,51.535244],[-0.324281,51.535558],[-0.324104,51.536059],[-0.324253,51.5375],[-0.324118,51.538424],[-0.324135,51.539549],[-0.324243,51.540144],[-0.324619,51.540806],[-0.324653,51.541157],[-0.3214,51.54138],[-0.32084,51.541348],[-0.320064,51.541244],[-0.318921,51.540958],[-0.316929,51.54021],[-0.310469,51.539508],[-0.308553,51.53937],[-0.306218,51.539345],[-0.305863,51.539414],[-0.305706,51.539538],[-0.303808,51.540183],[-0.302443,51.540432],[-0.301878,51.540735],[-0.301756,51.540725],[-0.301009,51.540234],[-0.300523,51.539731],[-0.300078,51.538888],[-0.299227,51.538111],[-0.298655,51.537213],[-0.29751,51.535829],[-0.295639,51.534201],[-0.295435,51.533857],[-0.295218,51.532739],[-0.294664,51.531741],[-0.29424,51.53151],[-0.293202,51.531495],[-0.292822,51.531247],[-0.292617,51.530183],[-0.292271,51.529791],[-0.288351,51.528997],[-0.287087,51.528493],[-0.285445,51.527668],[-0.282592,51.526862],[-0.281716,51.526768],[-0.278172,51.526726],[-0.276777,51.526624],[-0.274125,51.526234],[-0.271625,51.525622],[-0.267393,51.524328],[-0.266129,51.523823],[-0.265114,51.523215],[-0.264541,51.522766],[-0.263795,51.521901],[-0.263661,51.521836],[-0.263132,51.521909],[-0.261835,51.523031],[-0.261569,51.523198],[-0.261264,51.523257],[-0.258563,51.522632],[-0.258454,51.522478],[-0.258459,51.522343],[-0.259378,51.521691],[-0.25985,51.521401],[-0.261225,51.520882],[-0.261691,51.520377],[-0.262079,51.519654],[-0.262046,51.519479],[-0.262212,51.519188],[-0.261635,51.518065],[-0.261055,51.517391],[-0.26051,51.516933],[-0.259835,51.5165],[-0.257043,51.515254],[-0.254708,51.5145],[-0.253321,51.514227],[-0.251844,51.514017],[-0.249224,51.513941],[-0.240876,51.514428],[-0.237725,51.514282],[-0.228862,51.515003],[-0.227918,51.515204],[-0.226184,51.515313],[-0.225812,51.514498],[-0.225847,51.514346],[-0.225691,51.513903],[-0.225027,51.512445],[-0.224766,51.511575]]}}]}