{"type":"FeatureCollection","metadata":{"routeId":"UL78","sourceDate":"20260717","source":"https://bus.data.tfl.gov.uk/bus-geometry/"},"features":[{"type":"Feature","properties":{"routeId":"UL78","direction":"1","sourceDate":"20260717"},"geometry":{"type":"LineString","coordinates":[[-0.478861,51.547672],[-0.479318,51.547454],[-0.478574,51.546833],[-0.478245,51.546756],[-0.478495,51.546607],[-0.478639,51.546626],[-0.478574,51.546833],[-0.479318,51.547454],[-0.474967,51.549474],[-0.473105,51.549945],[-0.470888,51.550689],[-0.471016,51.551149],[-0.470991,51.551922],[-0.470503,51.55313],[-0.470338,51.553748],[-0.469612,51.558199],[-0.469637,51.558298],[-0.470005,51.558519],[-0.470069,51.558762],[-0.469889,51.558976],[-0.469524,51.559079],[-0.468451,51.558831],[-0.465224,51.557836],[-0.459105,51.555768],[-0.455021,51.554977],[-0.454027,51.554506],[-0.453002,51.553683],[-0.45238,51.553324],[-0.451254,51.552913],[-0.450893,51.552918],[-0.450796,51.552826],[-0.44934,51.552376],[-0.448775,51.552431],[-0.44836,51.55319],[-0.448501,51.553273],[-0.448213,51.553701],[-0.44804,51.553698],[-0.44796,51.553922],[-0.448053,51.554571],[-0.448347,51.555276],[-0.448326,51.555869],[-0.448202,51.556137],[-0.447772,51.556482],[-0.4459,51.557222],[-0.445543,51.55755],[-0.445435,51.557755],[-0.445381,51.558078],[-0.44543,51.558331],[-0.445682,51.558963],[-0.446269,51.55996],[-0.446257,51.560293],[-0.446064,51.560884],[-0.445699,51.561428],[-0.444665,51.562565],[-0.443753,51.563928],[-0.443744,51.56418],[-0.443911,51.564371],[-0.442907,51.565464],[-0.441421,51.567557],[-0.439395,51.569005],[-0.438054,51.569814],[-0.435854,51.570846],[-0.435118,51.571277],[-0.43295,51.571797],[-0.431659,51.571986],[-0.431321,51.572161],[-0.431193,51.572115],[-0.429715,51.572293],[-0.427696,51.572275],[-0.423782,51.571953],[-0.421602,51.572391],[-0.421208,51.571675],[-0.421701,51.571619],[-0.421515,51.571563],[-0.421208,51.571675],[-0.421602,51.572391],[-0.421369,51.572451],[-0.416423,51.573193],[-0.415367,51.573251],[-0.411389,51.574357],[-0.409843,51.574399],[-0.401784,51.576232],[-0.398607,51.577066],[-0.397791,51.577356],[-0.395019,51.577785],[-0.393987,51.577583],[-0.389793,51.577831],[-0.383794,51.577694],[-0.382951,51.577871],[-0.382261,51.578204],[-0.382058,51.57821],[-0.379828,51.577613],[-0.378209,51.577284],[-0.375901,51.576857],[-0.374333,51.576718],[-0.373377,51.576813],[-0.369323,51.577584],[-0.368746,51.577576],[-0.368809,51.577424],[-0.370007,51.576086],[-0.370407,51.575504],[-0.370396,51.575405],[-0.370577,51.575201],[-0.371076,51.574146],[-0.371257,51.573528],[-0.37132,51.572981],[-0.37128,51.572016],[-0.370824,51.570708],[-0.370277,51.569873],[-0.365556,51.563918],[-0.361676,51.565077],[-0.361113,51.565088],[-0.360353,51.56496],[-0.359426,51.565046],[-0.358103,51.564938],[-0.356693,51.565241],[-0.356234,51.565163],[-0.355356,51.564683],[-0.354119,51.564189],[-0.352723,51.56488],[-0.350229,51.566823],[-0.350138,51.566966],[-0.350237,51.567012],[-0.350205,51.567102],[-0.349885,51.567169],[-0.347264,51.569021],[-0.350422,51.57027],[-0.353646,51.572105],[-0.353963,51.5721],[-0.35403,51.572236],[-0.353911,51.572333],[-0.353653,51.572303],[-0.350731,51.574096],[-0.350296,51.574539],[-0.349913,51.575173],[-0.347205,51.576204],[-0.343436,51.577338],[-0.342966,51.577349],[-0.342649,51.578064],[-0.342552,51.578765],[-0.342294,51.579112],[-0.342149,51.579505],[-0.342031,51.579576],[-0.341558,51.579506],[-0.340198,51.579586],[-0.339955,51.579519],[-0.338549,51.578888],[-0.337846,51.578401],[-0.337603,51.578136]]}},{"type":"Feature","properties":{"routeId":"UL78","direction":"2","sourceDate":"20260717"},"geometry":{"type":"LineString","coordinates":[[-0.337495,51.578018],[-0.337846,51.578401],[-0.338549,51.578888],[-0.339828,51.579454],[-0.340244,51.579514],[-0.341819,51.579361],[-0.342294,51.579112],[-0.342552,51.578765],[-0.342649,51.578064],[-0.342966,51.577349],[-0.343436,51.577338],[-0.347205,51.576204],[-0.349913,51.575173],[-0.350341,51.574486],[-0.350731,51.574096],[-0.353653,51.572303],[-0.353583,51.57223],[-0.353646,51.572105],[-0.350422,51.57027],[-0.347264,51.569021],[-0.350032,51.56709],[-0.350021,51.566991],[-0.350138,51.566966],[-0.350229,51.566823],[-0.352723,51.56488],[-0.354119,51.564189],[-0.355356,51.564683],[-0.356234,51.565163],[-0.356693,51.565241],[-0.358103,51.564938],[-0.359426,51.565046],[-0.360353,51.56496],[-0.361113,51.565088],[-0.361676,51.565077],[-0.365556,51.563918],[-0.368651,51.567767],[-0.370277,51.569873],[-0.370824,51.570708],[-0.37128,51.572016],[-0.37132,51.572981],[-0.371257,51.573528],[-0.371076,51.574146],[-0.370577,51.575201],[-0.370757,51.575419],[-0.370902,51.575786],[-0.371217,51.57708],[-0.371488,51.577173],[-0.374116,51.576724],[-0.375111,51.576756],[-0.379828,51.577613],[-0.382058,51.57821],[-0.382261,51.578204],[-0.382951,51.577871],[-0.383794,51.577694],[-0.389793,51.577831],[-0.393987,51.577583],[-0.395019,51.577785],[-0.397951,51.577313],[-0.398607,51.577066],[-0.401784,51.576232],[-0.409843,51.574399],[-0.411519,51.574341],[-0.415367,51.573251],[-0.416423,51.573193],[-0.420658,51.572576],[-0.423405,51.571984],[-0.423782,51.571953],[-0.426673,51.572234],[-0.429715,51.572293],[-0.43295,51.571797],[-0.435118,51.571277],[-0.439515,51.568872],[-0.441064,51.567867],[-0.441677,51.567255],[-0.442256,51.566354],[-0.443418,51.564868],[-0.443205,51.564766],[-0.443237,51.564659],[-0.443745,51.564153],[-0.443784,51.563866],[-0.444134,51.563322],[-0.444665,51.562565],[-0.445699,51.561428],[-0.446064,51.560884],[-0.446239,51.560391],[-0.446269,51.55996],[-0.445682,51.558963],[-0.44543,51.558331],[-0.445381,51.558078],[-0.445435,51.557755],[-0.445543,51.55755],[-0.4459,51.557222],[-0.447612,51.556516],[-0.448162,51.556038],[-0.448231,51.555274],[-0.447787,51.554351],[-0.447742,51.553973],[-0.44784,51.553633],[-0.448188,51.553143],[-0.448501,51.553273],[-0.448213,51.553701],[-0.44784,51.553633],[-0.44846,51.552804],[-0.448716,51.552053],[-0.451072,51.552749],[-0.461464,51.55642],[-0.463176,51.556955],[-0.465523,51.557543],[-0.469318,51.558339],[-0.469439,51.558188],[-0.470145,51.553908],[-0.470749,51.552261],[-0.470883,51.551678],[-0.470886,51.551174],[-0.470658,51.550659],[-0.47065,51.550461],[-0.471004,51.548506],[-0.471376,51.547305],[-0.472472,51.546025],[-0.472583,51.545711],[-0.472605,51.545064],[-0.472794,51.545004],[-0.473079,51.545106],[-0.475077,51.546194],[-0.476104,51.546962],[-0.477436,51.548319],[-0.477617,51.548295],[-0.478861,51.547672]]}}]}