{"type":"FeatureCollection","metadata":{"routeId":"UL89","sourceDate":"20260130","source":"https://bus.data.tfl.gov.uk/bus-geometry/"},"features":[{"type":"Feature","properties":{"routeId":"UL89","direction":"1","sourceDate":"20260130"},"geometry":{"type":"LineString","coordinates":[[-0.004199,51.543856],[-0.004123,51.543749],[-0.003908,51.543719],[-0.003888,51.545499],[-0.004094,51.546068],[-0.003198,51.546089],[-0.000974,51.546492],[-0.001403,51.547246],[-0.002987,51.548622],[-0.003189,51.548931],[-0.003375,51.548979],[-0.003342,51.549078],[-0.003538,51.549198],[-0.00499,51.550779],[-0.004156,51.551034],[-0.00442,51.551785],[-0.004991,51.552586],[-0.005244,51.554065],[-0.005326,51.555434],[-0.005467,51.555853],[-0.006939,51.55846],[-0.004648,51.559432],[-0.002406,51.560547],[-0.002219,51.560528],[-0.001789,51.560139],[-0.001601,51.560121],[-0.000218,51.560778],[0.002558,51.560263],[0.002719,51.560305],[0.003,51.560147],[0.004354,51.559764],[0.004721,51.559587],[0.006295,51.558301],[0.006862,51.558115],[0.007358,51.559515],[0.008464,51.561034],[0.009629,51.563244],[0.009834,51.56396],[0.010298,51.566623],[0.010903,51.56832],[0.011247,51.568665],[0.012294,51.569349],[0.014954,51.570761],[0.01601,51.57148],[0.016035,51.571713],[0.015566,51.572531],[0.015637,51.572826],[0.015843,51.572922],[0.016418,51.572885],[0.017175,51.572044],[0.017719,51.571936],[0.018436,51.572003],[0.020075,51.572687],[0.024933,51.574501],[0.026675,51.575073],[0.027998,51.575599],[0.028768,51.576053],[0.030649,51.576479],[0.033539,51.576879],[0.034666,51.577219],[0.035393,51.577341],[0.036576,51.57733],[0.037263,51.577201],[0.039318,51.576365],[0.040751,51.576133],[0.042521,51.57603],[0.042809,51.576128],[0.043388,51.576699],[0.043869,51.576789],[0.044142,51.576766],[0.04468,51.576532],[0.04508,51.576129],[0.045669,51.576056],[0.045694,51.576315]]}},{"type":"Feature","properties":{"routeId":"UL89","direction":"2","sourceDate":"20260130"},"geometry":{"type":"LineString","coordinates":[[0.045394,51.576485],[0.044964,51.57666],[0.044838,51.576529],[0.044834,51.576422],[0.04512,51.576057],[0.045178,51.575723],[0.044945,51.575377],[0.044462,51.575223],[0.042611,51.575777],[0.03944,51.576192],[0.037398,51.577001],[0.036297,51.577227],[0.03498,51.577159],[0.032626,51.576472],[0.02966,51.575975],[0.029091,51.576002],[0.0232,51.573838],[0.023519,51.573545],[0.023597,51.573355],[0.023478,51.569743],[0.019056,51.569872],[0.018657,51.569996],[0.017232,51.570731],[0.01607,51.570876],[0.015645,51.571063],[0.013151,51.569811],[0.011928,51.570603],[0.010816,51.569869],[0.010127,51.56962],[0.009739,51.56933],[0.009345,51.569247],[0.008734,51.568475],[0.008799,51.568312],[0.009004,51.56841],[0.010903,51.56832],[0.010298,51.566623],[0.009834,51.56396],[0.009629,51.563244],[0.008464,51.561034],[0.007358,51.559515],[0.006862,51.558115],[0.006295,51.558301],[0.004721,51.559587],[0.004354,51.559764],[0.001501,51.560496],[-9.2e-05,51.560739],[-0.000981,51.560432],[-0.002623,51.55956],[-0.006592,51.557925],[-0.005467,51.555853],[-0.005326,51.555434],[-0.005244,51.554065],[-0.004991,51.552586],[-0.00442,51.551785],[-0.004156,51.551034],[-0.00499,51.550779],[-0.003538,51.549198],[-0.003342,51.549078],[-0.003375,51.548979],[-0.003189,51.548931],[-0.002987,51.548622],[-0.001403,51.547246],[-0.000974,51.546492],[-0.003198,51.546089],[-0.004094,51.546068],[-0.003888,51.545499],[-0.003908,51.543719],[-0.004172,51.543685],[-0.004242,51.543304]]}}]}