{"type":"FeatureCollection","metadata":{"routeId":"UL9","sourceDate":"20260816","source":"https://bus.data.tfl.gov.uk/bus-geometry/"},"features":[{"type":"Feature","properties":{"routeId":"UL9","direction":"1","sourceDate":"20260816"},"geometry":{"type":"LineString","coordinates":[[-0.245584,51.532251],[-0.24661,51.532489],[-0.247171,51.53177],[-0.248009,51.530964],[-0.248786,51.529888],[-0.250529,51.528403],[-0.250929,51.528139],[-0.252213,51.527735],[-0.256249,51.525116],[-0.257267,51.524124],[-0.258593,51.522228],[-0.25985,51.521401],[-0.261225,51.520882],[-0.261691,51.520377],[-0.262212,51.519188],[-0.261635,51.518065],[-0.261055,51.517391],[-0.260159,51.516694],[-0.258774,51.51599],[-0.256389,51.51501],[-0.254708,51.5145],[-0.251844,51.514017],[-0.249022,51.513956],[-0.248181,51.512964],[-0.249009,51.512796],[-0.249741,51.51287],[-0.252272,51.512647],[-0.254613,51.512106],[-0.256139,51.511961],[-0.256485,51.511766],[-0.256749,51.511266],[-0.257687,51.510471],[-0.25784,51.509861],[-0.25755,51.509156],[-0.256856,51.506556],[-0.260176,51.506416],[-0.266565,51.506654],[-0.266369,51.506121],[-0.267892,51.505865],[-0.267572,51.505168],[-0.266646,51.503742],[-0.265941,51.503336],[-0.265761,51.503144],[-0.265657,51.502864],[-0.265686,51.502478],[-0.258432,51.50264],[-0.258174,51.502601],[-0.257879,51.502425],[-0.257174,51.501246],[-0.256831,51.501169],[-0.255941,51.496938],[-0.255298,51.495679],[-0.255353,51.492712],[-0.260563,51.492457],[-0.26248,51.49244],[-0.266606,51.492672],[-0.269103,51.492916],[-0.270441,51.492944],[-0.271598,51.492844],[-0.273525,51.492531],[-0.280577,51.491951],[-0.280872,51.491758],[-0.281034,51.491284],[-0.281213,51.491133],[-0.282068,51.491002],[-0.282868,51.491158],[-0.283245,51.491091],[-0.284532,51.490579],[-0.287159,51.489296],[-0.287502,51.4886],[-0.287368,51.484488],[-0.286767,51.48285],[-0.286879,51.482617],[-0.287683,51.481831],[-0.289778,51.479362],[-0.290268,51.478559],[-0.291423,51.475798],[-0.292242,51.47429],[-0.293313,51.471455],[-0.293788,51.469519],[-0.294033,51.469136],[-0.297041,51.466851],[-0.299181,51.465425],[-0.299237,51.465084],[-0.299111,51.464984],[-0.299187,51.464877],[-0.300759,51.464423],[-0.301748,51.463738]]}},{"type":"Feature","properties":{"routeId":"UL9","direction":"2","sourceDate":"20260816"},"geometry":{"type":"LineString","coordinates":[[-0.301748,51.463738],[-0.301989,51.463551],[-0.303359,51.461457],[-0.303293,51.461321],[-0.303021,51.461264],[-0.302957,51.461056],[-0.302079,51.460288],[-0.302099,51.460135],[-0.303112,51.459988],[-0.304203,51.459671],[-0.305186,51.45955],[-0.306065,51.459545],[-0.306302,51.459428],[-0.306377,51.459676],[-0.306181,51.459906],[-0.304117,51.460971],[-0.303359,51.461457],[-0.301989,51.463551],[-0.300685,51.464467],[-0.300627,51.46488],[-0.299684,51.465073],[-0.299463,51.465205],[-0.298604,51.465858],[-0.297041,51.466851],[-0.296061,51.467655],[-0.294152,51.46903],[-0.293866,51.469377],[-0.293313,51.471455],[-0.292242,51.47429],[-0.291423,51.475798],[-0.290268,51.478559],[-0.289687,51.479477],[-0.287683,51.481831],[-0.286829,51.482709],[-0.287368,51.484488],[-0.287502,51.4886],[-0.287616,51.488628],[-0.287668,51.488782],[-0.28754,51.489122],[-0.284558,51.49067],[-0.28269,51.491344],[-0.282722,51.491614],[-0.282661,51.491694],[-0.282193,51.491894],[-0.281331,51.491809],[-0.280779,51.491936],[-0.273032,51.492623],[-0.270441,51.492944],[-0.269103,51.492916],[-0.266606,51.492672],[-0.26248,51.49244],[-0.260563,51.492457],[-0.255353,51.492712],[-0.255298,51.495679],[-0.255941,51.496938],[-0.256831,51.501169],[-0.257174,51.501246],[-0.257879,51.502425],[-0.258174,51.502601],[-0.258432,51.50264],[-0.265686,51.502478],[-0.265657,51.502864],[-0.26583,51.503244],[-0.266646,51.503742],[-0.267572,51.505168],[-0.26816,51.50639],[-0.268167,51.506588],[-0.267989,51.50672],[-0.262885,51.506468],[-0.260176,51.506416],[-0.256856,51.506556],[-0.25755,51.509156],[-0.257793,51.509573],[-0.25784,51.509861],[-0.257687,51.510471],[-0.256749,51.511266],[-0.256485,51.511766],[-0.256139,51.511961],[-0.254613,51.512106],[-0.252272,51.512647],[-0.252129,51.5126],[-0.24935,51.512927],[-0.249144,51.513092],[-0.249136,51.513608],[-0.249416,51.513819],[-0.251245,51.513864],[-0.253998,51.514238],[-0.255654,51.514649],[-0.257602,51.515352],[-0.259965,51.516484],[-0.260851,51.517073],[-0.261463,51.517666],[-0.262349,51.519145],[-0.262792,51.51949],[-0.264633,51.519953],[-0.264416,51.520363],[-0.263459,51.52168],[-0.262118,51.522779],[-0.261233,51.522363],[-0.259378,51.521691],[-0.258429,51.522369],[-0.257403,51.523955],[-0.256249,51.525116],[-0.255404,51.525724],[-0.252213,51.527735],[-0.250929,51.528139],[-0.250529,51.528403],[-0.248786,51.529888],[-0.248009,51.530964],[-0.247171,51.53177],[-0.24661,51.532489],[-0.245196,51.532159]]}}]}