{"type":"FeatureCollection","metadata":{"routeId":"UL90","sourceDate":"20260313","source":"https://bus.data.tfl.gov.uk/bus-geometry/"},"features":[{"type":"Feature","properties":{"routeId":"UL90","direction":"1","sourceDate":"20260313"},"geometry":{"type":"LineString","coordinates":[[-0.592364,51.511754],[-0.593943,51.511953],[-0.594277,51.511885],[-0.59483,51.510776],[-0.595126,51.510528],[-0.595402,51.510451],[-0.597524,51.510323],[-0.598689,51.510409],[-0.603747,51.511333],[-0.608008,51.511509],[-0.612459,51.512506],[-0.612557,51.512597],[-0.612604,51.513434],[-0.612453,51.515096],[-0.612502,51.515357],[-0.612874,51.51591],[-0.614557,51.517458],[-0.614874,51.517921],[-0.615148,51.520195],[-0.616483,51.520119],[-0.620921,51.521004],[-0.623676,51.521423],[-0.626083,51.521901],[-0.627009,51.522281],[-0.62867,51.522624],[-0.63816,51.524371],[-0.638579,51.524349],[-0.639001,51.524219],[-0.641036,51.523172],[-0.641721,51.522919],[-0.643229,51.523108],[-0.644473,51.523428],[-0.644971,51.52364],[-0.64555,51.523566],[-0.645759,51.524288],[-0.646511,51.525178],[-0.647995,51.526688],[-0.648746,51.527101],[-0.650811,51.527988],[-0.653111,51.529669],[-0.655005,51.529475],[-0.6569,51.528777],[-0.658363,51.528533],[-0.660004,51.527608],[-0.660398,51.527477],[-0.663223,51.526997],[-0.665762,51.526927],[-0.666384,51.526835],[-0.666777,51.526723],[-0.666779,51.526651],[-0.669463,51.526546],[-0.671722,51.526194],[-0.674265,51.525998],[-0.674544,51.525318],[-0.675153,51.524219],[-0.679927,51.524138],[-0.680919,51.523699],[-0.685911,51.523054],[-0.689481,51.522707],[-0.689903,51.522577],[-0.692168,51.523025],[-0.695143,51.52331],[-0.697307,51.523757],[-0.699404,51.524005],[-0.703328,51.523913],[-0.703743,51.524008],[-0.704135,51.523913],[-0.705622,51.52384],[-0.709832,51.523787],[-0.712012,51.523667],[-0.712874,51.523776],[-0.714436,51.524125],[-0.715188,51.524026],[-0.715654,51.524381],[-0.717261,51.524624],[-0.718255,51.524644],[-0.719687,51.524471],[-0.720185,51.524188],[-0.720888,51.524313],[-0.721874,51.524108],[-0.722821,51.523749],[-0.724082,51.52299],[-0.724443,51.522445],[-0.724409,51.522094],[-0.723364,51.520293],[-0.723054,51.519553],[-0.722841,51.519443],[-0.722002,51.519541],[-0.721687,51.519448],[-0.721561,51.51933],[-0.721307,51.518779]]}},{"type":"Feature","properties":{"routeId":"UL90","direction":"2","sourceDate":"20260313"},"geometry":{"type":"LineString","coordinates":[[-0.721685,51.519083],[-0.721863,51.519351],[-0.722148,51.519462],[-0.722901,51.519326],[-0.723145,51.519383],[-0.723539,51.520323],[-0.724733,51.522376],[-0.725091,51.522461],[-0.725216,51.522651],[-0.724858,51.52307],[-0.724078,51.523143],[-0.722599,51.523963],[-0.721059,51.524387],[-0.720458,51.524749],[-0.720226,51.5248],[-0.719597,51.524613],[-0.717878,51.524748],[-0.71588,51.524537],[-0.715054,51.524699],[-0.714602,51.524352],[-0.714218,51.524177],[-0.713043,51.523903],[-0.711909,51.523747],[-0.705622,51.52384],[-0.704135,51.523913],[-0.703743,51.524008],[-0.703328,51.523913],[-0.699404,51.524005],[-0.697307,51.523757],[-0.695143,51.52331],[-0.692168,51.523025],[-0.689903,51.522577],[-0.689481,51.522707],[-0.685911,51.523054],[-0.680919,51.523699],[-0.679927,51.524138],[-0.675153,51.524219],[-0.674544,51.525318],[-0.674265,51.525998],[-0.671722,51.526194],[-0.669463,51.526546],[-0.666779,51.526651],[-0.666777,51.526723],[-0.666384,51.526835],[-0.665762,51.526927],[-0.663223,51.526997],[-0.660398,51.527477],[-0.660004,51.527608],[-0.658363,51.528533],[-0.6569,51.528777],[-0.655005,51.529475],[-0.653111,51.529669],[-0.650811,51.527988],[-0.648746,51.527101],[-0.647995,51.526688],[-0.646511,51.525178],[-0.645696,51.52421],[-0.644971,51.52364],[-0.64555,51.523566],[-0.645722,51.524081],[-0.645696,51.52421],[-0.644971,51.52364],[-0.644473,51.523428],[-0.642942,51.523051],[-0.641721,51.522919],[-0.641036,51.523172],[-0.639001,51.524219],[-0.638579,51.524349],[-0.63816,51.524371],[-0.63036,51.522994],[-0.627009,51.522281],[-0.626083,51.521901],[-0.623676,51.521423],[-0.620921,51.521004],[-0.616607,51.520162],[-0.615148,51.520195],[-0.614874,51.517921],[-0.614557,51.517458],[-0.613405,51.516456],[-0.612542,51.515456],[-0.612453,51.515096],[-0.612586,51.514036],[-0.612556,51.513586],[-0.612424,51.513092],[-0.611913,51.512464],[-0.608047,51.511626],[-0.603041,51.511342],[-0.599604,51.510654],[-0.598039,51.510455],[-0.594716,51.510712],[-0.59233,51.51038],[-0.59158,51.511484],[-0.591662,51.511629],[-0.592364,51.511754]]}}]}