{"type":"FeatureCollection","metadata":{"routeId":"W11","sourceDate":"20260717","source":"https://bus.data.tfl.gov.uk/bus-geometry/"},"features":[{"type":"Feature","properties":{"routeId":"W11","direction":"1","sourceDate":"20260717"},"geometry":{"type":"MultiLineString","coordinates":[[[-0.025009,51.609347],[-0.025014,51.609802],[-0.024093,51.609724],[-0.023945,51.608489],[-0.02141,51.608663],[-0.017605,51.609479],[-0.017073,51.608428],[-0.01669,51.605615],[-0.016489,51.604919],[-0.016495,51.603085],[-0.016804,51.603009],[-0.017511,51.603003],[-0.019433,51.602658],[-0.020913,51.603493],[-0.020094,51.604063],[-0.019078,51.603506],[-0.019694,51.603292],[-0.020024,51.603324],[-0.020188,51.603219],[-0.02018,51.603076],[-0.019037,51.602463],[-0.018984,51.602336],[-0.017438,51.601374],[-0.017011,51.601241],[-0.017131,51.601126],[-0.017152,51.600974],[-0.016793,51.60059],[-0.017729,51.600669],[-0.018978,51.600492],[-0.020824,51.600388],[-0.021877,51.600244],[-0.024108,51.599743],[-0.025432,51.599586],[-0.029373,51.599649],[-0.033193,51.599356],[-0.033171,51.599202],[-0.032798,51.5988],[-0.032418,51.598587],[-0.031742,51.598329],[-0.0302,51.598086],[-0.029202,51.597823],[-0.028426,51.597405],[-0.027746,51.596764],[-0.027462,51.59631],[-0.027122,51.596169],[-0.027088,51.595278],[-0.026743,51.594589],[-0.026643,51.594219],[-0.026622,51.593722],[-0.026806,51.593124],[-0.026766,51.593043],[-0.027095,51.592788],[-0.028523,51.592488],[-0.028983,51.592199],[-0.02919,51.59142],[-0.029148,51.59007],[-0.029211,51.589604],[-0.029145,51.589468],[-0.02995,51.589211],[-0.030642,51.58889],[-0.034019,51.587913],[-0.040584,51.587215],[-0.04048,51.58711],[-0.040317,51.586481],[-0.040206,51.586371],[-0.037917,51.584995],[-0.03764,51.584628],[-0.037331,51.58376],[-0.037083,51.583468],[-0.035675,51.582995],[-0.034403,51.582085],[-0.03417,51.581746],[-0.033645,51.581522],[-0.032998,51.580801],[-0.032688,51.579968],[-0.032564,51.579813],[-0.031009,51.580066],[-0.030376,51.580361],[-0.028959,51.58076],[-0.028198,51.581314],[-0.028119,51.581492],[-0.028223,51.582087],[-0.027973,51.5822],[-0.021447,51.582945]],[[-0.025009,51.609347],[-0.025014,51.609802],[-0.024093,51.609724],[-0.023945,51.608489],[-0.02141,51.608663],[-0.017605,51.609479],[-0.017073,51.608428],[-0.01669,51.605615],[-0.016489,51.604919],[-0.016495,51.603085],[-0.016804,51.603009],[-0.017511,51.603003],[-0.019433,51.602658],[-0.020913,51.603493],[-0.020094,51.604063],[-0.019078,51.603506],[-0.019694,51.603292],[-0.020024,51.603324],[-0.020188,51.603219],[-0.02018,51.603076],[-0.019037,51.602463],[-0.018984,51.602336],[-0.017438,51.601374],[-0.017011,51.601241],[-0.017131,51.601126],[-0.017152,51.600974],[-0.016793,51.60059],[-0.017729,51.600669],[-0.018978,51.600492],[-0.020824,51.600388],[-0.021877,51.600244],[-0.024108,51.599743],[-0.025432,51.599586],[-0.030424,51.599615],[-0.033193,51.599356],[-0.033171,51.599202],[-0.032686,51.598726],[-0.031742,51.598329],[-0.0302,51.598086],[-0.029202,51.597823],[-0.028426,51.597405],[-0.027746,51.596764],[-0.027462,51.59631],[-0.027122,51.596169],[-0.027088,51.595278],[-0.026743,51.594589],[-0.026643,51.594219],[-0.026622,51.593722],[-0.026806,51.593124],[-0.026766,51.593043],[-0.027183,51.592753],[-0.028304,51.592556],[-0.02867,51.592436],[-0.028983,51.592199],[-0.02917,51.591878],[-0.029148,51.59007],[-0.029211,51.589604],[-0.029145,51.589468],[-0.023276,51.590295],[-0.021228,51.590792],[-0.020207,51.590828],[-0.017363,51.590159],[-0.018342,51.589564],[-0.019929,51.588917],[-0.020137,51.588786],[-0.020715,51.588112],[-0.020796,51.587541],[-0.020723,51.587267],[-0.020415,51.586704],[-0.019842,51.586272],[-0.01953,51.585354],[-0.019478,51.585016],[-0.01953,51.584828],[-0.018904,51.583288],[-0.020382,51.583096],[-0.020363,51.583268],[-0.020169,51.583409],[-0.02017,51.583629]]]}},{"type":"Feature","properties":{"routeId":"W11","direction":"2","sourceDate":"20260717"},"geometry":{"type":"MultiLineString","coordinates":[[[-0.020518,51.584004],[-0.020523,51.583226],[-0.020428,51.583089],[-0.024369,51.582568],[-0.027973,51.5822],[-0.028223,51.582087],[-0.028119,51.581492],[-0.028198,51.581314],[-0.028959,51.58076],[-0.030376,51.580361],[-0.030699,51.580231],[-0.030925,51.580011],[-0.031385,51.580045],[-0.032564,51.579813],[-0.032688,51.579968],[-0.032998,51.580801],[-0.033645,51.581522],[-0.03417,51.581746],[-0.034403,51.582085],[-0.035675,51.582995],[-0.037083,51.583468],[-0.037371,51.583841],[-0.037645,51.584636],[-0.037917,51.584995],[-0.040206,51.586371],[-0.040581,51.587096],[-0.040584,51.587215],[-0.040344,51.587277],[-0.034019,51.587913],[-0.030642,51.58889],[-0.029906,51.589229],[-0.029145,51.589468],[-0.029211,51.589604],[-0.029148,51.59007],[-0.02919,51.59142],[-0.02917,51.591878],[-0.02906,51.592083],[-0.02867,51.592436],[-0.027095,51.592788],[-0.026792,51.593115],[-0.026614,51.593901],[-0.026666,51.594372],[-0.027088,51.595278],[-0.027122,51.596169],[-0.027462,51.59631],[-0.027746,51.596764],[-0.028426,51.597405],[-0.029202,51.597823],[-0.0302,51.598086],[-0.031742,51.598329],[-0.032418,51.598587],[-0.032798,51.5988],[-0.033171,51.599202],[-0.033193,51.599356],[-0.030424,51.599615],[-0.025432,51.599586],[-0.024108,51.599743],[-0.021412,51.600318],[-0.017845,51.600644],[-0.017436,51.600745],[-0.017152,51.600974],[-0.017025,51.601233],[-0.016863,51.601311],[-0.016608,51.601855],[-0.01656,51.602637],[-0.016631,51.602665],[-0.016646,51.602971],[-0.017511,51.603003],[-0.019433,51.602658],[-0.020913,51.603493],[-0.020094,51.604063],[-0.019078,51.603506],[-0.019694,51.603292],[-0.019981,51.603333],[-0.020204,51.603184],[-0.02018,51.603076],[-0.019433,51.602658],[-0.016623,51.603168],[-0.016531,51.603326],[-0.016489,51.604919],[-0.01669,51.605615],[-0.017048,51.608309],[-0.017244,51.608799],[-0.020774,51.608346],[-0.020914,51.60878],[-0.022093,51.608575],[-0.024873,51.608415],[-0.025009,51.609347]],[[-0.020518,51.584004],[-0.020523,51.583226],[-0.020428,51.583089],[-0.018904,51.583288],[-0.01953,51.584828],[-0.019478,51.585016],[-0.019557,51.585529],[-0.019842,51.586272],[-0.020307,51.586559],[-0.020723,51.587267],[-0.020821,51.587655],[-0.020715,51.588112],[-0.020137,51.588786],[-0.019929,51.588917],[-0.018342,51.589564],[-0.017363,51.590159],[-0.017709,51.590258],[-0.017363,51.590159],[-0.018342,51.589564],[-0.020092,51.588821],[-0.020715,51.588112],[-0.020821,51.587655],[-0.020723,51.587267],[-0.020307,51.586559],[-0.019842,51.586272],[-0.019557,51.585529],[-0.019478,51.585016],[-0.019541,51.5849],[-0.019623,51.585],[-0.019685,51.585483],[-0.019619,51.585582],[-0.019842,51.586272],[-0.020307,51.586559],[-0.020723,51.587267],[-0.020821,51.587655],[-0.020715,51.588112],[-0.020092,51.588821],[-0.018342,51.589564],[-0.017363,51.590159],[-0.020293,51.590838],[-0.021306,51.590784],[-0.023756,51.590213],[-0.029145,51.589468],[-0.029211,51.589604],[-0.029148,51.59007],[-0.02919,51.59142],[-0.02917,51.591878],[-0.02906,51.592083],[-0.02867,51.592436],[-0.027095,51.592788],[-0.026901,51.592937],[-0.026693,51.593401],[-0.026614,51.593901],[-0.026666,51.594372],[-0.027088,51.595278],[-0.027122,51.596169],[-0.027462,51.59631],[-0.027746,51.596764],[-0.028426,51.597405],[-0.029202,51.597823],[-0.0302,51.598086],[-0.031742,51.598329],[-0.032686,51.598726],[-0.033171,51.599202],[-0.033193,51.599356],[-0.030424,51.599615],[-0.025432,51.599586],[-0.024108,51.599743],[-0.021412,51.600318],[-0.017845,51.600644],[-0.017436,51.600745],[-0.017152,51.600974],[-0.017025,51.601233],[-0.016863,51.601311],[-0.016608,51.601855],[-0.01656,51.602637],[-0.016631,51.602665],[-0.016646,51.602971],[-0.017511,51.603003],[-0.019433,51.602658],[-0.020913,51.603493],[-0.020094,51.604063],[-0.019078,51.603506],[-0.019694,51.603292],[-0.019981,51.603333],[-0.020204,51.603184],[-0.02018,51.603076],[-0.019433,51.602658],[-0.016623,51.603168],[-0.016531,51.603326],[-0.016489,51.604919],[-0.01669,51.605615],[-0.017048,51.608309],[-0.017244,51.608799],[-0.020774,51.608346],[-0.020914,51.60878],[-0.022093,51.608575],[-0.024873,51.608415],[-0.025009,51.609347]]]}}]}