{"type":"FeatureCollection","metadata":{"routeId":"W7","sourceDate":"20251223","source":"https://bus.data.tfl.gov.uk/bus-geometry/"},"features":[{"type":"Feature","properties":{"routeId":"W7","direction":"1","sourceDate":"20251223"},"geometry":{"type":"LineString","coordinates":[[-0.142063,51.591259],[-0.141865,51.59119],[-0.141841,51.591081],[-0.139677,51.590328],[-0.13718,51.589254],[-0.134496,51.587826],[-0.133973,51.587378],[-0.133652,51.586572],[-0.132385,51.585077],[-0.128809,51.583222],[-0.12788,51.582667],[-0.126548,51.581693],[-0.125195,51.580907],[-0.124047,51.580403],[-0.123866,51.579879],[-0.123676,51.579597],[-0.12379,51.579484],[-0.123939,51.578477],[-0.123019,51.576969],[-0.122621,51.576469],[-0.12126,51.574091],[-0.120361,51.572844],[-0.119364,51.572172],[-0.118036,51.571467],[-0.116477,51.570795],[-0.115184,51.570648],[-0.111897,51.569193],[-0.109074,51.567672],[-0.108036,51.566945],[-0.1072,51.56623],[-0.108219,51.565671],[-0.107864,51.565395]]}},{"type":"Feature","properties":{"routeId":"W7","direction":"2","sourceDate":"20251223"},"geometry":{"type":"LineString","coordinates":[[-0.107063,51.565724],[-0.106722,51.565926],[-0.108905,51.567562],[-0.110709,51.568607],[-0.115184,51.570648],[-0.116719,51.570879],[-0.118969,51.571941],[-0.120361,51.572844],[-0.12126,51.574091],[-0.122621,51.576469],[-0.123019,51.576969],[-0.12375,51.57815],[-0.124003,51.578307],[-0.12385,51.578817],[-0.12379,51.579484],[-0.124047,51.580403],[-0.125195,51.580907],[-0.126548,51.581693],[-0.12788,51.582667],[-0.128809,51.583222],[-0.132385,51.585077],[-0.133652,51.586572],[-0.133973,51.587378],[-0.134496,51.587826],[-0.136514,51.588947],[-0.139677,51.590328],[-0.141413,51.59094],[-0.142176,51.590963]]}}]}