{"type":"FeatureCollection","metadata":{"source":"http://www.londonbusroutes.net/garages.htm","csv_url":"http://www.londonbusroutes.net/garages.csv","source_date":"unknown","licence":"Open Government Licence v3.0"},"features":[{"type":"Feature","geometry":{"type":"Point","coordinates":[-0.19923,51.369141]},"properties":{"Group name":"Go-Ahead","Company name":"London General Transport Services Ltd","LBR garage code":"A","Garage name":"Sutton","Garage address":"Bushey Road, Sutton, SM1 1QJ","TfL main network routes":"80 93 151 154 213 S2","TfL night routes":"93 213","TfL school/mobility routes":"","Other routes":"","PVR":"86","TfL garage code":"A","Proportion of network":"1.16%","_geocode_source":"postcodes.io","_geocode_postcode":"SM1 1QJ","_geocode_admin_district":"Sutton","_geocode_country":"England"}},{"type":"Feature","geometry":{"type":"Point","coordinates":[-0.238288,51.548365]},"properties":{"Group name":"Metroline","Company name":"Metroline Travel Ltd.","LBR garage code":"AC","Garage name":"Willesden","Garage address":"287 High Road, Willesden, London, NW10 2JY","TfL main network routes":"6 52 98 260 302 460","TfL night routes":"6 52","TfL school/mobility routes":"","Other routes":"","PVR":"100","TfL garage code":"AC","Proportion of network":"1.35%","_geocode_source":"postcodes.io","_geocode_postcode":"NW10 2JY","_geocode_admin_district":"Brent","_geocode_country":"England"}},{"type":"Feature","geometry":{"type":"Point","coordinates":[-0.108213,51.612839]},"properties":{"Group name":"Arriva","Company name":"Arriva London North Ltd.","LBR garage code":"AD","Garage name":"Palmers Green","Garage address":"Regents Avenue, Palmers Green, London, N13 5UR","TfL main network routes":"34 102 141 SL1","TfL night routes":"102","TfL school/mobility routes":"675","Other routes":"","PVR":"81","TfL garage code":"AD","Proportion of network":"1.09%","_geocode_source":"postcodes.io","_geocode_postcode":"N13 5UR","_geocode_admin_district":"Enfield","_geocode_country":"England"}},{"type":"Feature","geometry":{"type":"Point","coordinates":[-0.057655,51.53572]},"properties":{"Group name":"Arriva","Company name":"Arriva London North Ltd.","LBR garage code":"AE","Garage name":"Ash Grove","Garage address":"Mare Street, South Hackney, London, E8 4RH","TfL main network routes":"","TfL night routes":"","TfL school/mobility routes":"","Other routes":"","PVR":"0","TfL garage code":"AE","Proportion of network":"0.00%","_geocode_source":"postcodes.io","_geocode_postcode":"E8 4RH","_geocode_admin_district":"Hackney","_geocode_country":"England"}},{"type":"Feature","geometry":{"type":"Point","coordinates":[-0.217993,51.462368]},"properties":{"Group name":"Go-Ahead","Company name":"London General Transport Services Ltd","LBR garage code":"AF","Garage name":"Putney","Garage address":"10 Chelverton Road, London, SW15 1RN","TfL main network routes":"14 22 39 74 265 430","TfL night routes":"14 N22 N74 N97","TfL school/mobility routes":"","Other routes":"","PVR":"94","TfL garage code":"AF","Proportion of network":"1.26%","_geocode_source":"postcodes.io","_geocode_postcode":"SW15 1RN","_geocode_admin_district":"Wandsworth","_geocode_country":"England"}},{"type":"Feature","geometry":{"type":"Point","coordinates":[-0.314707,51.483833]},"properties":{"Group name":"Metroline","Company name":"Metroline Travel Ltd.","LBR garage code":"AH","Garage name":"Brentford","Garage address":"Commerce Road, Brentford, Middlesex, TW8 8LZ","TfL main network routes":"9 190 237 481 E2 E8 H91","TfL night routes":"N9","TfL school/mobility routes":"","Other routes":"","PVR":"96","TfL garage code":"AH","Proportion of network":"1.29%","_geocode_source":"postcodes.io","_geocode_postcode":"TW8 8LZ","_geocode_admin_district":"Hounslow","_geocode_country":"England"}},{"type":"Feature","geometry":{"type":"Point","coordinates":[-0.181662,51.416567]},"properties":{"Group name":"Go-Ahead","Company name":"London General Transport Services Ltd","LBR garage code":"AL","Garage name":"Merton","Garage address":"High Street, London, SW19 1DN","TfL main network routes":"57 131 152 157 163 164 200 219 413 493","TfL night routes":"57","TfL school/mobility routes":"163","Other routes":"","PVR":"146","TfL garage code":"AL","Proportion of network":"1.96%","_geocode_source":"postcodes.io","_geocode_postcode":"SW19 1DN","_geocode_admin_district":"Merton","_geocode_country":"England"}},{"type":"Feature","geometry":{"type":"Point","coordinates":[-0.302711,51.537651]},"properties":{"Group name":"Metroline","Company name":"Metroline Travel Ltd.","LBR garage code":"AO","Garage name":"Athlon Road","Garage address":"Unit 1-3, Capital Business Centre Athlon Road, Wembley, HA0 1YU","TfL main network routes":"83 224 245","TfL night routes":"","TfL school/mobility routes":"","Other routes":"","PVR":"34","TfL garage code":"AO","Proportion of network":"0.46%","_geocode_source":"postcodes.io","_geocode_postcode":"HA0 1YU","_geocode_admin_district":"Brent","_geocode_country":"England"}},{"type":"Feature","geometry":{"type":"Point","coordinates":[-0.072359,51.588722]},"properties":{"Group name":"Arriva","Company name":"Arriva London North Ltd.","LBR garage code":"AR","Garage name":"Tottenham","Garage address":"Philip Lane, Tottenham, London, N15 4JB","TfL main network routes":"41 123 149 243 259 341 349","TfL night routes":"123 149 243 341 N41","TfL school/mobility routes":"","Other routes":"","PVR":"144","TfL garage code":"AR","Proportion of network":"1.94%","_geocode_source":"postcodes.io","_geocode_postcode":"N15 4JB","_geocode_admin_district":"Haringey","_geocode_country":"England"}},{"type":"Feature","geometry":{"type":"Point","coordinates":[-0.355561,51.471985]},"properties":{"Group name":"First","Company name":"London United Busways Ltd","LBR garage code":"AV","Garage name":"Hounslow","Garage address":"Kingsley Road, Hounslow, TW3 1PA","TfL main network routes":"110 117 203 419 H22 H37 H98","TfL night routes":"","TfL school/mobility routes":"695 696 698","Other routes":"","PVR":"88","TfL garage code":"AV","Proportion of network":"1.18%","_geocode_source":"postcodes.io","_geocode_postcode":"TW3 1PA","_geocode_admin_district":"Hounslow","_geocode_country":"England"}},{"type":"Feature","geometry":{"type":"Point","coordinates":[-0.017188,51.60255]},"properties":{"Group name":"Stagecoach London","Company name":"East London Bus &amp; Coach Co. Ltd.","LBR garage code":"AW","Garage name":"Walthamstow Avenue","Garage address":"Walthamstow Avenue, London, E4 8SP","TfL main network routes":"379 385 397 W11 W12 W16 W19 W5","TfL night routes":"","TfL school/mobility routes":"","Other routes":"","PVR":"68","TfL garage code":"AW","Proportion of network":"0.91%","_geocode_source":"postcodes.io","_geocode_postcode":"E4 8SP","_geocode_admin_district":"Waltham Forest","_geocode_country":"England"}},{"type":"Feature","geometry":{"type":"Point","coordinates":[-0.133069,51.383331]},"properties":{"Group name":"Transport UK","Company name":"Transport UK London Bus Ltd.","LBR garage code":"BC","Garage name":"Beddington","Garage address":"Unit 10, Beddington Cross, Beddington Farm Road, Croydon, CR0 4XH","TfL main network routes":"109 130 201 270 315 367 404 407 433 464 S1 S3","TfL night routes":"N109","TfL school/mobility routes":"655","Other routes":"","PVR":"132","TfL garage code":"BC","Proportion of network":"1.78%","_geocode_source":"postcodes.io","_geocode_postcode":"CR0 4XH","_geocode_admin_district":"Sutton","_geocode_country":"England"}},{"type":"Feature","geometry":{"type":"Point","coordinates":[0.095221,51.547054]},"properties":{"Group name":"Stagecoach London","Company name":"East London Bus &amp; Coach Co. Ltd.","LBR garage code":"BK","Garage name":"Barking","Garage address":"205 Longbridge Road, Barking, Essex, IG11 8UE","TfL main network routes":"62 145 167 169 173 179 238 362 462","TfL night routes":"238 N551","TfL school/mobility routes":"667","Other routes":"","PVR":"105","TfL garage code":"BK","Proportion of network":"1.41%","_geocode_source":"postcodes.io","_geocode_postcode":"IG11 8UE","_geocode_admin_district":"Redbridge","_geocode_country":"England"}},{"type":"Feature","geometry":{"type":"Point","coordinates":[-0.12373,51.446122]},"properties":{"Group name":"Arriva","Company name":"Arriva London South Ltd.","LBR garage code":"","Garage name":"Brixton Hill","Garage address":"239 Brixton Hill, London, SW2 1NR","TfL main network routes":"50 59 137 319 417","TfL night routes":"N137","TfL school/mobility routes":"","Other routes":"","PVR":"94","TfL garage code":"BN","Proportion of network":"1.26%","_geocode_source":"postcodes.io","_geocode_postcode":"SW2 1NR","_geocode_admin_district":"Lambeth","_geocode_country":"England"}},{"type":"Feature","geometry":{"type":"Point","coordinates":[-0.12373,51.446122]},"properties":{"Group name":"Arriva","Company name":"Arriva London South Ltd.","LBR garage code":"","Garage name":"Brixton Hill","Garage address":"239 Brixton Hill, London, SW2 1NR","TfL main network routes":"","TfL night routes":"","TfL school/mobility routes":"","Other routes":"","PVR":"","TfL garage code":"BN","Proportion of network":"0.00%","_geocode_source":"postcodes.io","_geocode_postcode":"SW2 1NR","_geocode_admin_district":"Lambeth","_geocode_country":"England"}},{"type":"Feature","geometry":{"type":"Point","coordinates":[-0.273136,51.611541]},"properties":{"Group name":"First","Company name":"London Sovereign Limited","LBR garage code":"BT","Garage name":"Edgware","Garage address":"Approach Road, Edgware, Middlesex, HA8 7AN","TfL main network routes":"79 125 226 326 340 H12","TfL night routes":"N5","TfL school/mobility routes":"","Other routes":"","PVR":"85","TfL garage code":"BT","Proportion of network":"1.14%","_geocode_source":"postcodes.io","_geocode_postcode":"HA8 7AN","_geocode_admin_district":"Barnet","_geocode_country":"England"}},{"type":"Feature","geometry":{"type":"Point","coordinates":[-0.273136,51.611541]},"properties":{"Group name":"First","Company name":"London Sovereign Limited","LBR garage code":"BT","Garage name":"Edgware","Garage address":"Approach Road, Edgware, Middlesex, HA8 7AN","TfL main network routes":"288 303 H11 H14","TfL night routes":"","TfL school/mobility routes":"","Other routes":"","PVR":"29","TfL garage code":"BT","Proportion of network":"0.39%","_geocode_source":"postcodes.io","_geocode_postcode":"HA8 7AN","_geocode_admin_district":"Barnet","_geocode_country":"England"}},{"type":"Feature","geometry":{"type":"Point","coordinates":[-0.023324,51.53235]},"properties":{"Group name":"Stagecoach London","Company name":"East London Bus &amp; Coach Co. Ltd.","LBR garage code":"BW","Garage name":"Bow","Garage address":"Fairfield Road, Bow, London, E3 2QP","TfL main network routes":"8 25 205 425","TfL night routes":"N8 N25 N205","TfL school/mobility routes":"","Other routes":"","PVR":"95","TfL garage code":"BW","Proportion of network":"1.28%","_geocode_source":"postcodes.io","_geocode_postcode":"E3 2QP","_geocode_admin_district":"Tower Hamlets","_geocode_country":"England"}},{"type":"Feature","geometry":{"type":"Point","coordinates":[0.153803,51.460146]},"properties":{"Group name":"Go-Ahead","Company name":"London General Transport Services Ltd<br>t/a London Central","LBR garage code":"BX","Garage name":"Bexleyheath","Garage address":"Erith Road, Bexleyheath, Kent, DA7 6BX","TfL main network routes":"89 99 132 269 401 486 B11 B12 B13 B15 B16","TfL night routes":"486","TfL school/mobility routes":"","Other routes":"","PVR":"115","TfL garage code":"BX","Proportion of network":"1.55%","_geocode_source":"postcodes.io","_geocode_postcode":"DA7 6BX","_geocode_admin_district":"Bexley","_geocode_country":"England"}},{"type":"Feature","geometry":{"type":"Point","coordinates":[-0.1386,51.383725]},"properties":{"Group name":"Go-Ahead","Company name":"London General Transport Services Ltd<br>t/a Metrobus","LBR garage code":"C","Garage name":"Croydon","Garage address":"134 Beddington Lane, Beddington, Croydon, CR0 4TD","TfL main network routes":"119 127 264 359 403 434 439 450 463 S4 SL7","TfL night routes":"119 264","TfL school/mobility routes":"633","Other routes":"","PVR":"113","TfL garage code":"C","Proportion of network":"1.52%","_geocode_source":"postcodes.io","_geocode_postcode":"CR0 4TD","_geocode_admin_district":"Sutton","_geocode_country":"England"}},{"type":"Feature","geometry":{"type":"Point","coordinates":[-0.05318,51.547327]},"properties":{"Group name":"Arriva","Company name":"Arriva London North Ltd.","LBR garage code":"CT","Garage name":"Clapton","Garage address":"15 Bohemia Place, Mare Street, London, E8 1DU","TfL main network routes":"38 73 253","TfL night routes":"N38 N73 N253","TfL school/mobility routes":"","Other routes":"","PVR":"79","TfL garage code":"CT","Proportion of network":"1.06%","_geocode_source":"postcodes.io","_geocode_postcode":"E8 1DU","_geocode_admin_district":"Hackney","_geocode_country":"England"}},{"type":"Feature","geometry":{"type":"Point","coordinates":[-0.050895,51.648654]},"properties":{"Group name":"Arriva","Company name":"Arriva London North Ltd.","LBR garage code":"E","Garage name":"Enfield","Garage address":"Southbury Road, Ponders End, Middlesex, EN3 4HX","TfL main network routes":"121 191 192 217 279 307 313 377","TfL night routes":"N279","TfL school/mobility routes":"313","Other routes":"","PVR":"122","TfL garage code":"E","Proportion of network":"1.64%","_geocode_source":"postcodes.io","_geocode_postcode":"EN3 4HX","_geocode_admin_district":"Enfield","_geocode_country":"England"}},{"type":"Feature","geometry":{"type":"Point","coordinates":[-0.273136,51.611541]},"properties":{"Group name":"Metroline","Company name":"Metroline Travel Ltd.","LBR garage code":"EW","Garage name":"Edgware","Garage address":"Approach Road, Edgware, Middlesex, HA8 7AN","TfL main network routes":"113 142 204 240 251","TfL night routes":"N113","TfL school/mobility routes":"606 642","Other routes":"","PVR":"79","TfL garage code":"EW","Proportion of network":"1.06%","_geocode_source":"postcodes.io","_geocode_postcode":"HA8 7AN","_geocode_admin_district":"Barnet","_geocode_country":"England"}},{"type":"Feature","geometry":{"type":"Point","coordinates":[-0.479059,51.349772]},"properties":{"Group name":"Falcon Coaches","Company name":"Falcon Coaches","LBR garage code":"FC","Garage name":"Byfleet","Garage address":"20a Wintersells Road, Byfleet, Surrey, KT14 7LF","TfL main network routes":"","TfL night routes":"","TfL school/mobility routes":"","Other routes":"","PVR":"0","TfL garage code":"","Proportion of network":"0.00%","_geocode_source":"postcodes.io","_geocode_postcode":"KT14 7LF","_geocode_admin_district":"Elmbridge","_geocode_country":"England"}},{"type":"Feature","geometry":{"type":"Point","coordinates":[-0.35139,51.433889]},"properties":{"Group name":"First","Company name":"London United Busways Ltd","LBR garage code":"FW","Garage name":"Fulwell","Garage address":"Wellington Road, Fulwell, Middlesex, TW2 5NX","TfL main network routes":"33 65 71 216 281 290 371 K3","TfL night routes":"281 N33 N65","TfL school/mobility routes":"681","Other routes":"","PVR":"124","TfL garage code":"FW","Proportion of network":"1.67%","_geocode_source":"postcodes.io","_geocode_postcode":"TW2 5NX","_geocode_admin_district":"Richmond upon Thames","_geocode_country":"England"}},{"type":"Feature","geometry":{"type":"Point","coordinates":[-0.159942,51.38872]},"properties":{"Group name":"Go-Ahead","Company name":"London General Transport Services Ltd","LBR garage code":"GM","Garage name":"Ellis Road","Garage address":"Goat Road, CR4 4HU","TfL main network routes":"80 280 470","TfL night routes":"","TfL school/mobility routes":"","Other routes":"","PVR":"26","TfL garage code":"GM","Proportion of network":"0.35%","_geocode_source":"postcodes.io","_geocode_postcode":"CR4 4HU","_geocode_admin_district":"Merton","_geocode_country":"England"}},{"type":"Feature","geometry":{"type":"Point","coordinates":[0.29398,51.477398]},"properties":{"Group name":"Arriva","Company name":"Arriva London North Ltd.","LBR garage code":"GY","Garage name":"Grays","Garage address":"Unit 7, Europa Park, London Road, Grays, Essex, RM20 4DB","TfL main network routes":"66 103 248 370 375","TfL night routes":"","TfL school/mobility routes":"","Other routes":"","PVR":"57","TfL garage code":"GY","Proportion of network":"0.77%","_geocode_source":"postcodes.io","_geocode_postcode":"RM20 4DB","_geocode_admin_district":"Thurrock","_geocode_country":"England"}},{"type":"Feature","geometry":{"type":"Point","coordinates":[-0.45884,51.453245]},"properties":{"Group name":"Diamond Bus South-East","Company name":"Hallmark Connections Ltd (Rotala)","LBR garage code":"HC","Garage name":"Hounslow","Garage address":"Coach Travel Centre, Bedfont Road, Stanwell, Middx, TW19 7LZ","TfL main network routes":"","TfL night routes":"","TfL school/mobility routes":"","Other routes":"","PVR":"0","TfL garage code":"","Proportion of network":"0.00%","_geocode_source":"postcodes.io","_geocode_postcode":"TW19 7LZ","_geocode_admin_district":"Hounslow","_geocode_country":"England"}},{"type":"Feature","geometry":{"type":"Point","coordinates":[-0.340525,51.605644]},"properties":{"Group name":"Metroline","Company name":"Metroline Travel Ltd.","LBR garage code":"HD","Garage name":"Harrow Weald","Garage address":"467 High Road, Harrow Weald, Middlesex, HA3 6EJ","TfL main network routes":"140 182 186 258","TfL night routes":"N98 N140","TfL school/mobility routes":"","Other routes":"","PVR":"72","TfL garage code":"HD","Proportion of network":"0.97%","_geocode_source":"postcodes.io","_geocode_postcode":"HA3 6EJ","_geocode_admin_district":"Harrow","_geocode_country":"England"}},{"type":"Feature","geometry":{"type":"Point","coordinates":[-0.014839,51.555687]},"properties":{"Group name":"Stagecoach London","Company name":"Lea Interchange Bus Co. Ltd.","LBR garage code":"LI","Garage name":"Lea Interchange","Garage address":"151 Ruckholt Road, Leyton, London, E10 5PB","TfL main network routes":"58 86 97 135 236 276 308 339 488 D8 W13 W14","TfL night routes":"","TfL school/mobility routes":"678 W13","Other routes":"","PVR":"143","TfL garage code":"HO","Proportion of network":"1.92%","_geocode_source":"postcodes.io","_geocode_postcode":"E10 5PB","_geocode_admin_district":"Waltham Forest","_geocode_country":"England"}},{"type":"Feature","geometry":{"type":"Point","coordinates":[-0.131605,51.56265]},"properties":{"Group name":"Metroline","Company name":"Metroline Travel Ltd.","LBR garage code":"HT","Garage name":"Holloway","Garage address":"37A Pemberton Gardens, London, N19 5RR","TfL main network routes":"4 17 43 46 153 234 274 390 393 C11 W7","TfL night routes":"43 390 N20","TfL school/mobility routes":"603","Other routes":"","PVR":"157","TfL garage code":"HT","Proportion of network":"2.11%","_geocode_source":"postcodes.io","_geocode_postcode":"N19 5RR","_geocode_admin_district":"Islington","_geocode_country":"England"}},{"type":"Feature","geometry":{"type":"Point","coordinates":[-0.034189,51.426687]},"properties":{"Group name":"Stagecoach London","Company name":"South East London &amp; Kent Bus Co. Ltd.","LBR garage code":"KB","Garage name":"Kangley Bridge Road","Garage address":"Kangley Bridge Road, Lower Sydenham, London, SE26 5BA","TfL main network routes":"181 284 356","TfL night routes":"","TfL school/mobility routes":"","Other routes":"","PVR":"34","TfL garage code":"KB","Proportion of network":"0.46%","_geocode_source":"postcodes.io","_geocode_postcode":"SE26 5BA","_geocode_admin_district":"Lewisham","_geocode_country":"England"}},{"type":"Feature","geometry":{"type":"Point","coordinates":[0.087681,51.356558]},"properties":{"Group name":"Go-Ahead","Company name":"London General Transport Services Ltd<br>t/a Metrobus","LBR garage code":"MB","Garage name":"Orpington","Garage address":"Oak Farm, Farnborough Hill, Green Street Green, Orpington, Kent, BR6 6DA","TfL main network routes":"208 233 320 353 358 R1 R10 R11 R2 R3 R4 R5 R7 R8 R9","TfL night routes":"","TfL school/mobility routes":"664","Other routes":"","PVR":"104","TfL garage code":"MB","Proportion of network":"1.40%","_geocode_source":"postcodes.io","_geocode_postcode":"BR6 6DA","_geocode_admin_district":"Bromley","_geocode_country":"England"}},{"type":"Feature","geometry":{"type":"Point","coordinates":[0.003631,51.493448]},"properties":{"Group name":"Go-Ahead","Company name":"London General Transport Services Ltd<br>t/a London Central","LBR garage code":"MG","Garage name":"Morden Wharf (Greenwich)","Garage address":"Morden Wharf Road, Greenwich, London, SE10 0NU","TfL main network routes":"51 178 244 286 291 386 469 SL11","TfL night routes":"N472","TfL school/mobility routes":"601 624 625 658","Other routes":"","PVR":"113","TfL garage code":"MG","Proportion of network":"1.52%","_geocode_source":"postcodes.io","_geocode_postcode":"SE10 0NU","_geocode_admin_district":"Greenwich","_geocode_country":"England"}},{"type":"Feature","geometry":{"type":"Point","coordinates":[-0.161935,51.139062]},"properties":{"Group name":"Go-Ahead","Company name":"Metrobus Ltd","LBR garage code":"CY","Garage name":"Crawley","Garage address":"Wheatstone Close, Manor Royal, Crawley, West Sussex, RH10 9UA","TfL main network routes":"","TfL night routes":"","TfL school/mobility routes":"","Other routes":"","PVR":"0","TfL garage code":"MY","Proportion of network":"0.00%","_geocode_source":"postcodes.io","_geocode_postcode":"RH10 9UA","_geocode_admin_district":"Crawley","_geocode_country":"England"}},{"type":"Feature","geometry":{"type":"Point","coordinates":[-0.103945,51.430084]},"properties":{"Group name":"Arriva","Company name":"Arriva London South Ltd.","LBR garage code":"N","Garage name":"Norwood","Garage address":"Ernest Avenue, West Norwood, London, SE27 0HN","TfL main network routes":"2 196 198 202 249 410 432 468 SL6","TfL night routes":"N2","TfL school/mobility routes":"627","Other routes":"","PVR":"132","TfL garage code":"N","Proportion of network":"1.78%","_geocode_source":"postcodes.io","_geocode_postcode":"SE27 0HN","_geocode_admin_district":"Lambeth","_geocode_country":"England"}},{"type":"Feature","geometry":{"type":"Point","coordinates":[-0.051211,51.600189]},"properties":{"Group name":"Go-Ahead","Company name":"London General Transport Services Ltd","LBR garage code":"NP","Garage name":"Northumberland Park","Garage address":"Marsh Lane, Tottenham, London, N17 0XB","TfL main network routes":"91 106 144 184 212 230 232 299 318 357 389 399 444 456 476 W15","TfL night routes":"N91","TfL school/mobility routes":"184 677","Other routes":"","PVR":"179","TfL garage code":"NP","Proportion of network":"2.41%","_geocode_source":"postcodes.io","_geocode_postcode":"N17 0XB","_geocode_admin_district":"Haringey","_geocode_country":"England"}},{"type":"Feature","geometry":{"type":"Point","coordinates":[0.175214,51.583954]},"properties":{"Group name":"Stagecoach London","Company name":"East London Bus &amp; Coach Co. Ltd.","LBR garage code":"NS","Garage name":"Romford","Garage address":"North Street, Romford, Essex, RM1 1DS","TfL main network routes":"86 128 193 247 256 294 296 365 498","TfL night routes":"128 365 N86","TfL school/mobility routes":"","Other routes":"","PVR":"88","TfL garage code":"NS","Proportion of network":"1.18%","_geocode_source":"postcodes.io","_geocode_postcode":"RM1 1DS","_geocode_admin_district":"Havering","_geocode_country":"England"}},{"type":"Feature","geometry":{"type":"Point","coordinates":[-0.176509,51.697702]},"properties":{"Group name":"Metroline","Company name":"Metroline Travel Ltd.","LBR garage code":"PB","Garage name":"Potters Bar","Garage address":"High Street, Potters Bar, Herts, EN6 5BE","TfL main network routes":"107 134 231 263 317 327 382 384 491 W8 W9","TfL night routes":"134 N263","TfL school/mobility routes":"617 626 629 634","Other routes":"","PVR":"124","TfL garage code":"PB","Proportion of network":"1.67%","_geocode_source":"postcodes.io","_geocode_postcode":"EN6 5BE","_geocode_admin_district":"Hertsmere","_geocode_country":"England"}},{"type":"Feature","geometry":{"type":"Point","coordinates":[0.083469,51.491193]},"properties":{"Group name":"Stagecoach London","Company name":"South East London &amp; Kent Bus Co. Ltd.","LBR garage code":"PD","Garage name":"Plumstead","Garage address":"Pettman Crescent, Plumstead, London, SE28 0BJ","TfL main network routes":"53 122 161 177 180 380 422","TfL night routes":"N53","TfL school/mobility routes":"602 669 672","Other routes":"","PVR":"136","TfL garage code":"PD","Proportion of network":"1.83%","_geocode_source":"postcodes.io","_geocode_postcode":"SE28 0BJ","_geocode_admin_district":"Greenwich","_geocode_country":"England"}},{"type":"Feature","geometry":{"type":"Point","coordinates":[-0.061565,51.46574]},"properties":{"Group name":"Go-Ahead","Company name":"London General Transport Services Ltd<br>t/a London Central","LBR garage code":"PM","Garage name":"Peckham","Garage address":"Blackpool Road, Peckham, London, SE15 3SE","TfL main network routes":"37 78 197 P12","TfL night routes":"37","TfL school/mobility routes":"","Other routes":"","PVR":"61","TfL garage code":"PM","Proportion of network":"0.82%","_geocode_source":"postcodes.io","_geocode_postcode":"SE15 3SE","_geocode_admin_district":"Southwark","_geocode_country":"England"}},{"type":"Feature","geometry":{"type":"Point","coordinates":[0.231665,51.493925]},"properties":{"Group name":"First","Company name":"Ensign Bus Co Ltd","LBR garage code":"PT","Garage name":"Purfleet","Garage address":"Juliette Close, Purfleet Industrial Park, Aveley, South Ockendon, RM15 4YF","TfL main network routes":"","TfL night routes":"","TfL school/mobility routes":"","Other routes":"","PVR":"0","TfL garage code":"","Proportion of network":"0.00%","_geocode_source":"postcodes.io","_geocode_postcode":"RM15 4YF","_geocode_admin_district":"Thurrock","_geocode_country":"England"}},{"type":"Feature","geometry":{"type":"Point","coordinates":[-0.318859,51.533792]},"properties":{"Group name":"Metroline","Company name":"Metroline Travel Ltd.","LBR garage code":"PV","Garage name":"Perivale [East]","Garage address":"Alperton Lane, Western Avenue, Greenford, Middlesex, UB6 8DW","TfL main network routes":"7 83 90 245 297 483","TfL night routes":"297 N7 N83","TfL school/mobility routes":"","Other routes":"","PVR":"77","TfL garage code":"PV","Proportion of network":"1.04%","_geocode_source":"postcodes.io","_geocode_postcode":"UB6 8DW","_geocode_admin_district":"Ealing","_geocode_country":"England"}},{"type":"Feature","geometry":{"type":"Point","coordinates":[-0.09577,51.474116]},"properties":{"Group name":"Go-Ahead","Company name":"London General Transport Services Ltd<br>t/a London Central","LBR garage code":"Q","Garage name":"Camberwell","Garage address":"1 Warner Road, Camberwell, London, SE5 9LU","TfL main network routes":"1 12 35 40 42 100 108 176 185 188 355 360 484","TfL night routes":"12 35 176 188 N1","TfL school/mobility routes":"","Other routes":"","PVR":"199","TfL garage code":"Q","Proportion of network":"2.68%","_geocode_source":"postcodes.io","_geocode_postcode":"SE5 9LU","_geocode_admin_district":"Southwark","_geocode_country":"England"}},{"type":"Feature","geometry":{"type":"Point","coordinates":[-0.145866,51.472356]},"properties":{"Group name":"Transport UK","Company name":"Transport UK London Bus Ltd.","LBR garage code":"QB","Garage name":"Battersea","Garage address":"Silverthorne Road, Battersea, London, SW8 3HE","TfL main network routes":"24 27 133 156 159 211 306 322 337 344 345 415 485 C3 G1","TfL night routes":"24 159 344 345 N27 N133","TfL school/mobility routes":"639 670","Other routes":"","PVR":"220","TfL garage code":"QB","Proportion of network":"2.96%","_geocode_source":"postcodes.io","_geocode_postcode":"SW8 3HE","_geocode_admin_district":"Wandsworth","_geocode_country":"England"}},{"type":"Feature","geometry":{"type":"Point","coordinates":[-0.109155,51.50283]},"properties":{"Group name":"Go-Ahead","Company name":"London General Transport Services Ltd","LBR garage code":"RA","Garage name":"Waterloo","Garage address":"Cornwall Road, London, SE1 8TE","TfL main network routes":"14 214 BL1","TfL night routes":"214","TfL school/mobility routes":"","Other routes":"","PVR":"36","TfL garage code":"RA","Proportion of network":"0.48%","_geocode_source":"postcodes.io","_geocode_postcode":"SE1 8TE","_geocode_admin_district":"Lambeth","_geocode_country":"England"}},{"type":"Feature","geometry":{"type":"Point","coordinates":[0.18476,51.515664]},"properties":{"Group name":"Stagecoach London","Company name":"East London Bus &amp; Coach Co. Ltd.","LBR garage code":"RM","Garage name":"Rainham","Garage address":"Unit 2, Albright Industrial Estate, Ferry Lane, Rainham, Essex, RM13 9BU","TfL main network routes":"165 174 252 256 287 346 365 372 496 499","TfL night routes":"","TfL school/mobility routes":"674","Other routes":"","PVR":"111","TfL garage code":"RM","Proportion of network":"1.49%","_geocode_source":"postcodes.io","_geocode_postcode":"RM13 9BU","_geocode_admin_district":"Havering","_geocode_country":"England"}},{"type":"Feature","geometry":{"type":"Point","coordinates":[-0.251556,51.529976]},"properties":{"Group name":"First","Company name":"London United Busways Ltd","LBR garage code":"RP","Garage name":"Park Royal","Garage address":"Atlas Road, Harlesden, London, NW10 6DN","TfL main network routes":"18","TfL night routes":"N18 N118","TfL school/mobility routes":"","Other routes":"","PVR":"37","TfL garage code":"RP","Proportion of network":"0.50%","_geocode_source":"postcodes.io","_geocode_postcode":"NW10 6DN","_geocode_admin_district":"Ealing","_geocode_country":"England"}},{"type":"Feature","geometry":{"type":"Point","coordinates":[-0.226176,51.501934]},"properties":{"Group name":"First","Company name":"London United Busways Ltd","LBR garage code":"S","Garage name":"Shepherd's Bush","Garage address":"Wells Road, London, W12 8DA","TfL main network routes":"49 70 72 94 148 C1","TfL night routes":"94 148 N72","TfL school/mobility routes":"","Other routes":"","PVR":"95","TfL garage code":"S","Proportion of network":"1.28%","_geocode_source":"postcodes.io","_geocode_postcode":"W12 8DA","_geocode_admin_district":"Hammersmith and Fulham","_geocode_country":"England"}},{"type":"Feature","geometry":{"type":"Point","coordinates":[-0.067328,51.574593]},"properties":{"Group name":"Arriva","Company name":"Arriva London North Ltd.","LBR garage code":"SF","Garage name":"Stamford Hill","Garage address":"Rookwood Road, London N16 6SS","TfL main network routes":"19 67 76 254","TfL night routes":"76 N19","TfL school/mobility routes":"","Other routes":"","PVR":"74","TfL garage code":"SF","Proportion of network":"1.00%","_geocode_source":"postcodes.io","_geocode_postcode":"N16 6SS","_geocode_admin_district":"Hackney","_geocode_country":"England"}},{"type":"Feature","geometry":{"type":"Point","coordinates":[-0.361549,51.476457]},"properties":{"Group name":"Metroline","Company name":"Metroline Travel Ltd.","LBR garage code":"SG","Garage name":"Lampton","Garage address":"27A Spring Grove Rd, Hounslow TW3 4BE","TfL main network routes":"81 120","TfL night routes":"","TfL school/mobility routes":"635","Other routes":"","PVR":"36","TfL garage code":"SG","Proportion of network":"0.48%","_geocode_source":"postcodes.io","_geocode_postcode":"TW3 4BE","_geocode_admin_district":"Hounslow","_geocode_country":"England"}},{"type":"Feature","geometry":{"type":"Point","coordinates":[-0.035919,51.426275]},"properties":{"Group name":"Go-Ahead","Company name":"London General Transport Services Ltd<br>t/a London Central","LBR garage code":"SM","Garage name":"Sydenham","Garage address":"Kangley Bridge Road, Lower Sydenham, London, SE26 5AQ","TfL main network routes":"126 162 227 352 354","TfL night routes":"","TfL school/mobility routes":"","Other routes":"","PVR":"45","TfL garage code":"SM","Proportion of network":"0.61%","_geocode_source":"postcodes.io","_geocode_postcode":"SE26 5AQ","_geocode_admin_district":"Lewisham","_geocode_country":"England"}},{"type":"Feature","geometry":{"type":"Point","coordinates":[-0.090224,51.13785]},"properties":{"Group name":"Go-Ahead","Company name":"Metrobus Ltd","LBR garage code":"SP","Garage name":"Copthorne","Garage address":"Unit 3 Silverwood, Snow Hill, Copthorne, West Sussex, RH10 3EN","TfL main network routes":"","TfL night routes":"","TfL school/mobility routes":"","Other routes":"","PVR":"0","TfL garage code":"","Proportion of network":"0.00%","_geocode_source":"postcodes.io","_geocode_postcode":"RH10 3EN","_geocode_admin_district":"Mid Sussex","_geocode_country":"England"}},{"type":"Feature","geometry":{"type":"Point","coordinates":[-0.123662,51.474125]},"properties":{"Group name":"Go-Ahead","Company name":"London General Transport Services Ltd","LBR garage code":"SW","Garage name":"Stockwell","Garage address":"Binfield Road, London, SW4 6ST","TfL main network routes":"11 44 77 87 88 155 170 209 333 378 424 533","TfL night routes":"88 N11 N44 N87 N155","TfL school/mobility routes":"690","Other routes":"","PVR":"158","TfL garage code":"SW","Proportion of network":"2.13%","_geocode_source":"postcodes.io","_geocode_postcode":"SW4 6ST","_geocode_admin_district":"Lambeth","_geocode_country":"England"}},{"type":"Feature","geometry":{"type":"Point","coordinates":[-0.00875,51.573884]},"properties":{"Group name":"Stagecoach London","Company name":"East London Bus &amp; Coach Co. Ltd.","LBR garage code":"T","Garage name":"Leyton","Garage address":"High Road, Leyton, London, E10 6AD","TfL main network routes":"20 55 56 215 257 275","TfL night routes":"N55","TfL school/mobility routes":"616 657","Other routes":"","PVR":"94","TfL garage code":"T","Proportion of network":"1.26%","_geocode_source":"postcodes.io","_geocode_postcode":"E10 6AD","_geocode_admin_district":"Waltham Forest","_geocode_country":"England"}},{"type":"Feature","geometry":{"type":"Point","coordinates":[0.045001,51.375099]},"properties":{"Group name":"Stagecoach London","Company name":"South East London &amp; Kent Bus Co. Ltd.","LBR garage code":"TB","Garage name":"Bromley","Garage address":"111 Hastings Road, Bromley, Kent, BR2 8NH","TfL main network routes":"61 146 246 261 314 336 B14 SL3","TfL night routes":"","TfL school/mobility routes":"638 684","Other routes":"","PVR":"86","TfL garage code":"TB","Proportion of network":"1.16%","_geocode_source":"postcodes.io","_geocode_postcode":"BR2 8NH","_geocode_admin_district":"Bromley","_geocode_country":"England"}},{"type":"Feature","geometry":{"type":"Point","coordinates":[-0.097512,51.354252]},"properties":{"Group name":"Arriva","Company name":"Arriva London South Ltd.","LBR garage code":"TC","Garage name":"Croydon","Garage address":"Brighton Road, Croydon, Surrey, CR2 6EL","TfL main network routes":"60 166 194 312 405 412 466 SL5","TfL night routes":"","TfL school/mobility routes":"60 466 645 685","Other routes":"","PVR":"103","TfL garage code":"TC","Proportion of network":"1.39%","_geocode_source":"postcodes.io","_geocode_postcode":"CR2 6EL","_geocode_admin_district":"Croydon","_geocode_country":"England"}},{"type":"Feature","geometry":{"type":"Point","coordinates":[-0.347578,51.437063]},"properties":{"Group name":"Transport UK","Company name":"Transport UK West London Bus Ltd.","LBR garage code":"TF","Garage name":"Fulwell (Twickenham)","Garage address":"The Old Tram Depot, Stanley Road, Twickenham, Middlesex, TW2 5NP","TfL main network routes":"111 267 285 465 490 H20 H25 H26 R68 R70","TfL night routes":"111 285","TfL school/mobility routes":"481 671 969","Other routes":"","PVR":"129","TfL garage code":"TF","Proportion of network":"1.74%","_geocode_source":"postcodes.io","_geocode_postcode":"TW2 5NP","_geocode_admin_district":"Richmond upon Thames","_geocode_country":"England"}},{"type":"Feature","geometry":{"type":"Point","coordinates":[-0.114381,51.39323]},"properties":{"Group name":"Arriva","Company name":"Arriva London South Ltd.","LBR garage code":"TH","Garage name":"Thornton Heath","Garage address":"719 London Road, Thornton Heath, CR7 6AU","TfL main network routes":"64 250 255 289 410","TfL night routes":"64 N250","TfL school/mobility routes":"612 663 689","Other routes":"","PVR":"78","TfL garage code":"TH","Proportion of network":"1.05%","_geocode_source":"postcodes.io","_geocode_postcode":"CR7 6AU","_geocode_admin_district":"Croydon","_geocode_country":"England"}},{"type":"Feature","geometry":{"type":"Point","coordinates":[-0.134834,51.386219]},"properties":{"Group name":"First","Company name":"Tram Operations Limited","LBR garage code":"TK","Garage name":"Therapia Lane","Garage address":"22 Coomber Way, Beddington, Croydon, CR0 4TQ","TfL main network routes":"1 2 3 4","TfL night routes":"","TfL school/mobility routes":"","Other routes":"","PVR":"28","TfL garage code":"TK","Proportion of network":"0.38%","_geocode_source":"postcodes.io","_geocode_postcode":"CR0 4TQ","_geocode_admin_district":"Sutton","_geocode_country":"England"}},{"type":"Feature","geometry":{"type":"Point","coordinates":[-0.018598,51.433618]},"properties":{"Group name":"Stagecoach London","Company name":"South East London &amp; Kent Bus Co. Ltd.","LBR garage code":"TL","Garage name":"Catford","Garage address":"180 Bromley Road, Catford, London, SE6 2XA","TfL main network routes":"47 54 75 124 136 138 160 199 225 273","TfL night routes":"47 N199","TfL school/mobility routes":"621 660 661","Other routes":"","PVR":"130","TfL garage code":"TL","Proportion of network":"1.75%","_geocode_source":"postcodes.io","_geocode_postcode":"SE6 2XA","_geocode_admin_district":"Lewisham","_geocode_country":"England"}},{"type":"Feature","geometry":{"type":"Point","coordinates":[-0.525726,51.401329]},"properties":{"Group name":"Sullivan Buses","Company name":"Sullivan Buses Ltd.","LBR garage code":"TP","Garage name":"Thorpe Park","Garage address":"Thorpe Park, Staines Road, Chertsey, KT16 8PH","TfL main network routes":"","TfL night routes":"","TfL school/mobility routes":"","Other routes":"","PVR":"0","TfL garage code":"","Proportion of network":"0.00%","_geocode_source":"postcodes.io","_geocode_postcode":"KT16 8PH","_geocode_admin_district":"Runnymede","_geocode_country":"England"}},{"type":"Feature","geometry":{"type":"Point","coordinates":[-0.278685,51.375857]},"properties":{"Group name":"First","Company name":"London United Busways Ltd","LBR garage code":"TV","Garage name":"Tolworth","Garage address":"Kingston Road, Tolworth, KT5 9NU","TfL main network routes":"85 293 406 411 418 467 K1 K2 K4 K5","TfL night routes":"85","TfL school/mobility routes":"613 662 665","Other routes":"","PVR":"77","TfL garage code":"TV","Proportion of network":"1.04%","_geocode_source":"postcodes.io","_geocode_postcode":"KT5 9NU","_geocode_admin_district":"Kingston upon Thames","_geocode_country":"England"}},{"type":"Feature","geometry":{"type":"Point","coordinates":[-0.240742,51.771925]},"properties":{"Group name":"Uno","Company name":"University Bus Ltd","LBR garage code":"HF","Garage name":"Hatfield","Garage address":"Gypsy Moth Avenue, Hatfield Business Park, Hatfield, Hertfordshire, AL10 9BS","TfL main network routes":"292 298 383","TfL night routes":"","TfL school/mobility routes":"628 643 653 683 688 699","Other routes":"","PVR":"34","TfL garage code":"UB","Proportion of network":"0.46%","_geocode_source":"postcodes.io","_geocode_postcode":"AL10 9BS","_geocode_admin_district":"Welwyn Hatfield","_geocode_country":"England"}},{"type":"Feature","geometry":{"type":"Point","coordinates":[-0.48901,51.536817]},"properties":{"Group name":"Metroline","Company name":"Metroline West Ltd.","LBR garage code":"UE","Garage name":"Uxbridge Industrial Estate","Garage address":"51 Wallingford Road, Cowley, UB8 2RW","TfL main network routes":"114 222 331 A10 H13 U1 U10 U2 U3 U4","TfL night routes":"222","TfL school/mobility routes":"697","Other routes":"","PVR":"82","TfL garage code":"UX","Proportion of network":"1.10%","_geocode_source":"postcodes.io","_geocode_postcode":"UB8 2RW","_geocode_admin_district":"Hillingdon","_geocode_country":"England"}},{"type":"Feature","geometry":{"type":"Point","coordinates":[-0.48901,51.536817]},"properties":{"Group name":"Metroline","Company name":"Metroline West Ltd.","LBR garage code":"UE","Garage name":"Uxbridge Industrial Estate","Garage address":"51 Wallingford Road, Cowley, UB8 2RW","TfL main network routes":"222","TfL night routes":"","TfL school/mobility routes":"","Other routes":"","PVR":"14","TfL garage code":"UX","Proportion of network":"0.19%","_geocode_source":"postcodes.io","_geocode_postcode":"UB8 2RW","_geocode_admin_district":"Hillingdon","_geocode_country":"England"}},{"type":"Feature","geometry":{"type":"Point","coordinates":[-0.249484,51.493417]},"properties":{"Group name":"First","Company name":"London United Busways Ltd","LBR garage code":"V","Garage name":"Stamford Brook","Garage address":"72-74 Chiswick High Road, London, W4 1SY","TfL main network routes":"220 272 440 E3","TfL night routes":"220","TfL school/mobility routes":"","Other routes":"","PVR":"66","TfL garage code":"V","Proportion of network":"0.89%","_geocode_source":"postcodes.io","_geocode_postcode":"W4 1SY","_geocode_admin_district":"Hounslow","_geocode_country":"England"}},{"type":"Feature","geometry":{"type":"Point","coordinates":[-0.221893,51.562317]},"properties":{"Group name":"Metroline","Company name":"Metroline Travel Ltd.","LBR garage code":"W","Garage name":"Cricklewood","Garage address":"329 Edgware Road, Dollis Hill, London, NW2 6JP","TfL main network routes":"16 32 112 139 143 189 210 266 268 324 328 H2 H3","TfL night routes":"139 189 N32 N266","TfL school/mobility routes":"631 632","Other routes":"","PVR":"175","TfL garage code":"W","Proportion of network":"2.35%","_geocode_source":"postcodes.io","_geocode_postcode":"NW2 6JP","_geocode_admin_district":"Brent","_geocode_country":"England"}},{"type":"Feature","geometry":{"type":"Point","coordinates":[0.003785,51.51993]},"properties":{"Group name":"Stagecoach London","Company name":"East London Bus &amp; Coach Co. Ltd.","LBR garage code":"WH","Garage name":"West Ham","Garage address":"Stephenson Street, Canning Town, London, E16 4SA","TfL main network routes":"241 323","TfL night routes":"","TfL school/mobility routes":"649 650 651 667","Other routes":"","PVR":"31","TfL garage code":"WH","Proportion of network":"0.42%","_geocode_source":"postcodes.io","_geocode_postcode":"E16 4SA","_geocode_admin_district":"Newham","_geocode_country":"England"}},{"type":"Feature","geometry":{"type":"Point","coordinates":[-0.398697,51.463832]},"properties":{"Group name":"First","Company name":"London United Busways Ltd","LBR garage code":"WK","Garage name":"Hounslow Heath","Garage address":"Tamian Way, Hounslow, Middlesex, TW4 6BL","TfL main network routes":"105 116 235 423","TfL night routes":"105","TfL school/mobility routes":"","Other routes":"","PVR":"51","TfL garage code":"WK","Proportion of network":"0.69%","_geocode_source":"postcodes.io","_geocode_postcode":"TW4 6BL","_geocode_admin_district":"Hounslow","_geocode_country":"England"}},{"type":"Feature","geometry":{"type":"Point","coordinates":[-0.095974,51.475441]},"properties":{"Group name":"Transport UK","Company name":"Transport UK London Bus Ltd.","LBR garage code":"WL","Garage name":"Walworth","Garage address":"301 Camberwell New Road, London, SE5 0TF","TfL main network routes":"3 45 63 68 363 381 C10 P13 P5","TfL night routes":"N3 N63 N68 N381","TfL school/mobility routes":"","Other routes":"","PVR":"156","TfL garage code":"WL","Proportion of network":"2.10%","_geocode_source":"postcodes.io","_geocode_postcode":"SE5 0TF","_geocode_admin_district":"Southwark","_geocode_country":"England"}},{"type":"Feature","geometry":{"type":"Point","coordinates":[-0.112397,51.597952]},"properties":{"Group name":"Arriva","Company name":"Arriva London North Ltd.","LBR garage code":"WN","Garage name":"Wood Green","Garage address":"Jolly Butchers Hill, High Road, Wood Green, London, N22 7TZ","TfL main network routes":"29 141 221 329 W3 W4 W6","TfL night routes":"N29","TfL school/mobility routes":"","Other routes":"","PVR":"116","TfL garage code":"WN","Proportion of network":"1.56%","_geocode_source":"postcodes.io","_geocode_postcode":"N22 7TZ","_geocode_admin_district":"Haringey","_geocode_country":"England"}},{"type":"Feature","geometry":{"type":"Point","coordinates":[-0.201514,51.523365]},"properties":{"Group name":"First","Company name":"London Transit","LBR garage code":"X","Garage name":"Westbourne Park","Garage address":"Great Western Road, London, W9 3NW","TfL main network routes":"13 23 31 218 295 452","TfL night routes":"13 23 295 N31","TfL school/mobility routes":"","Other routes":"","PVR":"98","TfL garage code":"X","Proportion of network":"1.32%","_geocode_source":"postcodes.io","_geocode_postcode":"W9 3NW","_geocode_admin_district":"Westminster","_geocode_country":"England"}}]}